{
"type": "FeatureCollection",
"name": "buildings",
"crs": { "type": "name", "properties": { "name": "urn:ogc:def:crs:OGC:1.3:CRS84" } },
"features": [
{ "type": "Feature", "properties": { "building_id": "B01_001", "building_type": "residential", "settlement_id": "S01", "provenance": "synthetic" }, "geometry": { "type": "Polygon", "coordinates": [ [ [ 75.198872634640153, 18.09728938991713 ], [ 75.198872829868677, 18.097462548378395 ], [ 75.198632247910922, 18.097462796295446 ], [ 75.198632052918583, 18.097289637831658 ], [ 75.198872634640153, 18.09728938991713 ] ] ] } },
{ "type": "Feature", "properties": { "building_id": "B01_002", "building_type": "residential", "settlement_id": "S01", "provenance": "synthetic" }, "geometry": { "type": "Polygon", "coordinates": [ [ [ 75.191802834936254, 18.102626635514738 ], [ 75.191803037236042, 18.102812620843991 ], [ 75.191579028405528, 18.102812843537798 ], [ 75.191578826341996, 18.10262685820609 ], [ 75.191802834936254, 18.102626635514738 ] ] ] } },
{ "type": "Feature", "properties": { "building_id": "B01_003", "building_type": "residential", "settlement_id": "S01", "provenance": "synthetic" }, "geometry": { "type": "Polygon", "coordinates": [ [ [ 75.192116759607586, 18.09739406202138 ], [ 75.192116984337801, 18.097600395012485 ], [ 75.191959388839649, 18.097600551927606 ], [ 75.191959164293763, 18.097394218934603 ], [ 75.192116759607586, 18.09739406202138 ] ] ] } },
{ "type": "Feature", "properties": { "building_id": "B01_004", "building_type": "residential", "settlement_id": "S01", "provenance": "synthetic" }, "geometry": { "type": "Polygon", "coordinates": [ [ [ 75.197489142340444, 18.101141507936571 ], [ 75.197489260116953, 18.101246678189792 ], [ 75.197319307364594, 18.101246852167534 ], [ 75.197319189689438, 18.101141681913234 ], [ 75.197489142340444, 18.101141507936571 ] ] ] } },
{ "type": "Feature", "properties": { "building_id": "B01_005", "building_type": "residential", "settlement_id": "S01", "provenance": "synthetic" }, "geometry": { "type": "Polygon", "coordinates": [ [ [ 75.196585161586725, 18.093567493259727 ], [ 75.196585343939915, 18.093731150016904 ], [ 75.196350035125135, 18.093731389669845 ], [ 75.196349852990224, 18.093567732910358 ], [ 75.196585161586725, 18.093567493259727 ] ] ] } },
{ "type": "Feature", "properties": { "building_id": "B01_006", "building_type": "residential", "settlement_id": "S01", "provenance": "synthetic" }, "geometry": { "type": "Polygon", "coordinates": [ [ [ 75.198716234852796, 18.096436734323632 ], [ 75.198716461808601, 18.096638201814915 ], [ 75.198456810102911, 18.096638469149287 ], [ 75.198456583443644, 18.096437001654827 ], [ 75.198716234852796, 18.096436734323632 ] ] ] } },
{ "type": "Feature", "properties": { "building_id": "B01_007", "building_type": "residential", "settlement_id": "S01", "provenance": "synthetic" }, "geometry": { "type": "Polygon", "coordinates": [ [ [ 75.198882646154829, 18.094908319101368 ], [ 75.198882734812685, 18.094986961794884 ], [ 75.198708823106386, 18.094987141026831 ], [ 75.198708734526065, 18.09490849833249 ], [ 75.198882646154829, 18.094908319101368 ] ] ] } },
{ "type": "Feature", "properties": { "building_id": "B01_008", "building_type": "residential", "settlement_id": "S01", "provenance": "synthetic" }, "geometry": { "type": "Polygon", "coordinates": [ [ [ 75.192423227253556, 18.099704029082091 ], [ 75.192423458801855, 18.099916254358806 ], [ 75.192202239918032, 18.099916474962004 ], [ 75.192202008635917, 18.099704249682528 ], [ 75.192423227253556, 18.099704029082091 ] ] ] } },
{ "type": "Feature", "properties": { "building_id": "B01_009", "building_type": "residential", "settlement_id": "S01", "provenance": "synthetic" }, "geometry": { "type": "Polygon", "coordinates": [ [ [ 75.194179851684979, 18.096650653066451 ], [ 75.194179961444846, 18.096750361626228 ], [ 75.194005565682872, 18.096750537119757 ], [ 75.194005456021571, 18.096650828558953 ], [ 75.194179851684979, 18.096650653066451 ] ] ] } },
{ "type": "Feature", "properties": { "building_id": "B01_010", "building_type": "residential", "settlement_id": "S01", "provenance": "synthetic" }, "geometry": { "type": "Polygon", "coordinates": [ [ [ 75.192123610072969, 18.097664365274607 ], [ 75.192123794340063, 18.097833539046082 ], [ 75.191990677664108, 18.097833671602686 ], [ 75.191990493524699, 18.097664497829886 ], [ 75.192123610072969, 18.097664365274607 ] ] ] } },
{ "type": "Feature", "properties": { "building_id": "B01_011", "building_type": "residential", "settlement_id": "S01", "provenance": "synthetic" }, "geometry": { "type": "Polygon", "coordinates": [ [ [ 75.195361956879523, 18.101236113426353 ], [ 75.195362087026226, 18.101353594540679 ], [ 75.195148436579558, 18.101353810871117 ], [ 75.195148306575192, 18.101236329755292 ], [ 75.195361956879523, 18.101236113426353 ] ] ] } },
{ "type": "Feature", "properties": { "building_id": "B01_012", "building_type": "residential", "settlement_id": "S01", "provenance": "synthetic" }, "geometry": { "type": "Polygon", "coordinates": [ [ [ 75.199442860928656, 18.10095614491642 ], [ 75.199442989860245, 18.101070149651768 ], [ 75.199282553538211, 18.101070315515738 ], [ 75.199282424710347, 18.100956310779281 ], [ 75.199442860928656, 18.10095614491642 ] ] ] } },
{ "type": "Feature", "properties": { "building_id": "B01_013", "building_type": "residential", "settlement_id": "S01", "provenance": "synthetic" }, "geometry": { "type": "Polygon", "coordinates": [ [ [ 75.1978624576969, 18.094366304761156 ], [ 75.197862539986659, 18.094439677442107 ], [ 75.19773401939176, 18.094439809226301 ], [ 75.197733937155448, 18.094366436544789 ], [ 75.1978624576969, 18.094366304761156 ] ] ] } },
{ "type": "Feature", "properties": { "building_id": "B01_014", "building_type": "residential", "settlement_id": "S01", "provenance": "synthetic" }, "geometry": { "type": "Polygon", "coordinates": [ [ [ 75.198996936268969, 18.099529931781682 ], [ 75.198997145247588, 18.099715145525185 ], [ 75.198782663165645, 18.099715366723096 ], [ 75.198782454412239, 18.099530152977177 ], [ 75.198996936268969, 18.099529931781682 ] ] ] } },
{ "type": "Feature", "properties": { "building_id": "B01_015", "building_type": "residential", "settlement_id": "S01", "provenance": "synthetic" }, "geometry": { "type": "Polygon", "coordinates": [ [ [ 75.195537660188023, 18.098626085419959 ], [ 75.195537758713201, 18.098714956248742 ], [ 75.195419461440366, 18.098715076151862 ], [ 75.195419362974775, 18.09862620532245 ], [ 75.195537660188023, 18.098626085419959 ] ] ] } },
{ "type": "Feature", "properties": { "building_id": "B01_016", "building_type": "residential", "settlement_id": "S01", "provenance": "synthetic" }, "geometry": { "type": "Polygon", "coordinates": [ [ [ 75.197750653858122, 18.097605973766129 ], [ 75.197750858953995, 18.097788912727225 ], [ 75.19756018462212, 18.097789108133536 ], [ 75.197559979723991, 18.09760616917033 ], [ 75.197750653858122, 18.097605973766129 ] ] ] } },
{ "type": "Feature", "properties": { "building_id": "B01_017", "building_type": "residential", "settlement_id": "S01", "provenance": "synthetic" }, "geometry": { "type": "Polygon", "coordinates": [ [ [ 75.197400893811874, 18.098459746796809 ], [ 75.197401023933068, 18.098576010764525 ], [ 75.197211374423389, 18.098576204784358 ], [ 75.197211244427223, 18.098459940815317 ], [ 75.197400893811874, 18.098459746796809 ] ] ] } },
{ "type": "Feature", "properties": { "building_id": "B01_018", "building_type": "residential", "settlement_id": "S01", "provenance": "synthetic" }, "geometry": { "type": "Polygon", "coordinates": [ [ [ 75.19109183041509, 18.097296655261747 ], [ 75.191091972753128, 18.097428043015103 ], [ 75.190960953103399, 18.09742817278077 ], [ 75.190960810862947, 18.097296785026405 ], [ 75.19109183041509, 18.097296655261747 ] ] ] } },
{ "type": "Feature", "properties": { "building_id": "B01_019", "building_type": "commercial", "settlement_id": "S01", "provenance": "synthetic" }, "geometry": { "type": "Polygon", "coordinates": [ [ [ 75.199628257292744, 18.095281112316737 ], [ 75.199628385164516, 18.09539411287415 ], [ 75.199523954143189, 18.095394220924483 ], [ 75.199523826338307, 18.095281220366353 ], [ 75.199628257292744, 18.095281112316737 ] ] ] } },
{ "type": "Feature", "properties": { "building_id": "B01_020", "building_type": "commercial", "settlement_id": "S01", "provenance": "synthetic" }, "geometry": { "type": "Polygon", "coordinates": [ [ [ 75.193855336098096, 18.099505765216062 ], [ 75.193855540180721, 18.099691437330904 ], [ 75.193666259458098, 18.099691627504065 ], [ 75.193666055574738, 18.099505955387134 ], [ 75.193855336098096, 18.099505765216062 ] ] ] } },
{ "type": "Feature", "properties": { "building_id": "B01_021", "building_type": "commercial", "settlement_id": "S01", "provenance": "synthetic" }, "geometry": { "type": "Polygon", "coordinates": [ [ [ 75.197728627633126, 18.097005875112689 ], [ 75.197728735754126, 18.097102330015094 ], [ 75.197495737980802, 18.097102568735092 ], [ 75.197495629987216, 18.097006113831327 ], [ 75.197728627633126, 18.097005875112689 ] ] ] } },
{ "type": "Feature", "properties": { "building_id": "B01_022", "building_type": "commercial", "settlement_id": "S01", "provenance": "synthetic" }, "geometry": { "type": "Polygon", "coordinates": [ [ [ 75.191047014487339, 18.09384612864848 ], [ 75.191047165117396, 18.093985231509578 ], [ 75.190829764843343, 18.093985446694628 ], [ 75.190829614384654, 18.093846343831764 ], [ 75.191047014487339, 18.09384612864848 ] ] ] } },
{ "type": "Feature", "properties": { "building_id": "B01_023", "building_type": "commercial", "settlement_id": "S01", "provenance": "synthetic" }, "geometry": { "type": "Polygon", "coordinates": [ [ [ 75.192443470707417, 18.097914067603888 ], [ 75.192443659466264, 18.098087074613183 ], [ 75.192323233460257, 18.098087194737648 ], [ 75.192323044819517, 18.097914187727131 ], [ 75.192443470707417, 18.097914067603888 ] ] ] } },
{ "type": "Feature", "properties": { "building_id": "B01_024", "building_type": "commercial", "settlement_id": "S01", "provenance": "synthetic" }, "geometry": { "type": "Polygon", "coordinates": [ [ [ 75.19541665216758, 18.096722536167622 ], [ 75.19541683324924, 18.096885993051618 ], [ 75.195271025609657, 18.096886140723875 ], [ 75.195270844663085, 18.096722683838436 ], [ 75.19541665216758, 18.096722536167622 ] ] ] } },
{ "type": "Feature", "properties": { "building_id": "B02_001", "building_type": "residential", "settlement_id": "S02", "provenance": "synthetic" }, "geometry": { "type": "Polygon", "coordinates": [ [ [ 75.270086591003846, 18.065324238448213 ], [ 75.270086914105832, 18.065535651719735 ], [ 75.26997234619823, 18.065535811876511 ], [ 75.269972023233265, 18.065324398602986 ], [ 75.270086591003846, 18.065324238448213 ] ] ] } },
{ "type": "Feature", "properties": { "building_id": "B02_002", "building_type": "residential", "settlement_id": "S02", "provenance": "synthetic" }, "geometry": { "type": "Polygon", "coordinates": [ [ [ 75.275792066489188, 18.071400931343362 ], [ 75.275792398178496, 18.071613396995748 ], [ 75.275652674929674, 18.071613596493492 ], [ 75.275652343408439, 18.071401130838609 ], [ 75.275792066489188, 18.071400931343362 ] ] ] } },
{ "type": "Feature", "properties": { "building_id": "B02_003", "building_type": "residential", "settlement_id": "S02", "provenance": "synthetic" }, "geometry": { "type": "Polygon", "coordinates": [ [ [ 75.274458448807181, 18.071624064983421 ], [ 75.274458622311315, 18.071735743080943 ], [ 75.274287687288734, 18.071735985950028 ], [ 75.274287513892659, 18.0716243078509 ], [ 75.274458448807181, 18.071624064983421 ] ] ] } },
{ "type": "Feature", "properties": { "building_id": "B02_004", "building_type": "residential", "settlement_id": "S02", "provenance": "synthetic" }, "geometry": { "type": "Polygon", "coordinates": [ [ [ 75.267368724109232, 18.073485478071717 ], [ 75.267368877853954, 18.073587050739274 ], [ 75.267196849780703, 18.073587288866026 ], [ 75.267196696134874, 18.073485716197041 ], [ 75.267368724109232, 18.073485478071717 ] ] ] } },
{ "type": "Feature", "properties": { "building_id": "B02_005", "building_type": "residential", "settlement_id": "S02", "provenance": "synthetic" }, "geometry": { "type": "Polygon", "coordinates": [ [ [ 75.269518457559016, 18.070219999710687 ], [ 75.269518756847575, 18.070416187268428 ], [ 75.269394189674244, 18.070416361074244 ], [ 75.269393890523986, 18.070220173514493 ], [ 75.269518457559016, 18.070219999710687 ] ] ] } },
{ "type": "Feature", "properties": { "building_id": "B02_006", "building_type": "residential", "settlement_id": "S02", "provenance": "synthetic" }, "geometry": { "type": "Polygon", "coordinates": [ [ [ 75.274246676672576, 18.071624270994022 ], [ 75.274246929756799, 18.071787297325123 ], [ 75.274078932024153, 18.07178753583851 ], [ 75.274078679094984, 18.071624509505128 ], [ 75.274246676672576, 18.071624270994022 ] ] ] } },
{ "type": "Feature", "properties": { "building_id": "B02_007", "building_type": "residential", "settlement_id": "S02", "provenance": "synthetic" }, "geometry": { "type": "Polygon", "coordinates": [ [ [ 75.272402969099147, 18.070950024381958 ], [ 75.272403173310096, 18.07108246435677 ], [ 75.272294310587043, 18.071082617885807 ], [ 75.272294106457707, 18.070950177909793 ], [ 75.272402969099147, 18.070950024381958 ] ] ] } },
{ "type": "Feature", "properties": { "building_id": "B02_008", "building_type": "residential", "settlement_id": "S02", "provenance": "synthetic" }, "geometry": { "type": "Polygon", "coordinates": [ [ [ 75.266782480105434, 18.069427914819883 ], [ 75.266782620846229, 18.06952112308656 ], [ 75.266632014452426, 18.06952133107146 ], [ 75.26663187379107, 18.06942812280364 ], [ 75.266782480105434, 18.069427914819883 ] ] ] } },
{ "type": "Feature", "properties": { "building_id": "B02_009", "building_type": "residential", "settlement_id": "S02", "provenance": "synthetic" }, "geometry": { "type": "Polygon", "coordinates": [ [ [ 75.267412539879984, 18.07030173797731 ], [ 75.267412851826933, 18.070507832579668 ], [ 75.267289335738724, 18.070508003573096 ], [ 75.267289023935874, 18.070301908968663 ], [ 75.267412539879984, 18.07030173797731 ] ] ] } },
{ "type": "Feature", "properties": { "building_id": "B02_010", "building_type": "residential", "settlement_id": "S02", "provenance": "synthetic" }, "geometry": { "type": "Polygon", "coordinates": [ [ [ 75.272409875885799, 18.067966133265767 ], [ 75.272409992445176, 18.068041738849296 ], [ 75.272214983325497, 18.068042013794031 ], [ 75.272214866849552, 18.067966408209276 ], [ 75.272409875885799, 18.067966133265767 ] ] ] } },
{ "type": "Feature", "properties": { "building_id": "B02_011", "building_type": "residential", "settlement_id": "S02", "provenance": "synthetic" }, "geometry": { "type": "Polygon", "coordinates": [ [ [ 75.276352266174797, 18.069302726642221 ], [ 75.276352397985434, 18.069386998437857 ], [ 75.27612475960845, 18.069387324035109 ], [ 75.276124627906398, 18.069303052237846 ], [ 75.276352266174797, 18.069302726642221 ] ] ] } },
{ "type": "Feature", "properties": { "building_id": "B02_012", "building_type": "residential", "settlement_id": "S02", "provenance": "synthetic" }, "geometry": { "type": "Polygon", "coordinates": [ [ [ 75.27146022732272, 18.069357857347846 ], [ 75.271460465452265, 18.069512845907973 ], [ 75.271206446338141, 18.069513202788738 ], [ 75.271206208431408, 18.069358214225353 ], [ 75.27146022732272, 18.069357857347846 ] ] ] } },
{ "type": "Feature", "properties": { "building_id": "B02_013", "building_type": "residential", "settlement_id": "S02", "provenance": "synthetic" }, "geometry": { "type": "Polygon", "coordinates": [ [ [ 75.271268368747499, 18.06713740500642 ], [ 75.271268595342761, 18.067285010161097 ], [ 75.271117700425904, 18.067285222026744 ], [ 75.27111747395665, 18.067137616870223 ], [ 75.271268368747499, 18.06713740500642 ] ] ] } },
{ "type": "Feature", "properties": { "building_id": "B02_014", "building_type": "residential", "settlement_id": "S02", "provenance": "synthetic" }, "geometry": { "type": "Polygon", "coordinates": [ [ [ 75.270947236061616, 18.064671215388962 ], [ 75.270947545605949, 18.064873122076776 ], [ 75.270712504291367, 18.064873451609248 ], [ 75.27071219501552, 18.064671544917498 ], [ 75.270947236061616, 18.064671215388962 ] ] ] } },
{ "type": "Feature", "properties": { "building_id": "B02_015", "building_type": "residential", "settlement_id": "S02", "provenance": "synthetic" }, "geometry": { "type": "Polygon", "coordinates": [ [ [ 75.267789796108559, 18.06998535392459 ], [ 75.267790053059045, 18.070154878130726 ], [ 75.267677086178793, 18.070155034741131 ], [ 75.267676829336708, 18.06998551053341 ], [ 75.267789796108559, 18.06998535392459 ] ] ] } },
{ "type": "Feature", "properties": { "building_id": "B02_016", "building_type": "residential", "settlement_id": "S02", "provenance": "synthetic" }, "geometry": { "type": "Polygon", "coordinates": [ [ [ 75.269309488630711, 18.071024058232627 ], [ 75.269309768308716, 18.071207524409981 ], [ 75.269091608830294, 18.071207828525608 ], [ 75.269091329378838, 18.071024362344961 ], [ 75.269309488630711, 18.071024058232627 ] ] ] } },
{ "type": "Feature", "properties": { "building_id": "B02_017", "building_type": "residential", "settlement_id": "S02", "provenance": "synthetic" }, "geometry": { "type": "Polygon", "coordinates": [ [ [ 75.267467743297132, 18.073630589487571 ], [ 75.267467860979238, 18.073708307700752 ], [ 75.267334201079976, 18.07370849279992 ], [ 75.267334083456674, 18.07363077458589 ], [ 75.267467743297132, 18.073630589487571 ] ] ] } },
{ "type": "Feature", "properties": { "building_id": "B02_018", "building_type": "residential", "settlement_id": "S02", "provenance": "synthetic" }, "geometry": { "type": "Polygon", "coordinates": [ [ [ 75.272158041222724, 18.068148832178839 ], [ 75.272158332632614, 18.068338025719775 ], [ 75.271922691770129, 18.068338357624363 ], [ 75.271922400612539, 18.068149164079724 ], [ 75.272158041222724, 18.068148832178839 ] ] ] } },
{ "type": "Feature", "properties": { "building_id": "B02_019", "building_type": "commercial", "settlement_id": "S02", "provenance": "synthetic" }, "geometry": { "type": "Polygon", "coordinates": [ [ [ 75.269650111927547, 18.073959765176713 ], [ 75.269650336022295, 18.07410655819135 ], [ 75.269506350061192, 18.074106759218044 ], [ 75.269506126086114, 18.073959966201652 ], [ 75.269650111927547, 18.073959765176713 ] ] ] } },
{ "type": "Feature", "properties": { "building_id": "B02_020", "building_type": "commercial", "settlement_id": "S02", "provenance": "synthetic" }, "geometry": { "type": "Polygon", "coordinates": [ [ [ 75.269003260901087, 18.073827076424294 ], [ 75.269003380911528, 18.073905878962467 ], [ 75.268880880542554, 18.073906049586672 ], [ 75.268880760586768, 18.073827247047703 ], [ 75.269003260901087, 18.073827076424294 ] ] ] } },
{ "type": "Feature", "properties": { "building_id": "B02_021", "building_type": "commercial", "settlement_id": "S02", "provenance": "synthetic" }, "geometry": { "type": "Polygon", "coordinates": [ [ [ 75.270927964052561, 18.074333574215181 ], [ 75.270928241021224, 18.074514142286873 ], [ 75.270682064744292, 18.074514487557934 ], [ 75.270681788027304, 18.074333919482562 ], [ 75.270927964052561, 18.074333574215181 ] ] ] } },
{ "type": "Feature", "properties": { "building_id": "B02_022", "building_type": "commercial", "settlement_id": "S02", "provenance": "synthetic" }, "geometry": { "type": "Polygon", "coordinates": [ [ [ 75.275631755646316, 18.07337461840509 ], [ 75.275631939768743, 18.073492614357637 ], [ 75.275449181625604, 18.073492875152045 ], [ 75.275448997625247, 18.07337487919769 ], [ 75.275631755646316, 18.07337461840509 ] ] ] } },
{ "type": "Feature", "properties": { "building_id": "B02_023", "building_type": "commercial", "settlement_id": "S02", "provenance": "synthetic" }, "geometry": { "type": "Polygon", "coordinates": [ [ [ 75.274381131575907, 18.071087924749744 ], [ 75.274381265096309, 18.071173893848034 ], [ 75.274223207684201, 18.071174118356186 ], [ 75.274223074240695, 18.071088149256763 ], [ 75.274381131575907, 18.071087924749744 ] ] ] } },
{ "type": "Feature", "properties": { "building_id": "B02_024", "building_type": "commercial", "settlement_id": "S02", "provenance": "synthetic" }, "geometry": { "type": "Polygon", "coordinates": [ [ [ 75.274160664104485, 18.067108654820426 ], [ 75.274160830357729, 18.067215810701388 ], [ 75.273906986960412, 18.06721617084526 ], [ 75.273906820861129, 18.067109014962021 ], [ 75.274160664104485, 18.067108654820426 ] ] ] } },
{ "type": "Feature", "properties": { "building_id": "B03_001", "building_type": "residential", "settlement_id": "S03", "provenance": "synthetic" }, "geometry": { "type": "Polygon", "coordinates": [ [ [ 75.352701650581096, 18.090728244298617 ], [ 75.352701846925328, 18.09082647609047 ], [ 75.352581262097218, 18.090826696496414 ], [ 75.352581065820118, 18.090728464703293 ], [ 75.352701650581096, 18.090728244298617 ] ] ] } },
{ "type": "Feature", "properties": { "building_id": "B03_002", "building_type": "residential", "settlement_id": "S03", "provenance": "synthetic" }, "geometry": { "type": "Polygon", "coordinates": [ [ [ 75.357661147211374, 18.091141622397117 ], [ 75.357661384736943, 18.091258806577461 ], [ 75.357533459110243, 18.091259043692013 ], [ 75.357533221669613, 18.091141859510032 ], [ 75.357661147211374, 18.091141622397117 ] ] ] } },
{ "type": "Feature", "properties": { "building_id": "B03_003", "building_type": "residential", "settlement_id": "S03", "provenance": "synthetic" }, "geometry": { "type": "Polygon", "coordinates": [ [ [ 75.359539738498782, 18.092117191326004 ], [ 75.359539928242938, 18.092210307916922 ], [ 75.359360234252179, 18.09221064272672 ], [ 75.359360044602838, 18.092117526133954 ], [ 75.359539738498782, 18.092117191326004 ] ] ] } },
{ "type": "Feature", "properties": { "building_id": "B03_004", "building_type": "residential", "settlement_id": "S03", "provenance": "synthetic" }, "geometry": { "type": "Polygon", "coordinates": [ [ [ 75.351556536477176, 18.084714457771934 ], [ 75.351556875657465, 18.08488476397666 ], [ 75.351439945792634, 18.084884976948867 ], [ 75.351439606725151, 18.084714670741995 ], [ 75.351556536477176, 18.084714457771934 ] ] ] } },
{ "type": "Feature", "properties": { "building_id": "B03_005", "building_type": "residential", "settlement_id": "S03", "provenance": "synthetic" }, "geometry": { "type": "Polygon", "coordinates": [ [ [ 75.352731532055401, 18.087470058931299 ], [ 75.352731844521827, 18.08762640371523 ], [ 75.352519234648838, 18.087626792248404 ], [ 75.352518922370777, 18.087470447460895 ], [ 75.352731532055401, 18.087470058931299 ] ] ] } },
{ "type": "Feature", "properties": { "building_id": "B03_006", "building_type": "residential", "settlement_id": "S03", "provenance": "synthetic" }, "geometry": { "type": "Polygon", "coordinates": [ [ [ 75.353549517676285, 18.090417897817154 ], [ 75.353549876663038, 18.090597072393013 ], [ 75.353333666189371, 18.09059746847678 ], [ 75.353333307422133, 18.090418293896732 ], [ 75.353549517676285, 18.090417897817154 ] ] ] } },
{ "type": "Feature", "properties": { "building_id": "B03_007", "building_type": "residential", "settlement_id": "S03", "provenance": "synthetic" }, "geometry": { "type": "Polygon", "coordinates": [ [ [ 75.352839702306724, 18.083679460010842 ], [ 75.352839961747705, 18.083809262588279 ], [ 75.352587670027944, 18.083809723669422 ], [ 75.352587410772472, 18.08367992108845 ], [ 75.352839702306724, 18.083679460010842 ] ] ] } },
{ "type": "Feature", "properties": { "building_id": "B03_008", "building_type": "residential", "settlement_id": "S03", "provenance": "synthetic" }, "geometry": { "type": "Polygon", "coordinates": [ [ [ 75.354590502116466, 18.087263138030981 ], [ 75.354590925036248, 18.087473641745454 ], [ 75.35438365661993, 18.087474022514488 ], [ 75.354383233947345, 18.087263518795289 ], [ 75.354590502116466, 18.087263138030981 ] ] ] } },
{ "type": "Feature", "properties": { "building_id": "B03_009", "building_type": "residential", "settlement_id": "S03", "provenance": "synthetic" }, "geometry": { "type": "Polygon", "coordinates": [ [ [ 75.354394239646325, 18.091629507323365 ], [ 75.354394546134557, 18.091782103822048 ], [ 75.354295807875687, 18.091782285176819 ], [ 75.354295501472834, 18.091629688676502 ], [ 75.354394239646325, 18.091629507323365 ] ] ] } },
{ "type": "Feature", "properties": { "building_id": "B03_010", "building_type": "residential", "settlement_id": "S03", "provenance": "synthetic" }, "geometry": { "type": "Polygon", "coordinates": [ [ [ 75.358000479000481, 18.083490865822046 ], [ 75.35800074854906, 18.083623782757538 ], [ 75.357882370720915, 18.083624002306156 ], [ 75.357882101261438, 18.083491085368941 ], [ 75.358000479000481, 18.083490865822046 ] ] ] } },
{ "type": "Feature", "properties": { "building_id": "B03_011", "building_type": "residential", "settlement_id": "S03", "provenance": "synthetic" }, "geometry": { "type": "Polygon", "coordinates": [ [ [ 75.361531807235707, 18.088329574866638 ], [ 75.361532193650007, 18.088518203742549 ], [ 75.361278966506234, 18.088518678044341 ], [ 75.361278580362594, 18.088330049163158 ], [ 75.361531807235707, 18.088329574866638 ] ] ] } },
{ "type": "Feature", "properties": { "building_id": "B03_012", "building_type": "residential", "settlement_id": "S03", "provenance": "synthetic" }, "geometry": { "type": "Polygon", "coordinates": [ [ [ 75.356271901580342, 18.090265939175364 ], [ 75.356272079432358, 18.090354029971401 ], [ 75.356174536662238, 18.090354210067755 ], [ 75.356174358858922, 18.09026611927078 ], [ 75.356271901580342, 18.090265939175364 ] ] ] } },
{ "type": "Feature", "properties": { "building_id": "B03_013", "building_type": "residential", "settlement_id": "S03", "provenance": "synthetic" }, "geometry": { "type": "Polygon", "coordinates": [ [ [ 75.360054167524694, 18.090348271569194 ], [ 75.360054471675952, 18.090497335297169 ], [ 75.359920387427394, 18.090497585478946 ], [ 75.359920083389426, 18.090348521748769 ], [ 75.360054167524694, 18.090348271569194 ] ] ] } },
{ "type": "Feature", "properties": { "building_id": "B03_014", "building_type": "residential", "settlement_id": "S03", "provenance": "synthetic" }, "geometry": { "type": "Polygon", "coordinates": [ [ [ 75.357764542231251, 18.091066200566242 ], [ 75.357764809804451, 18.091198171227436 ], [ 75.357567702717844, 18.091198536641478 ], [ 75.35756743529204, 18.091066565977432 ], [ 75.357764542231251, 18.091066200566242 ] ] ] } },
{ "type": "Feature", "properties": { "building_id": "B03_015", "building_type": "residential", "settlement_id": "S03", "provenance": "synthetic" }, "geometry": { "type": "Polygon", "coordinates": [ [ [ 75.355349666314197, 18.086644715017332 ], [ 75.355350064463664, 18.086842473503911 ], [ 75.355144656670532, 18.086842851652563 ], [ 75.355144258751196, 18.086645093161572 ], [ 75.355349666314197, 18.086644715017332 ] ] ] } },
{ "type": "Feature", "properties": { "building_id": "B03_016", "building_type": "residential", "settlement_id": "S03", "provenance": "synthetic" }, "geometry": { "type": "Polygon", "coordinates": [ [ [ 75.356139463219463, 18.084881897661145 ], [ 75.35613982676891, 18.085062088966723 ], [ 75.356005062473528, 18.085062337618265 ], [ 75.356004699061657, 18.084882146310044 ], [ 75.356139463219463, 18.084881897661145 ] ] ] } },
{ "type": "Feature", "properties": { "building_id": "B03_017", "building_type": "residential", "settlement_id": "S03", "provenance": "synthetic" }, "geometry": { "type": "Polygon", "coordinates": [ [ [ 75.359892321800857, 18.083468512948471 ], [ 75.359892644461297, 18.083626783509075 ], [ 75.359786817400092, 18.083626980821389 ], [ 75.359786494834538, 18.083468710258948 ], [ 75.359892321800857, 18.083468512948471 ] ] ] } },
{ "type": "Feature", "properties": { "building_id": "B03_018", "building_type": "residential", "settlement_id": "S03", "provenance": "synthetic" }, "geometry": { "type": "Polygon", "coordinates": [ [ [ 75.352958310389013, 18.090666221878738 ], [ 75.352958496636532, 18.090759334852805 ], [ 75.352811195128623, 18.090759604276624 ], [ 75.352811008958795, 18.090666491301082 ], [ 75.352958310389013, 18.090666221878738 ] ] ] } },
{ "type": "Feature", "properties": { "building_id": "B03_019", "building_type": "commercial", "settlement_id": "S03", "provenance": "synthetic" }, "geometry": { "type": "Polygon", "coordinates": [ [ [ 75.360997477648752, 18.084097380713942 ], [ 75.360997670945295, 18.084191902422191 ], [ 75.360854732325663, 18.084192169740103 ], [ 75.360854539105674, 18.084097648030372 ], [ 75.360997477648752, 18.084097380713942 ] ] ] } },
{ "type": "Feature", "properties": { "building_id": "B03_020", "building_type": "commercial", "settlement_id": "S03", "provenance": "synthetic" }, "geometry": { "type": "Polygon", "coordinates": [ [ [ 75.352601680744868, 18.082675881032252 ], [ 75.352601875603668, 18.082773443800455 ], [ 75.352497947961538, 18.082773633638006 ], [ 75.352497753160179, 18.082676070868708 ], [ 75.352601680744868, 18.082675881032252 ] ] ] } },
{ "type": "Feature", "properties": { "building_id": "B03_021", "building_type": "commercial", "settlement_id": "S03", "provenance": "synthetic" }, "geometry": { "type": "Polygon", "coordinates": [ [ [ 75.352020492589318, 18.088328155787469 ], [ 75.352020750360325, 18.088457387415218 ], [ 75.351810444151951, 18.088457770979982 ], [ 75.351810186534934, 18.088328539349313 ], [ 75.352020492589318, 18.088328155787469 ] ] ] } },
{ "type": "Feature", "properties": { "building_id": "B03_022", "building_type": "commercial", "settlement_id": "S03", "provenance": "synthetic" }, "geometry": { "type": "Polygon", "coordinates": [ [ [ 75.354786048382948, 18.087428835508504 ], [ 75.354786441163668, 18.087624228247723 ], [ 75.354543084757381, 18.08762467554039 ], [ 75.354542692246071, 18.087429282795998 ], [ 75.354786048382948, 18.087428835508504 ] ] ] } },
{ "type": "Feature", "properties": { "building_id": "B03_023", "building_type": "commercial", "settlement_id": "S03", "provenance": "synthetic" }, "geometry": { "type": "Polygon", "coordinates": [ [ [ 75.351871641384918, 18.084266054860059 ], [ 75.351871857405115, 18.084374426970566 ], [ 75.351737079536932, 18.084374672658313 ], [ 75.351736863599484, 18.084266300546233 ], [ 75.351871641384918, 18.084266054860059 ] ] ] } },
{ "type": "Feature", "properties": { "building_id": "B03_024", "building_type": "commercial", "settlement_id": "S03", "provenance": "synthetic" }, "geometry": { "type": "Polygon", "coordinates": [ [ [ 75.357346744381857, 18.086581096852608 ], [ 75.357347000165461, 18.086707433786842 ], [ 75.357244114965951, 18.086707624285776 ], [ 75.357243859255973, 18.086581287350128 ], [ 75.357346744381857, 18.086581096852608 ] ] ] } },
{ "type": "Feature", "properties": { "building_id": "B04_001", "building_type": "residential", "settlement_id": "S04", "provenance": "synthetic" }, "geometry": { "type": "Polygon", "coordinates": [ [ [ 75.44188551730997, 18.050556033091851 ], [ 75.441885716723377, 18.050635854039495 ], [ 75.441649479852828, 18.050636393933885 ], [ 75.441649280546002, 18.050556572983691 ], [ 75.44188551730997, 18.050556033091851 ] ] ] } },
{ "type": "Feature", "properties": { "building_id": "B04_002", "building_type": "residential", "settlement_id": "S04", "provenance": "synthetic" }, "geometry": { "type": "Polygon", "coordinates": [ [ [ 75.44605486683794, 18.050459506379593 ], [ 75.446055378370488, 18.050662348363584 ], [ 75.445817421050634, 18.050662897322681 ], [ 75.445816909790935, 18.050460055332113 ], [ 75.44605486683794, 18.050459506379593 ] ] ] } },
{ "type": "Feature", "properties": { "building_id": "B04_003", "building_type": "residential", "settlement_id": "S04", "provenance": "synthetic" }, "geometry": { "type": "Polygon", "coordinates": [ [ [ 75.446635935690892, 18.057465477625247 ], [ 75.446636353057585, 18.057630695512252 ], [ 75.446409288185123, 18.057631220206421 ], [ 75.446408871030599, 18.057466002314296 ], [ 75.446635935690892, 18.057465477625247 ] ] ] } },
{ "type": "Feature", "properties": { "building_id": "B04_004", "building_type": "residential", "settlement_id": "S04", "provenance": "synthetic" }, "geometry": { "type": "Polygon", "coordinates": [ [ [ 75.44451383230431, 18.050843485060966 ], [ 75.444514200910405, 18.050990154974169 ], [ 75.444328542490553, 18.050990581833048 ], [ 75.444328174038418, 18.05084391191615 ], [ 75.44451383230431, 18.050843485060966 ] ] ] } },
{ "type": "Feature", "properties": { "building_id": "B04_005", "building_type": "residential", "settlement_id": "S04", "provenance": "synthetic" }, "geometry": { "type": "Polygon", "coordinates": [ [ [ 75.445325864871478, 18.054096053727349 ], [ 75.445326279867629, 18.054260849430705 ], [ 75.445166296256716, 18.054261217999411 ], [ 75.44516588140965, 18.054096422292467 ], [ 75.445325864871478, 18.054096053727349 ] ] ] } },
{ "type": "Feature", "properties": { "building_id": "B04_006", "building_type": "residential", "settlement_id": "S04", "provenance": "synthetic" }, "geometry": { "type": "Polygon", "coordinates": [ [ [ 75.43918201921467, 18.050914571192223 ], [ 75.439182348450444, 18.051047165500844 ], [ 75.439006586669777, 18.051047564762975 ], [ 75.439006257565751, 18.05091497045122 ], [ 75.43918201921467, 18.050914571192223 ] ] ] } },
{ "type": "Feature", "properties": { "building_id": "B04_007", "building_type": "residential", "settlement_id": "S04", "provenance": "synthetic" }, "geometry": { "type": "Polygon", "coordinates": [ [ [ 75.438825901819811, 18.053186117186158 ], [ 75.438826198755038, 18.053305783948129 ], [ 75.438669395820796, 18.053306139900354 ], [ 75.438669098991681, 18.05318647313587 ], [ 75.438825901819811, 18.053186117186158 ] ] ] } },
{ "type": "Feature", "properties": { "building_id": "B04_008", "building_type": "residential", "settlement_id": "S04", "provenance": "synthetic" }, "geometry": { "type": "Polygon", "coordinates": [ [ [ 75.440354521631562, 18.056301635991858 ], [ 75.440355043442722, 18.056511159827128 ], [ 75.440210061038073, 18.056511490147933 ], [ 75.440209539398694, 18.056301966308563 ], [ 75.440354521631562, 18.056301635991858 ] ] ] } },
{ "type": "Feature", "properties": { "building_id": "B04_009", "building_type": "residential", "settlement_id": "S04", "provenance": "synthetic" }, "geometry": { "type": "Polygon", "coordinates": [ [ [ 75.445932411609078, 18.054282248256538 ], [ 75.445932789202175, 18.054431985608993 ], [ 75.445782453727702, 18.054432332428799 ], [ 75.445782076261906, 18.054282595073282 ], [ 75.445932411609078, 18.054282248256538 ] ] ] } },
{ "type": "Feature", "properties": { "building_id": "B04_010", "building_type": "residential", "settlement_id": "S04", "provenance": "synthetic" }, "geometry": { "type": "Polygon", "coordinates": [ [ [ 75.445272628502664, 18.055990812310441 ], [ 75.445273004587435, 18.056140157385169 ], [ 75.445041704154107, 18.056140690194283 ], [ 75.445041328264693, 18.055991345114858 ], [ 75.445272628502664, 18.055990812310441 ] ] ] } },
{ "type": "Feature", "properties": { "building_id": "B04_011", "building_type": "residential", "settlement_id": "S04", "provenance": "synthetic" }, "geometry": { "type": "Polygon", "coordinates": [ [ [ 75.443016353139171, 18.05239662669895 ], [ 75.443016607582024, 18.052498203609133 ], [ 75.442797131964369, 18.052498706535804 ], [ 75.442796877647581, 18.052397129622609 ], [ 75.443016353139171, 18.05239662669895 ] ] ] } },
{ "type": "Feature", "properties": { "building_id": "B04_012", "building_type": "residential", "settlement_id": "S04", "provenance": "synthetic" }, "geometry": { "type": "Polygon", "coordinates": [ [ [ 75.443622459344169, 18.05805799089627 ], [ 75.443622863711681, 18.058219144704232 ], [ 75.443505905077274, 18.058219413185306 ], [ 75.443505500816386, 18.058058259374786 ], [ 75.443622459344169, 18.05805799089627 ] ] ] } },
{ "type": "Feature", "properties": { "building_id": "B04_013", "building_type": "residential", "settlement_id": "S04", "provenance": "synthetic" }, "geometry": { "type": "Polygon", "coordinates": [ [ [ 75.437381771897066, 18.056706734037117 ], [ 75.437382285576845, 18.056914389819632 ], [ 75.437273425215466, 18.056914636181968 ], [ 75.437272911663527, 18.056706980396438 ], [ 75.437381771897066, 18.056706734037117 ] ] ] } },
{ "type": "Feature", "properties": { "building_id": "B04_014", "building_type": "residential", "settlement_id": "S04", "provenance": "synthetic" }, "geometry": { "type": "Polygon", "coordinates": [ [ [ 75.437888283272727, 18.059048505746333 ], [ 75.437888675023117, 18.05920666649866 ], [ 75.437657966941046, 18.05920718920418 ], [ 75.437657575397054, 18.059049028446967 ], [ 75.437888283272727, 18.059048505746333 ] ] ] } },
{ "type": "Feature", "properties": { "building_id": "B04_015", "building_type": "residential", "settlement_id": "S04", "provenance": "synthetic" }, "geometry": { "type": "Polygon", "coordinates": [ [ [ 75.444602957832146, 18.057429589476428 ], [ 75.444603231800841, 18.057538538503348 ], [ 75.444347839942552, 18.057539125946093 ], [ 75.444347566131214, 18.057430176915393 ], [ 75.444602957832146, 18.057429589476428 ] ] ] } },
{ "type": "Feature", "properties": { "building_id": "B04_016", "building_type": "residential", "settlement_id": "S04", "provenance": "synthetic" }, "geometry": { "type": "Polygon", "coordinates": [ [ [ 75.442556179132467, 18.050480026115068 ], [ 75.442556422024495, 18.050577103661166 ], [ 75.442357141367168, 18.050577559805294 ], [ 75.442356898584507, 18.050480482256575 ], [ 75.442556179132467, 18.050480026115068 ] ] ] } },
{ "type": "Feature", "properties": { "building_id": "B04_017", "building_type": "residential", "settlement_id": "S04", "provenance": "synthetic" }, "geometry": { "type": "Polygon", "coordinates": [ [ [ 75.442294075217887, 18.055201446246535 ], [ 75.442294445119586, 18.055349332175584 ], [ 75.442120701745907, 18.055349729732711 ], [ 75.442120331989486, 18.055201843800191 ], [ 75.442294075217887, 18.055201446246535 ] ] ] } },
{ "type": "Feature", "properties": { "building_id": "B04_018", "building_type": "residential", "settlement_id": "S04", "provenance": "synthetic" }, "geometry": { "type": "Polygon", "coordinates": [ [ [ 75.44437002730136, 18.057446151954458 ], [ 75.444370426961328, 18.057605167465137 ], [ 75.444192230707259, 18.057605577167656 ], [ 75.444191831207547, 18.057446561653133 ], [ 75.44437002730136, 18.057446151954458 ] ] ] } },
{ "type": "Feature", "properties": { "building_id": "B04_019", "building_type": "commercial", "settlement_id": "S04", "provenance": "synthetic" }, "geometry": { "type": "Polygon", "coordinates": [ [ [ 75.446060214811141, 18.050723432915579 ], [ 75.446060429147408, 18.050808423321005 ], [ 75.445946026458387, 18.050808687285347 ], [ 75.445945812177072, 18.050723696878592 ], [ 75.446060214811141, 18.050723432915579 ] ] ] } },
{ "type": "Feature", "properties": { "building_id": "B04_020", "building_type": "commercial", "settlement_id": "S04", "provenance": "synthetic" }, "geometry": { "type": "Polygon", "coordinates": [ [ [ 75.443282146814994, 18.053659105510114 ], [ 75.44328257137542, 18.053828480894332 ], [ 75.443056388226239, 18.053828999531561 ], [ 75.443055963882415, 18.053659624142153 ], [ 75.443282146814994, 18.053659105510114 ] ] ] } },
{ "type": "Feature", "properties": { "building_id": "B04_021", "building_type": "commercial", "settlement_id": "S04", "provenance": "synthetic" }, "geometry": { "type": "Polygon", "coordinates": [ [ [ 75.439923192409239, 18.058465609624772 ], [ 75.439923469682853, 18.058577039052849 ], [ 75.439699285509761, 18.058577549326809 ], [ 75.439699008377431, 18.058466119895378 ], [ 75.439923192409239, 18.058465609624772 ] ] ] } },
{ "type": "Feature", "properties": { "building_id": "B04_022", "building_type": "commercial", "settlement_id": "S04", "provenance": "synthetic" }, "geometry": { "type": "Polygon", "coordinates": [ [ [ 75.440174898646333, 18.052668392774994 ], [ 75.440175131801553, 18.0527620707742 ], [ 75.440053838252283, 18.0527623469685 ], [ 75.440053605161296, 18.052668668967769 ], [ 75.440174898646333, 18.052668392774994 ] ] ] } },
{ "type": "Feature", "properties": { "building_id": "B04_023", "building_type": "commercial", "settlement_id": "S04", "provenance": "synthetic" }, "geometry": { "type": "Polygon", "coordinates": [ [ [ 75.446141552586639, 18.053840141621532 ], [ 75.446142001216387, 18.054017970188877 ], [ 75.445982318826154, 18.054018338733481 ], [ 75.445981870356988, 18.05384051016226 ], [ 75.446141552586639, 18.053840141621532 ] ] ] } },
{ "type": "Feature", "properties": { "building_id": "B04_024", "building_type": "commercial", "settlement_id": "S04", "provenance": "synthetic" }, "geometry": { "type": "Polygon", "coordinates": [ [ [ 75.442205572385632, 18.058820850844025 ], [ 75.442205926643638, 18.058962480440265 ], [ 75.441978719783236, 18.05896300028602 ], [ 75.441978365707229, 18.058821370685425 ], [ 75.442205572385632, 18.058820850844025 ] ] ] } },
{ "type": "Feature", "properties": { "building_id": "B05_001", "building_type": "residential", "settlement_id": "S05", "provenance": "synthetic" }, "geometry": { "type": "Polygon", "coordinates": [ [ [ 75.525479434391698, 18.08353022428528 ], [ 75.525480059081204, 18.083740082809349 ], [ 75.52526346173488, 18.083740672436019 ], [ 75.525262837302805, 18.083530813904638 ], [ 75.525479434391698, 18.08353022428528 ] ] ] } },
{ "type": "Feature", "properties": { "building_id": "B05_002", "building_type": "residential", "settlement_id": "S05", "provenance": "synthetic" }, "geometry": { "type": "Polygon", "coordinates": [ [ [ 75.522787994771534, 18.082244398936837 ], [ 75.52278826109503, 18.082334335623948 ], [ 75.522585390426315, 18.082334885024181 ], [ 75.522585124206159, 18.082244948334147 ], [ 75.522787994771534, 18.082244398936837 ] ] ] } },
{ "type": "Feature", "properties": { "building_id": "B05_003", "building_type": "residential", "settlement_id": "S05", "provenance": "synthetic" }, "geometry": { "type": "Polygon", "coordinates": [ [ [ 75.52761335786613, 18.080572385662396 ], [ 75.527613770262377, 18.080710390409521 ], [ 75.527517176444334, 18.080710654419477 ], [ 75.527516764123561, 18.080572649670195 ], [ 75.52761335786613, 18.080572385662396 ] ] ] } },
{ "type": "Feature", "properties": { "building_id": "B05_004", "building_type": "residential", "settlement_id": "S05", "provenance": "synthetic" }, "geometry": { "type": "Polygon", "coordinates": [ [ [ 75.53010476430093, 18.076681686705978 ], [ 75.530105173338512, 18.076817955568039 ], [ 75.529932676160499, 18.076818429141614 ], [ 75.529932267255973, 18.076682160275755 ], [ 75.53010476430093, 18.076681686705978 ] ] ] } },
{ "type": "Feature", "properties": { "building_id": "B05_005", "building_type": "residential", "settlement_id": "S05", "provenance": "synthetic" }, "geometry": { "type": "Polygon", "coordinates": [ [ [ 75.524709260490596, 18.082915153737996 ], [ 75.52470952293217, 18.083003451477179 ], [ 75.524482119091189, 18.083004069585499 ], [ 75.524481856763344, 18.082915771843098 ], [ 75.524709260490596, 18.082915153737996 ] ] ] } },
{ "type": "Feature", "properties": { "building_id": "B05_006", "building_type": "residential", "settlement_id": "S05", "provenance": "synthetic" }, "geometry": { "type": "Polygon", "coordinates": [ [ [ 75.531891436771687, 18.082452832160467 ], [ 75.531892019244438, 18.082646161760536 ], [ 75.531749223279832, 18.082646555234511 ], [ 75.531748640963457, 18.082453225629951 ], [ 75.531891436771687, 18.082452832160467 ] ] ] } },
{ "type": "Feature", "properties": { "building_id": "B05_007", "building_type": "residential", "settlement_id": "S05", "provenance": "synthetic" }, "geometry": { "type": "Polygon", "coordinates": [ [ [ 75.522669331853265, 18.083683633634344 ], [ 75.522669824298873, 18.083849954287594 ], [ 75.522462085031165, 18.083850516783173 ], [ 75.522461592781212, 18.083684196124388 ], [ 75.522669331853265, 18.083683633634344 ] ] ] } },
{ "type": "Feature", "properties": { "building_id": "B05_008", "building_type": "residential", "settlement_id": "S05", "provenance": "synthetic" }, "geometry": { "type": "Polygon", "coordinates": [ [ [ 75.522446159971679, 18.082699030967106 ], [ 75.522446477015336, 18.082806162819931 ], [ 75.522347041772434, 18.082806431960133 ], [ 75.522346724789116, 18.082699300105617 ], [ 75.522446159971679, 18.082699030967106 ] ] ] } },
{ "type": "Feature", "properties": { "building_id": "B05_009", "building_type": "residential", "settlement_id": "S05", "provenance": "synthetic" }, "geometry": { "type": "Polygon", "coordinates": [ [ [ 75.523003459605633, 18.081453401120456 ], [ 75.52300406390161, 18.08165739486844 ], [ 75.522875847077913, 18.081657742253274 ], [ 75.52287524293007, 18.081453748501108 ], [ 75.523003459605633, 18.081453401120456 ] ] ] } },
{ "type": "Feature", "properties": { "building_id": "B05_010", "building_type": "residential", "settlement_id": "S05", "provenance": "synthetic" }, "geometry": { "type": "Polygon", "coordinates": [ [ [ 75.52830051196203, 18.074137928048952 ], [ 75.528300750573138, 18.07421770382269 ], [ 75.528205329359707, 18.074217964886728 ], [ 75.528205090791701, 18.074138189111778 ], [ 75.52830051196203, 18.074137928048952 ] ] ] } },
{ "type": "Feature", "properties": { "building_id": "B05_011", "building_type": "residential", "settlement_id": "S05", "provenance": "synthetic" }, "geometry": { "type": "Polygon", "coordinates": [ [ [ 75.527819597024731, 18.081690425407583 ], [ 75.527820180422012, 18.081885564559599 ], [ 75.52768510011029, 18.081885933912435 ], [ 75.527684516862323, 18.081690794756149 ], [ 75.527819597024731, 18.081690425407583 ] ] ] } },
{ "type": "Feature", "properties": { "building_id": "B05_012", "building_type": "residential", "settlement_id": "S05", "provenance": "synthetic" }, "geometry": { "type": "Polygon", "coordinates": [ [ [ 75.522174452186022, 18.081706220020244 ], [ 75.522174996281905, 18.081890180856625 ], [ 75.521922673414281, 18.081890863331289 ], [ 75.521922129581256, 18.081706902487497 ], [ 75.522174452186022, 18.081706220020244 ] ] ] } },
{ "type": "Feature", "properties": { "building_id": "B05_013", "building_type": "residential", "settlement_id": "S05", "provenance": "synthetic" }, "geometry": { "type": "Polygon", "coordinates": [ [ [ 75.528762339470617, 18.082097542268958 ], [ 75.528762643424187, 18.082199027553212 ], [ 75.5286613116659, 18.082199305134523 ], [ 75.528661007770566, 18.08209781984861 ], [ 75.528762339470617, 18.082097542268958 ] ] ] } },
{ "type": "Feature", "properties": { "building_id": "B05_014", "building_type": "residential", "settlement_id": "S05", "provenance": "synthetic" }, "geometry": { "type": "Polygon", "coordinates": [ [ [ 75.522853892713627, 18.078767494438324 ], [ 75.522854376577627, 18.078930906585452 ], [ 75.522633119543855, 18.078931505746347 ], [ 75.522632635884619, 18.078768093593443 ], [ 75.522853892713627, 18.078767494438324 ] ] ] } },
{ "type": "Feature", "properties": { "building_id": "B05_015", "building_type": "residential", "settlement_id": "S05", "provenance": "synthetic" }, "geometry": { "type": "Polygon", "coordinates": [ [ [ 75.530391590497416, 18.075305579848663 ], [ 75.530391891469236, 18.075405801188683 ], [ 75.530172436540028, 18.075406403938668 ], [ 75.530172135692709, 18.075306182595089 ], [ 75.530391590497416, 18.075305579848663 ] ] ] } },
{ "type": "Feature", "properties": { "building_id": "B05_016", "building_type": "residential", "settlement_id": "S05", "provenance": "synthetic" }, "geometry": { "type": "Polygon", "coordinates": [ [ [ 75.524395906446614, 18.080806489550749 ], [ 75.524396383863774, 18.080967230913707 ], [ 75.524135147451418, 18.080967940466948 ], [ 75.524134670272062, 18.080807199097261 ], [ 75.524395906446614, 18.080806489550749 ] ] ] } },
{ "type": "Feature", "properties": { "building_id": "B05_017", "building_type": "residential", "settlement_id": "S05", "provenance": "synthetic" }, "geometry": { "type": "Polygon", "coordinates": [ [ [ 75.522065295634235, 18.079862559720382 ], [ 75.522065887461878, 18.080062722423275 ], [ 75.521964182724332, 18.080062997469152 ], [ 75.521963591011982, 18.079862834762999 ], [ 75.522065295634235, 18.079862559720382 ] ] ] } },
{ "type": "Feature", "properties": { "building_id": "B05_018", "building_type": "residential", "settlement_id": "S05", "provenance": "synthetic" }, "geometry": { "type": "Polygon", "coordinates": [ [ [ 75.528866035062109, 18.075488563174396 ], [ 75.528866331054118, 18.075587409538876 ], [ 75.528756231237892, 18.075587711100347 ], [ 75.528755935307487, 18.075488864734098 ], [ 75.528866035062109, 18.075488563174396 ] ] ] } },
{ "type": "Feature", "properties": { "building_id": "B05_019", "building_type": "commercial", "settlement_id": "S05", "provenance": "synthetic" }, "geometry": { "type": "Polygon", "coordinates": [ [ [ 75.531744629813502, 18.078285705675334 ], [ 75.531745124676405, 18.078450042598597 ], [ 75.531517252905559, 18.078450670149504 ], [ 75.531516758254682, 18.078286333220156 ], [ 75.531744629813502, 18.078285705675334 ] ] ] } },
{ "type": "Feature", "properties": { "building_id": "B05_020", "building_type": "commercial", "settlement_id": "S05", "provenance": "synthetic" }, "geometry": { "type": "Polygon", "coordinates": [ [ [ 75.527512029465228, 18.07520539465316 ], [ 75.527512375578539, 18.075321277571774 ], [ 75.52725696161464, 18.075321975249885 ], [ 75.52725661566889, 18.0752060923265 ], [ 75.527512029465228, 18.07520539465316 ] ] ] } },
{ "type": "Feature", "properties": { "building_id": "B05_021", "building_type": "commercial", "settlement_id": "S05", "provenance": "synthetic" }, "geometry": { "type": "Polygon", "coordinates": [ [ [ 75.527561376593212, 18.080673370476749 ], [ 75.527561999071395, 18.08088169608104 ], [ 75.527357061909214, 18.080882256106833 ], [ 75.527356439672829, 18.080673930495649 ], [ 75.527561376593212, 18.080673370476749 ] ] ] } },
{ "type": "Feature", "properties": { "building_id": "B05_022", "building_type": "commercial", "settlement_id": "S05", "provenance": "synthetic" }, "geometry": { "type": "Polygon", "coordinates": [ [ [ 75.523069465484497, 18.078816174986208 ], [ 75.523069882790296, 18.078957050498627 ], [ 75.522906656129436, 18.078957492721415 ], [ 75.522906238953837, 18.07881661720532 ], [ 75.523069465484497, 18.078816174986208 ] ] ] } },
{ "type": "Feature", "properties": { "building_id": "B05_023", "building_type": "commercial", "settlement_id": "S05", "provenance": "synthetic" }, "geometry": { "type": "Polygon", "coordinates": [ [ [ 75.522744017198008, 18.075108402489509 ], [ 75.522744361619985, 18.075224771676403 ], [ 75.522602563602234, 18.075225155543901 ], [ 75.522602219273651, 18.075108786354377 ], [ 75.522744017198008, 18.075108402489509 ] ] ] } },
{ "type": "Feature", "properties": { "building_id": "B05_024", "building_type": "commercial", "settlement_id": "S05", "provenance": "synthetic" }, "geometry": { "type": "Polygon", "coordinates": [ [ [ 75.525997165474337, 18.079833132219999 ], [ 75.52599755827751, 18.07996499002811 ], [ 75.525795106293742, 18.079965541598924 ], [ 75.525794713641758, 18.079833683786514 ], [ 75.525997165474337, 18.079833132219999 ] ] ] } }
]
}
