{
"type": "FeatureCollection",
"name": "cross_sections",
"crs": { "type": "name", "properties": { "name": "urn:ogc:def:crs:OGC:1.3:CRS84" } },
"features": [
{ "type": "Feature", "properties": { "case_id": "UJJANI_SYNTH_01", "chainage_km": 0, "river_bed_elevation_m": 442.5, "approx_bankfull_width_m": 180.0, "provenance": "synthetic" }, "geometry": { "type": "LineString", "coordinates": [ [ 75.125786523903272, 18.053026471338725 ], [ 75.114768121896503, 18.09697332959167 ] ] } },
{ "type": "Feature", "properties": { "case_id": "UJJANI_SYNTH_01", "chainage_km": 2, "river_bed_elevation_m": 441.3, "approx_bankfull_width_m": 183.0, "provenance": "synthetic" }, "geometry": { "type": "LineString", "coordinates": [ [ 75.143789697008771, 18.05692185161509 ], [ 75.134572356157335, 18.101246397995236 ] ] } },
{ "type": "Feature", "properties": { "case_id": "UJJANI_SYNTH_01", "chainage_km": 4, "river_bed_elevation_m": 440.1, "approx_bankfull_width_m": 186.0, "provenance": "synthetic" }, "geometry": { "type": "LineString", "coordinates": [ [ 75.160385642604311, 18.059333992839846 ], [ 75.155783491596736, 18.104311801008912 ] ] } },
{ "type": "Feature", "properties": { "case_id": "UJJANI_SYNTH_01", "chainage_km": 6, "river_bed_elevation_m": 438.9, "approx_bankfull_width_m": 189.0, "provenance": "synthetic" }, "geometry": { "type": "LineString", "coordinates": [ [ 75.176730784411177, 18.059981092011821 ], [ 75.177242675590264, 18.105171057432191 ] ] } },
{ "type": "Feature", "properties": { "case_id": "UJJANI_SYNTH_01", "chainage_km": 8, "river_bed_elevation_m": 437.7, "approx_bankfull_width_m": 192.0, "provenance": "synthetic" }, "geometry": { "type": "LineString", "coordinates": [ [ 75.194165907284898, 18.059181111555596 ], [ 75.197608314282036, 18.104253604016563 ] ] } },
{ "type": "Feature", "properties": { "case_id": "UJJANI_SYNTH_01", "chainage_km": 10, "river_bed_elevation_m": 436.5, "approx_bankfull_width_m": 195.0, "provenance": "synthetic" }, "geometry": { "type": "LineString", "coordinates": [ [ 75.213299905008441, 18.057827860832575 ], [ 75.216273076563297, 18.102930846131304 ] ] } },
{ "type": "Feature", "properties": { "case_id": "UJJANI_SYNTH_01", "chainage_km": 12, "river_bed_elevation_m": 435.3, "approx_bankfull_width_m": 198.0, "provenance": "synthetic" }, "geometry": { "type": "LineString", "coordinates": [ [ 75.23374460980267, 18.057183246953453 ], [ 75.233628139899508, 18.102375594290852 ] ] } },
{ "type": "Feature", "properties": { "case_id": "UJJANI_SYNTH_01", "chainage_km": 14, "river_bed_elevation_m": 434.1, "approx_bankfull_width_m": 201.0, "provenance": "synthetic" }, "geometry": { "type": "LineString", "coordinates": [ [ 75.25434047726813, 18.057974032812087 ], [ 75.250835504825233, 18.103041958813662 ] ] } },
{ "type": "Feature", "properties": { "case_id": "UJJANI_SYNTH_01", "chainage_km": 16, "river_bed_elevation_m": 432.9, "approx_bankfull_width_m": 204.0, "provenance": "synthetic" }, "geometry": { "type": "LineString", "coordinates": [ [ 75.273831531253521, 18.059696488867115 ], [ 75.269151140511809, 18.104666604322539 ] ] } },
{ "type": "Feature", "properties": { "case_id": "UJJANI_SYNTH_01", "chainage_km": 18, "river_bed_elevation_m": 431.7, "approx_bankfull_width_m": 207.0, "provenance": "synthetic" }, "geometry": { "type": "LineString", "coordinates": [ [ 75.291606301572671, 18.061089890895211 ], [ 75.28918351116485, 18.106222728996698 ] ] } },
{ "type": "Feature", "properties": { "case_id": "UJJANI_SYNTH_01", "chainage_km": 20, "river_bed_elevation_m": 430.5, "approx_bankfull_width_m": 210.0, "provenance": "synthetic" }, "geometry": { "type": "LineString", "coordinates": [ [ 75.308007419522681, 18.06112017541712 ], [ 75.310585391346905, 18.10624507799885 ] ] } },
{ "type": "Feature", "properties": { "case_id": "UJJANI_SYNTH_01", "chainage_km": 22, "river_bed_elevation_m": 429.3, "approx_bankfull_width_m": 213.0, "provenance": "synthetic" }, "geometry": { "type": "LineString", "coordinates": [ [ 75.324262701312264, 18.059349859914555 ], [ 75.332125359323015, 18.103911964853939 ] ] } },
{ "type": "Feature", "properties": { "case_id": "UJJANI_SYNTH_01", "chainage_km": 24, "river_bed_elevation_m": 428.1, "approx_bankfull_width_m": 216.0, "provenance": "synthetic" }, "geometry": { "type": "LineString", "coordinates": [ [ 75.341690880180991, 18.055880586584294 ], [ 75.352484500873686, 18.099877788978965 ] ] } },
{ "type": "Feature", "properties": { "case_id": "UJJANI_SYNTH_01", "chainage_km": 26, "river_bed_elevation_m": 426.9, "approx_bankfull_width_m": 219.0, "provenance": "synthetic" }, "geometry": { "type": "LineString", "coordinates": [ [ 75.360891299770444, 18.051576291551463 ], [ 75.371067303415828, 18.095707804798991 ] ] } },
{ "type": "Feature", "properties": { "case_id": "UJJANI_SYNTH_01", "chainage_km": 28, "river_bed_elevation_m": 425.7, "approx_bankfull_width_m": 222.0, "provenance": "synthetic" }, "geometry": { "type": "LineString", "coordinates": [ [ 75.381665618628034, 18.047948230556653 ], [ 75.388078003335053, 18.092722053060029 ] ] } },
{ "type": "Feature", "properties": { "case_id": "UJJANI_SYNTH_01", "chainage_km": 30, "river_bed_elevation_m": 424.5, "approx_bankfull_width_m": 225.0, "provenance": "synthetic" }, "geometry": { "type": "LineString", "coordinates": [ [ 75.403043476539168, 18.046245097796923 ], [ 75.404491750629873, 18.09141571955017 ] ] } },
{ "type": "Feature", "properties": { "case_id": "UJJANI_SYNTH_01", "chainage_km": 32, "river_bed_elevation_m": 423.3, "approx_bankfull_width_m": 228.0, "provenance": "synthetic" }, "geometry": { "type": "LineString", "coordinates": [ [ 75.423655086067001, 18.046442440816669 ], [ 75.42167931847915, 18.091594670059397 ] ] } },
{ "type": "Feature", "properties": { "case_id": "UJJANI_SYNTH_01", "chainage_km": 34, "river_bed_elevation_m": 422.1, "approx_bankfull_width_m": 231.0, "provenance": "synthetic" }, "geometry": { "type": "LineString", "coordinates": [ [ 75.442650504578225, 18.047349993604623 ], [ 75.440487072842771, 18.092494246809128 ] ] } },
{ "type": "Feature", "properties": { "case_id": "UJJANI_SYNTH_01", "chainage_km": 36, "river_bed_elevation_m": 420.9, "approx_bankfull_width_m": 234.0, "provenance": "synthetic" }, "geometry": { "type": "LineString", "coordinates": [ [ 75.460174230562814, 18.047698611448553 ], [ 75.460764425901743, 18.092886629272755 ] ] } },
{ "type": "Feature", "properties": { "case_id": "UJJANI_SYNTH_01", "chainage_km": 38, "river_bed_elevation_m": 419.7, "approx_bankfull_width_m": 237.0, "provenance": "synthetic" }, "geometry": { "type": "LineString", "coordinates": [ [ 75.477250792216623, 18.046848109833249 ], [ 75.481482021379065, 18.091857967848078 ] ] } },
{ "type": "Feature", "properties": { "case_id": "UJJANI_SYNTH_01", "chainage_km": 40, "river_bed_elevation_m": 418.5, "approx_bankfull_width_m": 240.0, "provenance": "synthetic" }, "geometry": { "type": "LineString", "coordinates": [ [ 75.495189964289651, 18.044861293642473 ], [ 75.501329820649758, 18.089669418939845 ] ] } },
{ "type": "Feature", "properties": { "case_id": "UJJANI_SYNTH_01", "chainage_km": 42, "river_bed_elevation_m": 417.3, "approx_bankfull_width_m": 243.0, "provenance": "synthetic" }, "geometry": { "type": "LineString", "coordinates": [ [ 75.514795687763083, 18.042575230171714 ], [ 75.519508972969263, 18.087541019969006 ] ] } },
{ "type": "Feature", "properties": { "case_id": "UJJANI_SYNTH_01", "chainage_km": 44, "river_bed_elevation_m": 416.1, "approx_bankfull_width_m": 246.0, "provenance": "synthetic" }, "geometry": { "type": "LineString", "coordinates": [ [ 75.535991413688038, 18.041458371975715 ], [ 75.536103980138279, 18.086649345012383 ] ] } },
{ "type": "Feature", "properties": { "case_id": "UJJANI_SYNTH_01", "chainage_km": 46, "river_bed_elevation_m": 414.9, "approx_bankfull_width_m": 249.0, "provenance": "synthetic" }, "geometry": { "type": "LineString", "coordinates": [ [ 75.557745461116966, 18.042681759428032 ], [ 75.552152990880813, 18.087555023801915 ] ] } },
{ "type": "Feature", "properties": { "case_id": "UJJANI_SYNTH_01", "chainage_km": 48, "river_bed_elevation_m": 413.7, "approx_bankfull_width_m": 252.0, "provenance": "synthetic" }, "geometry": { "type": "LineString", "coordinates": [ [ 75.578635607503401, 18.046026830190144 ], [ 75.569079306106445, 18.090283617401923 ] ] } },
{ "type": "Feature", "properties": { "case_id": "UJJANI_SYNTH_01", "chainage_km": 50, "river_bed_elevation_m": 412.5, "approx_bankfull_width_m": 255.0, "provenance": "synthetic" }, "geometry": { "type": "LineString", "coordinates": [ [ 75.597825012625904, 18.050058564002548 ], [ 75.587714286030049, 18.094202395898733 ] ] } }
]
}
