{
"type": "FeatureCollection",
"name": "dam",
"crs": { "type": "name", "properties": { "name": "urn:ogc:def:crs:OGC:1.3:CRS84" } },
"features": [
{ "type": "Feature", "properties": { "case_id": "UJJANI_SYNTH_01", "name": "Ujjani Dam", "length_m": 1626.0, "crest_elevation_m": 503.5, "provenance": "KML anchor attributes + synthetic aligned line geometry" }, "geometry": { "type": "LineString", "coordinates": [ [ 75.120272997122541, 18.067651656281157 ], [ 75.120283005260276, 18.082348338131297 ] ] } }
]
}
