{
"type": "FeatureCollection",
"name": "population_zones",
"crs": { "type": "name", "properties": { "name": "urn:ogc:def:crs:OGC:1.3:CRS84" } },
"features": [
{ "type": "Feature", "properties": { "zone_id": "PZ01", "population": 5700, "density_class": "medium", "provenance": "synthetic" }, "geometry": { "type": "Polygon", "coordinates": [ [ [ 75.204411178828536, 18.09797787095799 ], [ 75.204369295139401, 18.097180580045237 ], [ 75.204245896220328, 18.096391054165114 ], [ 75.204042171525856, 18.095616896720902 ], [ 75.203760084005836, 18.094865563016256 ], [ 75.203402351164144, 18.09414428846641 ], [ 75.202972418854955, 18.093460018930205 ], [ 75.202474428070843, 18.092819343833401 ], [ 75.201913175043117, 18.092228432726777 ], [ 75.201294065039832, 18.091692975889135 ], [ 75.200623060306384, 18.091218129546782 ], [ 75.199906622650602, 18.09080846623602 ], [ 75.199151651224881, 18.090467930786058 ], [ 75.198365416104039, 18.090199802345502 ], [ 75.197555488298008, 18.090006662817558 ], [ 75.196729666871946, 18.089890372007037 ], [ 75.195895903874742, 18.089852049718569 ], [ 75.195062227797294, 18.089892064977466 ], [ 75.194236666295964, 18.090010032477451 ], [ 75.193427168924273, 18.090204816288889 ], [ 75.192641530614694, 18.090474540792194 ], [ 75.191887316646572, 18.090816608731352 ], [ 75.191171789820771, 18.091227726213855 ], [ 75.190501840541543, 18.091703934417062 ], [ 75.189883920477882, 18.092240647696009 ], [ 75.189323980442083, 18.092832697726472 ], [ 75.188827413084141, 18.093474383258862 ], [ 75.188399000952657, 18.094159525004606 ], [ 75.1880428704238, 18.094881525127057 ], [ 75.187762451941339, 18.095633430764856 ], [ 75.187560446952418, 18.096408000976663 ], [ 75.187438801857937, 18.097197776463009 ], [ 75.18739868922988, 18.097995151394382 ], [ 75.187440496478033, 18.098792446654098 ], [ 75.187563822076555, 18.099581983790873 ], [ 75.18776747938864, 18.100356158968843 ], [ 75.188049508053808, 18.101107516202834 ], [ 75.188407192829985, 18.101828819173413 ], [ 75.188837089710134, 18.10251312092953 ], [ 75.189335059063211, 18.103153830807237 ], [ 75.189896305481454, 18.103744777919161 ], [ 75.190515423950842, 18.104280270602821 ], [ 75.19118645190062, 18.104755151254352 ], [ 75.191902926630775, 18.105164846018994 ], [ 75.192657947564129, 18.105505408858789 ], [ 75.193444242723331, 18.105773559572512 ], [ 75.194254238791231, 18.105966715401067 ], [ 75.195080134079376, 18.106083015913175 ], [ 75.195913973700428, 18.106121340931423 ], [ 75.196747726218902, 18.106081321325551 ], [ 75.197573361040739, 18.105963342568916 ], [ 75.198382925794874, 18.105768541023728 ], [ 75.199168622959291, 18.105498792991067 ], [ 75.199922884992915, 18.105156696631184 ], [ 75.200638447247755, 18.104745546928768 ], [ 75.201308417957989, 18.104269303944644 ], [ 75.201926344631133, 18.103732554660414 ], [ 75.202486276200801, 18.103140468783938 ], [ 75.202982820342456, 18.102498748942352 ], [ 75.203411195399553, 18.101813575742728 ], [ 75.203767276420805, 18.101091548230457 ], [ 75.204047634864892, 18.100339620319481 ], [ 75.20424957159193, 18.099565033807064 ], [ 75.204371142824314, 18.098775248619127 ], [ 75.204411178828536, 18.09797787095799 ] ] ] } },
{ "type": "Feature", "properties": { "zone_id": "PZ02", "population": 7900, "density_class": "medium", "provenance": "synthetic" }, "geometry": { "type": "Polygon", "coordinates": [ [ [ 75.279976986941278, 18.069515587136245 ], [ 75.279934770633091, 18.068718314301549 ], [ 75.279811055979138, 18.06792883823671 ], [ 75.279607035471173, 18.067154761861236 ], [ 75.279324674903663, 18.066403539694477 ], [ 75.278966694405185, 18.065682406074565 ], [ 75.278536542209665, 18.064998305500957 ], [ 75.278038361421793, 18.064357825770863 ], [ 75.277476950097167, 18.063767134553107 ], [ 75.276857715022999, 18.063231920009311 ], [ 75.276186619644179, 18.062757336033677 ], [ 75.275470126637245, 18.062347952637925 ], [ 75.274715135683991, 18.062007711958447 ], [ 75.273928917044685, 18.06173989030864 ], [ 75.273119041568791, 18.061547066641115 ], [ 75.272293307816881, 18.061431097723244 ], [ 75.271459666994005, 18.061393100264187 ], [ 75.27062614641595, 18.06143344016558 ], [ 75.269800772244139, 18.061551728999049 ], [ 75.268991492231478, 18.061746827744376 ], [ 75.268206099221402, 18.062016857752582 ], [ 75.267452156135747, 18.06235921882838 ], [ 75.266736923171962, 18.062770614258351 ], [ 75.266067287909763, 18.063247082544439 ], [ 75.265449698999504, 18.063784035537374 ], [ 75.264890104069693, 18.064376302603907 ], [ 75.264393892451636, 18.065018180402976 ], [ 75.263965843272416, 18.065703487792181 ], [ 75.263610079416281, 18.066425625336727 ], [ 75.263330027798446, 18.067177638848261 ], [ 75.263128386334643, 18.067952286342532 ], [ 75.263007097925438, 18.068742107771364 ], [ 75.262967331707287, 18.069539496858241 ], [ 75.263009471752284, 18.070336774345581 ], [ 75.263133113327044, 18.071126261948834 ], [ 75.263337066748235, 18.071900356305115 ], [ 75.263619368799453, 18.072651602204072 ], [ 75.263977301600875, 18.073372764395554 ], [ 75.264407418751574, 18.074056897282126 ], [ 75.264905578493583, 18.074697411824793 ], [ 75.265466983580097, 18.075288139016912 ], [ 75.26608622746366, 18.075823389314387 ], [ 75.266757346360777, 18.076298007449026 ], [ 75.267473876691199, 18.076707422096373 ], [ 75.268228917338703, 18.077047689919084 ], [ 75.269015196133424, 18.077315533560665 ], [ 75.269825139914062, 18.077508373223345 ], [ 75.270650947495142, 18.077624351525085 ], [ 75.27148466483446, 18.077662351396111 ], [ 75.272318261675707, 18.077622006842084 ], [ 75.273143708926696, 18.077503706470196 ], [ 75.273953056026158, 18.077308589744053 ], [ 75.274738507552513, 18.077038536003649 ], [ 75.275492498335225, 18.076696146356284 ], [ 75.276207766343845, 18.076284718613348 ], [ 75.276877422651893, 18.075808215514687 ], [ 75.277495017800263, 18.075271226547393 ], [ 75.27805460392068, 18.074678923727177 ], [ 75.278550792020425, 18.074037011769118 ], [ 75.278978803876186, 18.0733516731283 ], [ 75.279334518038027, 18.072629508440524 ], [ 75.27961450950049, 18.071877472937217 ], [ 75.279816082659551, 18.07110280944779 ], [ 75.279937297239542, 18.070312978635091 ], [ 75.279976986941278, 18.069515587136245 ] ] ] } },
{ "type": "Feature", "properties": { "zone_id": "PZ03", "population": 10100, "density_class": "medium", "provenance": "synthetic" }, "geometry": { "type": "Polygon", "coordinates": [ [ [ 75.365062215729466, 18.087462363515471 ], [ 75.365019609893679, 18.086665116978555 ], [ 75.364895501847954, 18.085875703185696 ], [ 75.364691087872075, 18.085101724451661 ], [ 75.364408337548227, 18.084350634350741 ], [ 75.364049974755744, 18.08362966594494 ], [ 75.363619451406606, 18.082945762138962 ], [ 75.363120914175269, 18.08230550883221 ], [ 75.362559164544933, 18.081715071510917 ], [ 75.361939612555133, 18.081180135890534 ], [ 75.361268224696971, 18.080705853179055 ], [ 75.360551466457679, 18.080296790487832 ], [ 75.359796240067723, 18.079956886866633 ], [ 75.359009818049401, 18.079689415385577 ], [ 75.358199773206167, 18.079496951628617 ], [ 75.357373905725865, 18.07938134890118 ], [ 75.356540168098505, 18.079343720390529 ], [ 75.355706588570357, 18.07938442845014 ], [ 75.354881193869886, 18.079503081111159 ], [ 75.354071931948198, 18.079698535854554 ], [ 75.353286595476149, 18.079968910607615 ], [ 75.35253274683383, 18.080311601859211 ], [ 75.351817645312835, 18.080723309719822 ], [ 75.351148177231622, 18.081200069685341 ], [ 75.350530789635698, 18.081737290799449 ], [ 75.349971428220456, 18.082329799847795 ], [ 75.349475480074346, 18.082971891158898 ], [ 75.349047721792928, 18.083657381533154 ], [ 75.348692273464749, 18.084379669771611 ], [ 75.348412558971603, 18.085131800231821 ], [ 75.348211272987214, 18.085906529799637 ], [ 75.348090354992507, 18.086696397632288 ], [ 75.348050970559569, 18.087493797001606 ], [ 75.348093500085497, 18.088291048546019 ], [ 75.348217535086647, 18.089080474225685 ], [ 75.348421882090321, 18.089854471269071 ], [ 75.348704574088003, 18.090605585398254 ], [ 75.349062889441811, 18.091326582627861 ], [ 75.349493378062817, 18.092010518945468 ], [ 75.349991894611122, 18.092650807202304 ], [ 75.350553638398381, 18.093241280569 ], [ 75.351173199609619, 18.093776251944902 ], [ 75.351844611399329, 18.09425056874797 ], [ 75.352561407360625, 18.094659662556719 ], [ 75.353316683813404, 18.094999593125539 ], [ 75.354103166311489, 18.095267086348741 ], [ 75.354913279727185, 18.095459565806852 ], [ 75.355739221237499, 18.095575177591023 ], [ 75.356573035507438, 18.095612808165981 ], [ 75.35740669134546, 18.095572095098902 ], [ 75.358232159090448, 18.095453430551061 ], [ 75.359041487984385, 18.095257957498319 ], [ 75.359826882782585, 18.094987558716994 ], [ 75.360580778863593, 18.094644838641599 ], [ 75.361295915112734, 18.094233098269353 ], [ 75.361965403876965, 18.093756303353768 ], [ 75.362582797315966, 18.09321904619425 ], [ 75.363142149509741, 18.092626501390381 ], [ 75.363638073724317, 18.091984375987696 ], [ 75.364065794283718, 18.091298854495911 ], [ 75.364421192549074, 18.09057653930984 ], [ 75.364700846562457, 18.08982438710747 ], [ 75.364902063974384, 18.0890496418385 ], [ 75.365022907939093, 18.088259764949104 ], [ 75.365062215729466, 18.087462363515471 ] ] ] } },
{ "type": "Feature", "properties": { "zone_id": "PZ04", "population": 12300, "density_class": "high", "provenance": "synthetic" }, "geometry": { "type": "Polygon", "coordinates": [ [ [ 75.450034453600267, 18.054537401293697 ], [ 75.449991475932052, 18.0537401783657 ], [ 75.449867015784903, 18.052950823684615 ], [ 75.449662272825563, 18.052176938991376 ], [ 75.44937921979961, 18.051425976950625 ], [ 75.449020583496122, 18.050705169387836 ], [ 75.448589818455034, 18.050021457656289 ], [ 75.448091073672231, 18.049381425804139 ], [ 75.447529152623488, 18.048791237184414 ], [ 75.446909466993134, 18.048256575117978 ], [ 75.446237984553832, 18.047782588179899 ], [ 75.445521171698772, 18.047373840635522 ], [ 75.444765931180456, 18.047034268502891 ], [ 75.443979535654279, 18.046767141663747 ], [ 75.443169557666735, 18.046575032387519 ], [ 75.442343796761193, 18.046459790570744 ], [ 75.441510204401908, 18.046422525930097 ], [ 75.440676807437939, 18.046463597319914 ], [ 75.439851630842568, 18.046582609277227 ], [ 75.43904262047036, 18.046778415827319 ], [ 75.438257566574507, 18.047049131513372 ], [ 75.437504028819248, 18.047392149544145 ], [ 75.436789263508189, 18.047804166885467 ], [ 75.436120153728154, 18.048281216054217 ], [ 75.435503143080268, 18.04881870330939 ], [ 75.434944173635742, 18.049411452872981 ], [ 75.434448628713582, 18.050053756755691 ], [ 75.434021281031036, 18.05073942970829 ], [ 75.433666246726276, 18.051461868770136 ], [ 75.433386945696867, 18.052214116842297 ], [ 75.433186068636374, 18.052988929673372 ], [ 75.433065551088276, 18.053778845613721 ], [ 75.433026554767451, 18.054576257466753 ], [ 75.433069456331481, 18.055373485745491 ], [ 75.433193843710839, 18.056162852629239 ], [ 75.433398520035226, 18.056936755908154 ], [ 75.433681515119758, 18.057687742203331 ], [ 75.434040104402087, 18.05840857875722 ], [ 75.43447083514917, 18.059092323102426 ], [ 75.43496955968314, 18.059732389937494 ], [ 75.435531475306306, 18.060322614564992 ], [ 75.436151170542828, 18.060857312280294 ], [ 75.43682267725093, 18.061331333138398 ], [ 75.43753952810475, 18.061740111570412 ], [ 75.438294818891535, 18.06207971037129 ], [ 75.439081275024122, 18.062346858634456 ], [ 75.439891321626874, 18.062538983267164 ], [ 75.440717156519653, 18.062654233782741 ], [ 75.441550825394884, 18.062691500130221 ], [ 75.442384298463054, 18.06265042338967 ], [ 75.4432095478262, 18.062531399229687 ], [ 75.44401862483339, 18.062335574093915 ], [ 75.44480373667065, 18.062064834153443 ], [ 75.445557321447083, 18.061721787131553 ], [ 75.446272121052104, 18.061309737176572 ], [ 75.446941251081, 18.060832653024914 ], [ 75.447558267154477, 18.060295129761979 ], [ 75.448117226992821, 18.059702344549503 ], [ 75.448612747646166, 18.059060006746773 ], [ 75.449040057329938, 18.058374302906554 ], [ 75.449395041366216, 18.057651837176447 ], [ 75.449674281789271, 18.056899567680265 ], [ 75.449875090234499, 18.056124739492713 ], [ 75.449995533795388, 18.055334814853566 ], [ 75.450034453600267, 18.054537401293697 ] ] ] } },
{ "type": "Feature", "properties": { "zone_id": "PZ05", "population": 14500, "density_class": "high", "provenance": "synthetic" }, "geometry": { "type": "Polygon", "coordinates": [ [ [ 75.535147298558371, 18.078770465051967 ], [ 75.535103928601814, 18.077973272540063 ], [ 75.534979069785493, 18.077183984336934 ], [ 75.534773925615454, 18.07641020153822 ], [ 75.534490472699886, 18.075659375822458 ], [ 75.534131441676607, 18.074938737697824 ], [ 75.533700290883445, 18.074255226882084 ], [ 75.533201173026939, 18.0736154254854 ], [ 75.532638895170649, 18.073025494639293 ], [ 75.532018872429532, 18.072491115180878 ], [ 75.531347075816811, 18.07201743296336 ], [ 75.530629974745224, 18.071609009318266 ], [ 75.529874474737056, 18.071269777146078 ], [ 75.529087850941124, 18.071003003057236 ], [ 75.528277678097268, 18.070811255927431 ], [ 75.527451757621208, 18.070696382169725 ], [ 75.526618042510634, 18.070659487960807 ], [ 75.525784560794563, 18.070700928592558 ], [ 75.52495933826134, 18.07082030505115 ], [ 75.524150321208026, 18.071016467856591 ], [ 75.523365299953468, 18.071287528125918 ], [ 75.522611833849922, 18.071630875753769 ], [ 75.521897178514408, 18.072043204535529 ], [ 75.521228215979008, 18.072520543991764 ], [ 75.520611388431874, 18.073058297587998 ], [ 75.520052636186549, 18.073651286982408 ], [ 75.519557340476268, 18.074293801876223 ], [ 75.519130271624292, 18.074979654987228 ], [ 75.518775543089475, 18.075702241618014 ], [ 75.518496571830184, 18.076454603245782 ], [ 75.518296045369212, 18.077229494522044 ], [ 75.518175895877732, 18.078019453037562 ], [ 75.518137281529391, 18.078816871181036 ], [ 75.518180575305422, 18.079614069399941 ], [ 75.518305361360149, 18.080403370157935 ], [ 75.518510438983711, 18.08117717187692 ], [ 75.518793834125276, 18.081928022151253 ], [ 75.519152818367274, 18.082648689528977 ], [ 75.519583935169578, 18.083332233168175 ], [ 75.520083033131954, 18.083972069697253 ], [ 75.520645305955355, 18.084562036634626 ], [ 75.521265338718237, 18.085096451756165 ], [ 75.521937160022262, 18.085570167838174 ], [ 75.52265429950576, 18.085978622247726 ], [ 75.523409850170353, 18.086317880902079 ], [ 75.52419653492052, 18.086584676173114 ], [ 75.525006776673962, 18.0867764383711 ], [ 75.525832771366808, 18.086891320503909 ], [ 75.526666563149277, 18.086928216073023 ], [ 75.52750012104589, 18.086886769734271 ], [ 75.528325416340707, 18.086767380720811 ], [ 75.529134499940497, 18.086571198995109 ], [ 75.529919578969043, 18.086300114167216 ], [ 75.530673091853899, 18.085956737286271 ], [ 75.531387781180271, 18.08554437568106 ], [ 75.532056763609788, 18.085067001092415 ], [ 75.532673596189795, 18.08452921140492 ], [ 75.533232338413356, 18.083936186347383 ], [ 75.533727609432361, 18.08329363758908 ], [ 75.534154639872398, 18.082607753713624 ], [ 75.534509317750789, 18.081885140600654 ], [ 75.534788228055845, 18.081132757790709 ], [ 75.534988685607217, 18.080357851446276 ], [ 75.535108760881911, 18.079567884555637 ], [ 75.535147298558371, 18.078770465051967 ] ] ] } }
]
}
