{
"type": "FeatureCollection",
"name": "reservoir",
"crs": { "type": "name", "properties": { "name": "urn:ogc:def:crs:OGC:1.3:CRS84" } },
"features": [
{ "type": "Feature", "properties": { "case_id": "UJJANI_SYNTH_01", "name": "Ujjani Reservoir", "provenance": "synthetic geometry anchored to real dam location" }, "geometry": { "type": "Polygon", "coordinates": [ [ [ 74.987974420137078, 18.085883366260056 ], [ 74.989460955760222, 18.087650922056223 ], [ 74.990947552920716, 18.0887991934148 ], [ 74.992434175892754, 18.089796670330216 ], [ 74.993920818625185, 18.090708443913819 ], [ 74.995407478241603, 18.091561847530262 ], [ 74.99689415300719, 18.092371664945027 ], [ 74.998380841736719, 18.093147031234707 ], [ 74.999867543555027, 18.093894083643391 ], [ 75.001354257779994, 18.094617190348316 ], [ 75.002840983858462, 18.095319594574903 ], [ 75.004327721328067, 18.096003783208406 ], [ 75.005814469792611, 18.096671712165772 ], [ 75.007301228905831, 18.097324951516796 ], [ 75.008787998359978, 18.097964782915785 ], [ 75.010274777877569, 18.098592267307101 ], [ 75.01176156720544, 18.099208293353943 ], [ 75.013248366110005, 18.099813612942807 ], [ 75.014735174373811, 18.100408867772067 ], [ 75.016221991792762, 18.100994609636512 ], [ 75.017708818173872, 18.101571316157305 ], [ 75.019195653333526, 18.102139403158191 ], [ 75.020682497096004, 18.102699234530181 ], [ 75.022169349292284, 18.10325113018671 ], [ 75.023656209759153, 18.103795372546955 ], [ 75.025143078338232, 18.10433221187083 ], [ 75.026629954875389, 18.104861870687785 ], [ 75.028116839220232, 18.105384547503071 ], [ 75.029603731225407, 18.105900419922641 ], [ 75.031090630746448, 18.106409647305938 ], [ 75.032577537641174, 18.106912373032451 ], [ 75.034064451769595, 18.107408726449705 ], [ 75.03555137299351, 18.107898824556763 ], [ 75.037038301176466, 18.108382773466772 ], [ 75.038525236183375, 18.108860669683619 ], [ 75.040012177880499, 18.109332601221396 ], [ 75.041499126135278, 18.10979864859025 ], [ 75.042986080816249, 18.110258885668014 ], [ 75.044473041792969, 18.110713380473701 ], [ 75.045960008935879, 18.111162195856405 ], [ 75.047446982116327, 18.111605390110732 ], [ 75.048933961206515, 18.112043017528471 ], [ 75.050420946079456, 18.112475128894459 ], [ 75.051907936608956, 18.112901771933387 ], [ 75.05339493266959, 18.113322991713549 ], [ 75.054881819009054, 18.113369162278143 ], [ 75.056368586122076, 18.113040251639923 ], [ 75.057855345844416, 18.112705821748833 ], [ 75.059342097999149, 18.112365763584819 ], [ 75.060828842404817, 18.112019965581414 ], [ 75.062315578875186, 18.111668313265881 ], [ 75.06380230721895, 18.111310688856125 ], [ 75.065289027239515, 18.110946970808492 ], [ 75.066775738734535, 18.110577033309621 ], [ 75.068262441495591, 18.110200745704223 ], [ 75.069749135307703, 18.109817971849257 ], [ 75.071235819948811, 18.109428569383248 ], [ 75.072722495189169, 18.109032388897123 ], [ 75.074209160790645, 18.108629272990648 ], [ 75.075695816505942, 18.108219055194727 ], [ 75.077182462077658, 18.107801558736295 ], [ 75.078669097237182, 18.107376595116843 ], [ 75.080155721703619, 18.106943962469561 ], [ 75.08164233518211, 18.106503443651572 ], [ 75.083128937362332, 18.106054804017091 ], [ 75.08461552791637, 18.105597788803845 ], [ 75.086102106496483, 18.105132120046889 ], [ 75.087588672732196, 18.104657492910366 ], [ 75.089075226227095, 18.104173571296318 ], [ 75.090561766554629, 18.103679982546588 ], [ 75.092048293253342, 18.103176310995732 ], [ 75.093534805820781, 18.102662090051489 ], [ 75.095021303706133, 18.10213679236503 ], [ 75.096507786300833, 18.101599817488999 ], [ 75.097994252926881, 18.101050476180983 ], [ 75.099480702821623, 18.10048797015174 ], [ 75.100967135117926, 18.099911365508579 ], [ 75.102453548818033, 18.099319557282119 ], [ 75.103939942757677, 18.098711221027884 ], [ 75.105426315556571, 18.098084745150381 ], [ 75.10691266554727, 18.097438133500216 ], [ 75.108398990669855, 18.096768860281102 ], [ 75.1098852883094, 18.096073644705218 ], [ 75.111371555031539, 18.095348082408538 ], [ 75.112857786123456, 18.09458600136238 ], [ 75.114343974723411, 18.093778233134959 ], [ 75.115830109954857, 18.092909962065043 ], [ 75.117316172101894, 18.091953824391815 ], [ 75.118802115112487, 18.090844700194019 ], [ 75.120287615795974, 18.089114073207821 ], [ 75.120272840508434, 18.067421561208711 ], [ 75.118785303767496, 18.06585419244378 ], [ 75.117298202857228, 18.064903701879764 ], [ 75.11581121505553, 18.064101464491738 ], [ 75.114324294417116, 18.063382255691 ], [ 75.112837421306082, 18.062718610432977 ], [ 75.11135058492124, 18.06209561517537 ], [ 75.109863778477006, 18.061504007061956 ], [ 75.108376997339846, 18.06093752315607 ], [ 75.10689023815857, 18.060391671762417 ], [ 75.105403498405707, 18.059863088397563 ], [ 75.103916776113266, 18.059349167261946 ], [ 75.102430069710195, 18.0588478359501 ], [ 75.100943377917119, 18.058357410409602 ], [ 75.099456699675201, 18.05787649758798 ], [ 75.097970034096264, 18.057403927803769 ], [ 75.096483380427216, 18.056938706392504 ], [ 75.094996738023355, 18.056479978275252 ], [ 75.093510106328722, 18.056027001440924 ], [ 75.092023484860661, 18.055579126730738 ], [ 75.090536873197891, 18.055135782175242 ], [ 75.089050270971086, 18.054696460682891 ], [ 75.087563677855371, 18.054260710238172 ], [ 75.086077093563944, 18.053828126007048 ], [ 75.084590517843282, 18.053398343911947 ], [ 75.083103950468612, 18.052971035352964 ], [ 75.081617391240755, 18.052545902832886 ], [ 75.080130839982928, 18.052122676302481 ], [ 75.078644296538286, 18.051701110084736 ], [ 75.077157760767747, 18.051280980268917 ], [ 75.075671232548146, 18.050862082488351 ], [ 75.074184711770599, 18.050444230014353 ], [ 75.072698198339054, 18.050027252112187 ], [ 75.071211692169101, 18.049610992615442 ], [ 75.069725193186841, 18.049195308683782 ], [ 75.0682387013279, 18.048780069715352 ], [ 75.066752216536528, 18.048365156390183 ], [ 75.065265738764921, 18.047950459825227 ], [ 75.06377926797235, 18.047535880824942 ], [ 75.062292804124624, 18.047121329213827 ], [ 75.060806347193477, 18.046706723239772 ], [ 75.059319897156072, 18.046291989038462 ], [ 75.057833453994462, 18.04587706015106 ], [ 75.056347017695103, 18.045461877088101 ], [ 75.054860588248559, 18.045046386933834 ], [ 75.053374277159961, 18.045000214358915 ], [ 75.051888075131501, 18.045323391416527 ], [ 75.050401867587027, 18.045646357465987 ], [ 75.048915654564809, 18.045969229376155 ], [ 75.047429436100884, 18.046292130479657 ], [ 75.045943212228977, 18.046615190924658 ], [ 75.044456982980222, 18.046938548067207 ], [ 75.042970748383041, 18.04726234690991 ], [ 75.041484508462815, 18.047586740594038 ], [ 75.039998263241827, 18.047911890952928 ], [ 75.038512012738906, 18.048237969136416 ], [ 75.037025756969243, 18.048565156317391 ], [ 75.035539495944107, 18.048893644494338 ], [ 75.034053229670562, 18.04922363740566 ], [ 75.032566958151222, 18.049555351575478 ], [ 75.031080681383855, 18.049889017514385 ], [ 75.029594399361017, 18.050224881103961 ], [ 75.028108112069802, 18.050563205200195 ], [ 75.026621819491154, 18.050904271499412 ], [ 75.025135521599665, 18.051248382720626 ], [ 75.023649218362863, 18.051595865172466 ], [ 75.022162909740601, 18.051947071790163 ], [ 75.020676595684435, 18.052302385752252 ], [ 75.019190276136783, 18.052662224817944 ], [ 75.017703951030015, 18.053027046569156 ], [ 75.016217620285317, 18.053397354799216 ], [ 75.014731283811443, 18.053773707371903 ], [ 75.013244941503217, 18.054156725988417 ], [ 75.011758593239492, 18.054547108464693 ], [ 75.010272238881143, 18.054945644360952 ], [ 75.008785878267901, 18.055353235164681 ], [ 75.007299511214967, 18.0557709207764 ], [ 75.005813137508213, 18.056199914910227 ], [ 75.00432675689818, 18.056641653417781 ], [ 75.002840369091686, 18.057097861887804 ], [ 75.001353973740507, 18.057570652971101 ], [ 74.999867570424883, 18.058062671394236 ], [ 74.998381158629186, 18.058577319223286 ], [ 74.996894737703457, 18.059119124366919 ], [ 74.995408306799447, 18.059694384582865 ], [ 74.993921864753872, 18.060312396135462 ], [ 74.992435409848824, 18.060988104546237 ], [ 74.990948939220715, 18.061749005406465 ], [ 74.989462446829435, 18.062660352463666 ], [ 74.987975896993916, 18.064190799427895 ], [ 74.987974420137078, 18.085883366260056 ] ] ] } }
]
}
