{
"type": "FeatureCollection",
"name": "river_centerline",
"crs": { "type": "name", "properties": { "name": "urn:ogc:def:crs:OGC:1.3:CRS84" } },
"features": [
{ "type": "Feature", "properties": { "case_id": "UJJANI_SYNTH_01", "name": "Bhima River downstream", "reach_length_km": 50.0, "provenance": "synthetic centerline anchored to Ujjani" }, "geometry": { "type": "LineString", "coordinates": [ [ 75.120278, 18.075 ], [ 75.122168337853338, 18.075433305893412 ], [ 75.124058683783389, 18.075865049465406 ], [ 75.12594903664386, 18.076293695538631 ], [ 75.127839395234872, 18.076717726010251 ], [ 75.129729758310262, 18.077135648263393 ], [ 75.131620124584913, 18.07754600342869 ], [ 75.133510492742786, 18.077947374447607 ], [ 75.135400861445035, 18.078338393889918 ], [ 75.137291229338629, 18.078717751479683 ], [ 75.139181595065068, 18.079084201285273 ], [ 75.141071957269162, 18.079436568531424 ], [ 75.142962314608184, 18.079773755993212 ], [ 75.144852665760808, 18.080094749934556 ], [ 75.146743009436165, 18.080398625556249 ], [ 75.148633344382702, 18.080684551921841 ], [ 75.150523669397003, 18.080951796332371 ], [ 75.152413983332366, 18.081199728124403 ], [ 75.154304285106988, 18.081427821869219 ], [ 75.156194573712014, 18.081635659954593 ], [ 75.158084848218905, 18.08182293453407 ], [ 75.159975107786721, 18.081989448832559 ], [ 75.161865351668467, 18.08213511780081 ], [ 75.163755579217238, 18.082259968115252 ], [ 75.165645789891528, 18.082364137523218 ], [ 75.167535983259924, 18.082447873538079 ], [ 75.169426159005198, 18.082511531491971 ], [ 75.171316316927516, 18.082555571958043 ], [ 75.173206456946914, 18.082580557557716 ], [ 75.175096579105102, 18.082587149172028 ], [ 75.176986683566241, 18.082576101579853 ], [ 75.17887677061708, 18.082548258548904 ], [ 75.180766840666095, 18.08250454740892 ], [ 75.182656894241831, 18.08244597313929 ], [ 75.184546931990468, 18.082373612006279 ], [ 75.18643695467243, 18.082288604788001 ], [ 75.188326963158133, 18.082192149626902 ], [ 75.190216958423164, 18.082085494552846 ], [ 75.192106941542292, 18.081969929720824 ], [ 75.193996913683065, 18.081846779409542 ], [ 75.195886876098456, 18.081717393828459 ], [ 75.197776830118983, 18.081583140781845 ], [ 75.199666777144003, 18.081445397239399 ], [ 75.201556718632631, 18.081305540863521 ], [ 75.203446656093888, 18.081164941543353 ], [ 75.205336591076687, 18.081024952986034 ], [ 75.207226525159044, 18.080886904415056 ], [ 75.209116459937192, 18.080752092424728 ], [ 75.211006397014387, 18.080621773039454 ], [ 75.212896337989392, 18.080497154024624 ], [ 75.214786284444955, 18.080379387494993 ], [ 75.21667623793617, 18.080269562864135 ], [ 75.218566199978881, 18.080168700177055 ], [ 75.220456172038183, 18.080077743865321 ], [ 75.222346155517101, 18.079997556961978 ], [ 75.224236151745515, 18.07992891581026 ], [ 75.226126161969432, 18.079872505297846 ], [ 75.228016187340629, 18.079828914644658 ], [ 75.229906228906913, 18.079798633769425 ], [ 75.23179628760272, 18.079782050256377 ], [ 75.233686364240469, 18.079779446940261 ], [ 75.235576459502667, 18.079791000123937 ], [ 75.237466573934583, 18.079816778439149 ], [ 75.239356707937858, 18.07985674235734 ], [ 75.241246861764992, 18.079910744353334 ], [ 75.24313703551455, 18.079978529721082 ], [ 75.245027229127629, 18.080059738036582 ], [ 75.246917442384955, 18.08015390525939 ], [ 75.248807674905365, 18.080260466460285 ], [ 75.250697926144937, 18.080378759159029 ], [ 75.252588195397536, 18.080508027252325 ], [ 75.254478481796156, 18.080647425508985 ], [ 75.256368784315512, 18.080796024605462 ], [ 75.258259101775636, 18.080952816672077 ], [ 75.260149432846532, 18.081116721317148 ], [ 75.262039776053783, 18.081286592093146 ], [ 75.263930129785436, 18.081461223366922 ], [ 75.265820492299596, 18.081639357552991 ], [ 75.267710861733107, 18.081819692667267 ], [ 75.269601236111129, 18.082000890156426 ], [ 75.271491613357597, 18.082181582956451 ], [ 75.27338199130638, 18.082360383732802 ], [ 75.275272367713271, 18.082535893253183 ], [ 75.277162740268679, 18.082706708843457 ], [ 75.279053106610817, 18.082871432876466 ], [ 75.28094346433943, 18.083028681243622 ], [ 75.282833811030073, 18.083177091758802 ], [ 75.284724144248557, 18.083315332444993 ], [ 75.286614461565875, 18.083442109654275 ], [ 75.288504760573105, 18.083556175973328 ], [ 75.290395038896506, 18.083656337867168 ], [ 75.292285294212576, 18.083741463016111 ], [ 75.29417552426294, 18.08381048730212 ], [ 75.296065726869244, 18.083862421403406 ], [ 75.297955899947382, 18.083896356957677 ], [ 75.299846041521562, 18.083911472257856 ], [ 75.301736149738062, 18.083907037446032 ], [ 75.303626222877881, 18.083882419175037 ], [ 75.305516259369185, 18.083837084709607 ], [ 75.307406257798831, 18.083770605442993 ], [ 75.309296216923059, 18.083682659807728 ], [ 75.311186135677147, 18.083573035563315 ], [ 75.313076013184372, 18.083441631446931 ], [ 75.31496584876362, 18.083288458177446 ], [ 75.316855641936016, 18.083113638806218 ], [ 75.318745392430429, 18.082917408412705 ], [ 75.320635100187729, 18.082700113146203 ], [ 75.322524765363681, 18.082462208619322 ], [ 75.324414388330737, 18.082204257662326 ], [ 75.326303969678406, 18.081926927451452 ], [ 75.328193510212429, 18.081630986027942 ], [ 75.330083010952436, 18.081317298228019 ], [ 75.331972473128303, 18.08098682104772 ], [ 75.333861898175513, 18.080640598469724 ], [ 75.335751287728726, 18.080279755782417 ], [ 75.337640643614478, 18.079905493424643 ], [ 75.339529967842338, 18.07951908039216 ], [ 75.341419262595181, 18.079121847244558 ], [ 75.343308530218025, 18.078715178753733 ], [ 75.345197773205982, 18.078300506237078 ], [ 75.347086994191059, 18.077879299620481 ], [ 75.348976195928103, 18.077453059277705 ], [ 75.350865381279817, 18.077023307694219 ], [ 75.352754553201038, 18.076591581004408 ], [ 75.354643714722272, 18.07615942045198 ], [ 75.356532868932732, 18.075728363823632 ], [ 75.358422018962727, 18.075299936906568 ], [ 75.360311167965762, 18.074875645019851 ], [ 75.362200319100367, 18.07445696466953 ], [ 75.364089475511676, 18.074045335376464 ], [ 75.365978640313074, 18.073642151725007 ], [ 75.367867816567667, 18.073248755679149 ], [ 75.369757007270195, 18.072866429211238 ], [ 75.371646215328994, 18.072496387286733 ], [ 75.373535443548562, 18.072139771245915 ], [ 75.375424694612377, 18.071797642621576 ], [ 75.377313971066542, 18.07147097742893 ], [ 75.379203275304135, 18.071160660961024 ], [ 75.38109260955018, 18.07086748312031 ], [ 75.382981975847869, 18.070592134313657 ], [ 75.384871376045353, 18.070335201934579 ], [ 75.386760811784214, 18.070097167453415 ], [ 75.388650284488563, 18.069878404132226 ], [ 75.39053979535575, 18.069679175377594 ], [ 75.392429345348248, 18.069499633740829 ], [ 75.394318935187016, 18.069339820571187 ], [ 75.396208565346257, 18.069199666323723 ], [ 75.398098236049606, 18.069078991519845 ], [ 75.399987947267974, 18.068977508354358 ], [ 75.401877698718835, 18.068894822939424 ], [ 75.403767489867079, 18.068830438171705 ], [ 75.405657319927514, 18.068783757205448 ], [ 75.407547187868829, 18.068754087510797 ], [ 75.409437092419196, 18.068740645492831 ], [ 75.411327032073444, 18.06874256164398 ], [ 75.413217005101529, 18.068758886198754 ], [ 75.415107009558724, 18.068788595257427 ], [ 75.416997043297059, 18.06883059734173 ], [ 75.418887103978207, 18.068883740343967 ], [ 75.420777189087502, 18.068946818827797 ], [ 75.422667295949395, 18.069018581637501 ], [ 75.42455742174387, 18.069097739770307 ], [ 75.426447563523809, 18.069182974465029 ], [ 75.428337718233578, 18.069272945458852 ], [ 75.430227882728133, 18.069366299363303 ], [ 75.432118053793005, 18.069461678109487 ], [ 75.434008228164842, 18.069557727412455 ], [ 75.435898402552397, 18.069653105204416 ], [ 75.437788573657897, 18.069746489986692 ], [ 75.43967873819858, 18.069836589050684 ], [ 75.441568892928345, 18.069922146519186 ], [ 75.443459034659341, 18.070001951160133 ], [ 75.445349160283413, 18.070074843926342 ], [ 75.447239266793076, 18.070139725176581 ], [ 75.449129351302361, 18.070195561534948 ], [ 75.451019411066582, 18.070241392347761 ], [ 75.452909443501909, 18.070276335699749 ], [ 75.454799446203694, 18.070299593953582 ], [ 75.45668941696411, 18.070310458779904 ], [ 75.458579353788551, 18.07030831564801 ], [ 75.460469254910862, 18.070292647750225 ], [ 75.462359118807399, 18.070263039336876 ], [ 75.464248944209487, 18.070219178441771 ], [ 75.466138730114679, 18.070160858982089 ], [ 75.468028475796089, 18.070087982219942 ], [ 75.469918180810481, 18.070000557576982 ], [ 75.471807845004392, 18.069898702797076 ], [ 75.473697468518651, 18.069782643455873 ], [ 75.475587051790981, 18.06965271182014 ], [ 75.477476595556993, 18.06950934506353 ], [ 75.479366100849077, 18.069353082849165 ], [ 75.481255568993689, 18.069184564293209 ], [ 75.483145001606673, 18.069004524327415 ], [ 75.485034400586727, 18.06881378948205 ], [ 75.486923768107246, 18.068613273113936 ], [ 75.488813106606116, 18.068403970107987 ], [ 75.490702418774049, 18.068186951083266 ], [ 75.492591707541152, 18.067963356138097 ], [ 75.494480976061936, 18.067734388170809 ], [ 75.496370227698705, 18.067501305815892 ], [ 75.498259466003788, 18.067265416037166 ], [ 75.50014869470013, 18.067028066421752 ], [ 75.502037917660914, 18.066790637220446 ], [ 75.503927138888059, 18.066554533181577 ], [ 75.505816362489512, 18.066321175226562 ], [ 75.50770559265608, 18.066091992016496 ], [ 75.509594833637323, 18.06586841145965 ], [ 75.511484089716703, 18.065651852210081 ], [ 75.513373365186894, 18.065443715207664 ], [ 75.515262664324084, 18.065245375309726 ], [ 75.517151991362852, 18.065058173063704 ], [ 75.519041350470445, 18.064883406669566 ], [ 75.520930745721884, 18.06472232417962 ], [ 75.522820181074806, 18.064576115981893 ], [ 75.524709660345223, 18.064445907611642 ], [ 75.526599187183777, 18.064332752933478 ], [ 75.528488765052714, 18.064237627734741 ], [ 75.530378397203975, 18.064161423767832 ], [ 75.532268086658178, 18.064104943277087 ], [ 75.53415783618496, 18.064068894042506 ], [ 75.536047648284523, 18.064053884969866 ], [ 75.537937525170761, 18.064060422253363 ], [ 75.539827468755803, 18.064088906133655 ], [ 75.541717480636464, 18.064139628270571 ], [ 75.543607562082158, 18.06421276974622 ], [ 75.54549771402489, 18.064308399710381 ], [ 75.547387937051099, 18.06442647467648 ], [ 75.549278231395391, 18.064566838472295 ], [ 75.551168596936563, 18.06472922284604 ], [ 75.553059033195311, 18.064913248724238 ], [ 75.554949539334388, 18.065118428114324 ], [ 75.556840114160678, 18.065344166640685 ], [ 75.558730756129506, 18.065589766699564 ], [ 75.560621463350827, 18.065854431214138 ], [ 75.562512233597857, 18.066137267968003 ], [ 75.564403064317347, 18.066437294491447 ], [ 75.566293952642127, 18.06675344347191 ], [ 75.568184895405452, 18.067084568656895 ], [ 75.570075889157323, 18.067429451214544 ], [ 75.571966930182285, 18.067786806514615 ], [ 75.573858014519359, 18.068155291289852 ], [ 75.575749137983095, 18.068533511135751 ], [ 75.577640296186331, 18.068920028304554 ], [ 75.579531484564228, 18.069313369747665 ], [ 75.581422698399436, 18.069712035359093 ], [ 75.583313932848299, 18.070114506371564 ], [ 75.585205182967997, 18.070519253855771 ], [ 75.587096443744514, 18.070924747272819 ], [ 75.588987710120875, 18.071329463029649 ], [ 75.590878977026065, 18.071731892986886 ], [ 75.592770239404118, 18.072130552869332 ] ] } }
]
}
