{
"type": "FeatureCollection",
"name": "roads",
"crs": { "type": "name", "properties": { "name": "urn:ogc:def:crs:OGC:1.3:CRS84" } },
"features": [
{ "type": "Feature", "properties": { "road_id": "R01", "name": "Synthetic Regional Road", "road_type": "primary", "provenance": "synthetic" }, "geometry": { "type": "LineString", "coordinates": [ [ 75.12029771467428, 18.103923315813823 ], [ 75.126280804813149, 18.105287135357376 ], [ 75.132263950082191, 18.106602454436047 ], [ 75.138247109697545, 18.107823628722084 ], [ 75.14423024090803, 18.108910196875719 ], [ 75.150213301759493, 18.109829090150779 ], [ 75.156196253927604, 18.110556409051334 ], [ 75.162179065419295, 18.111078663240367 ], [ 75.168161712945775, 18.111393402528989 ], [ 75.174144183785344, 18.111509202652353 ], [ 75.180126476983858, 18.111445007550945 ], [ 75.186108603781719, 18.11122886778211 ], [ 75.192090587205868, 18.11089615025212 ], [ 75.198072460821663, 18.110487325585986 ], [ 75.204054266696772, 18.110045464307291 ], [ 75.210036052686064, 18.109613590115767 ], [ 75.216017869195767, 18.109232046920066 ], [ 75.221999765626691, 18.108936035410832 ], [ 75.227981786725493, 18.108753464899436 ], [ 75.233963969085977, 18.108703247491171 ], [ 75.239946338042898, 18.10879413551109 ], [ 75.2459289051816, 18.109024170996886 ], [ 75.251911666655033, 18.10938077991014 ], [ 75.257894602453561, 18.109841505627706 ], [ 75.263877676714429, 18.110375338506103 ], [ 75.269860839094292, 18.110944563089568 ], [ 75.275844027157277, 18.111507013935952 ], [ 75.281827169664936, 18.112018606867561 ], [ 75.287810190589909, 18.11243599614188 ], [ 75.29379301362178, 18.112719200541708 ], [ 75.299775566893501, 18.112834043149086 ], [ 75.305757787632643, 18.112754260486728 ], [ 75.311739626436136, 18.112463156142621 ], [ 75.317721050881929, 18.111954700791529 ], [ 75.323702048223993, 18.111234013111734 ], [ 75.329682626968406, 18.110317192546049 ], [ 75.335662817194176, 18.109230513022496 ], [ 75.341642669558027, 18.108009024384575 ], [ 75.347622253006051, 18.106694643161944 ], [ 75.353601651296714, 18.105333844385754 ], [ 75.359580958518976, 18.103975089644301 ], [ 75.365560273857369, 18.102666142099729 ], [ 75.371539695909163, 18.101451425829378 ], [ 75.377519316896382, 18.100369584224786 ], [ 75.38349921712863, 18.099451380432484 ], [ 75.389479460068117, 18.098718062645329 ], [ 75.395460088318146, 18.098180289642471 ], [ 75.401441120807974, 18.09783767894481 ], [ 75.407422551379625, 18.097679003249613 ], [ 75.413404348900116, 18.097683022597302 ], [ 75.419386458932081, 18.097819902257093 ], [ 75.425368806898405, 18.098053131807344 ], [ 75.431351302583835, 18.098341831364429 ], [ 75.437333845727437, 18.098643308121513 ], [ 75.443316332386104, 18.098915711640899 ], [ 75.449298661692922, 18.099120630566031 ], [ 75.455280742598362, 18.099225476923593 ], [ 75.461262500173945, 18.099205516764968 ], [ 75.467243881073628, 18.099045426807326 ], [ 75.473224857790413, 18.098740284744313 ], [ 75.479205431412737, 18.098295934353683 ], [ 75.485185632670607, 18.097728703459286 ], [ 75.491165521164206, 18.097064491032128 ], [ 75.497145182777075, 18.096337276983565 ], [ 75.503124725389512, 18.095587142315637 ], [ 75.509104273114943, 18.094857916238649 ], [ 75.515083959377677, 18.094194588935075 ], [ 75.521063919228538, 18.093640642541864 ], [ 75.527044281349291, 18.093235457819777 ], [ 75.533025160225066, 18.093011949588767 ], [ 75.539006648962882, 18.092994570591951 ], [ 75.544988813205606, 18.093197801797583 ], [ 75.550971686532691, 18.093625218534282 ], [ 75.556955267657102, 18.094269187968226 ], [ 75.562939519626298, 18.09511121626743 ], [ 75.568924371118058, 18.096122925551729 ], [ 75.574909719796764, 18.097267603649541 ], [ 75.580895437571428, 18.098502235962538 ], [ 75.586881377477724, 18.099779900363615 ], [ 75.592867381801, 18.101052384695208 ] ] } },
{ "type": "Feature", "properties": { "road_id": "R02", "name": "Settlement 1 Connector", "road_type": "secondary", "provenance": "synthetic" }, "geometry": { "type": "LineString", "coordinates": [ [ 75.195904936408411, 18.097986698753768 ], [ 75.195918996474703, 18.110640583621556 ] ] } },
{ "type": "Feature", "properties": { "road_id": "R03", "name": "Settlement 2 Connector", "road_type": "secondary", "provenance": "synthetic" }, "geometry": { "type": "LineString", "coordinates": [ [ 75.271472162619261, 18.069527729256251 ], [ 75.271536132095548, 18.111104614812739 ] ] } },
{ "type": "Feature", "properties": { "road_id": "R04", "name": "Settlement 3 Connector", "road_type": "secondary", "provenance": "synthetic" }, "geometry": { "type": "LineString", "coordinates": [ [ 75.356556597473741, 18.087478267710257 ], [ 75.356591310146555, 18.10465117839648 ] ] } },
{ "type": "Feature", "properties": { "road_id": "R05", "name": "Settlement 4 Connector", "road_type": "secondary", "provenance": "synthetic" }, "geometry": { "type": "LineString", "coordinates": [ [ 75.441530509541138, 18.054557016460553 ], [ 75.441641247770292, 18.098844677807815 ] ] } },
{ "type": "Feature", "properties": { "road_id": "R06", "name": "Settlement 5 Connector", "road_type": "secondary", "provenance": "synthetic" }, "geometry": { "type": "LineString", "coordinates": [ [ 75.526642296436918, 18.078793855455878 ], [ 75.526685446100387, 18.093254936240655 ] ] } }
]
}
