{
"type": "FeatureCollection",
"name": "settlements",
"crs": { "type": "name", "properties": { "name": "urn:ogc:def:crs:OGC:1.3:CRS84" } },
"features": [
{ "type": "Feature", "properties": { "settlement_id": "S01", "name": "Synthetic Settlement 1", "population": 5700, "chainage_km": 8, "provenance": "synthetic" }, "geometry": { "type": "Point", "coordinates": [ 75.195904936408411, 18.097986698753768 ] } },
{ "type": "Feature", "properties": { "settlement_id": "S02", "name": "Synthetic Settlement 2", "population": 7900, "chainage_km": 16, "provenance": "synthetic" }, "geometry": { "type": "Point", "coordinates": [ 75.271472162619261, 18.069527729256251 ] } },
{ "type": "Feature", "properties": { "settlement_id": "S03", "name": "Synthetic Settlement 3", "population": 10100, "chainage_km": 25, "provenance": "synthetic" }, "geometry": { "type": "Point", "coordinates": [ 75.356556597473741, 18.087478267710257 ] } },
{ "type": "Feature", "properties": { "settlement_id": "S04", "name": "Synthetic Settlement 4", "population": 12300, "chainage_km": 34, "provenance": "synthetic" }, "geometry": { "type": "Point", "coordinates": [ 75.441530509541138, 18.054557016460553 ] } },
{ "type": "Feature", "properties": { "settlement_id": "S05", "name": "Synthetic Settlement 5", "population": 14500, "chainage_km": 43, "provenance": "synthetic" }, "geometry": { "type": "Point", "coordinates": [ 75.526642296436918, 18.078793855455878 ] } }
]
}
