{
  "type": "FeatureCollection",
  "name": "ujjani_real_dem_derived_river",
  "features": [
    {
      "type": "Feature",
      "properties": {
        "name": "DEM-derived downstream channel",
        "source": "ujjani_dem_real_30m",
        "method": "D8 flow-direction trace",
        "synthetic": false,
        "derived_from_dem": true,
        "start_latitude": 18.076533,
        "start_longitude": 75.130422,
        "length_km": 23.811645566847098,
        "point_count": 639
      },
      "geometry": {
        "type": "LineString",
        "coordinates": [
          [
            75.1304219808,
            18.076532622099997
          ],
          [
            75.1304219808,
            18.076810400099998
          ],
          [
            75.1304219808,
            18.0770881781
          ],
          [
            75.1304219808,
            18.0773659561
          ],
          [
            75.1304219808,
            18.077643734099997
          ],
          [
            75.1304219808,
            18.077921512099998
          ],
          [
            75.13069975879999,
            18.0781992901
          ],
          [
            75.13097753679999,
            18.078477068099996
          ],
          [
            75.13097753679999,
            18.078754846099997
          ],
          [
            75.13097753679999,
            18.079032624099998
          ],
          [
            75.13097753679999,
            18.0793104021
          ],
          [
            75.1312553148,
            18.079588180099996
          ],
          [
            75.1315330928,
            18.079865958099997
          ],
          [
            75.1318108708,
            18.0801437361
          ],
          [
            75.1318108708,
            18.0804215141
          ],
          [
            75.1318108708,
            18.080699292099997
          ],
          [
            75.1318108708,
            18.080977070099998
          ],
          [
            75.1318108708,
            18.0812548481
          ],
          [
            75.1318108708,
            18.0815326261
          ],
          [
            75.1318108708,
            18.081810404099997
          ],
          [
            75.13208864879999,
            18.082088182099998
          ],
          [
            75.13208864879999,
            18.0823659601
          ],
          [
            75.13208864879999,
            18.082643738099996
          ],
          [
            75.13208864879999,
            18.082921516099997
          ],
          [
            75.13236642679999,
            18.083199294099998
          ],
          [
            75.13236642679999,
            18.0834770721
          ],
          [
            75.13236642679999,
            18.083754850099997
          ],
          [
            75.13236642679999,
            18.084032628099997
          ],
          [
            75.13208864879999,
            18.0843104061
          ],
          [
            75.13208864879999,
            18.0845881841
          ],
          [
            75.13236642679999,
            18.084865962099997
          ],
          [
            75.13236642679999,
            18.085143740099998
          ],
          [
            75.13236642679999,
            18.0854215181
          ],
          [
            75.13264420479999,
            18.0856992961
          ],
          [
            75.1329219828,
            18.0856992961
          ],
          [
            75.1331997608,
            18.0856992961
          ],
          [
            75.1334775388,
            18.0856992961
          ],
          [
            75.13375531679999,
            18.085977074099997
          ],
          [
            75.13403309479999,
            18.086254852099998
          ],
          [
            75.1343108728,
            18.0865326301
          ],
          [
            75.1345886508,
            18.086810408099996
          ],
          [
            75.1348664288,
            18.087088186099997
          ],
          [
            75.13514420679999,
            18.087365964099998
          ],
          [
            75.13542198479999,
            18.0876437421
          ],
          [
            75.1356997628,
            18.087921520099997
          ],
          [
            75.1359775408,
            18.088199298099997
          ],
          [
            75.1362553188,
            18.0884770761
          ],
          [
            75.1365330968,
            18.0887548541
          ],
          [
            75.13681087479999,
            18.089032632099997
          ],
          [
            75.13708865279999,
            18.089310410099998
          ],
          [
            75.1373664308,
            18.0895881881
          ],
          [
            75.1376442088,
            18.0898659661
          ],
          [
            75.1379219868,
            18.090143744099997
          ],
          [
            75.13819976479999,
            18.090421522099998
          ],
          [
            75.13847754279999,
            18.0906993001
          ],
          [
            75.1387553208,
            18.090977078099996
          ],
          [
            75.1390330988,
            18.091254856099997
          ],
          [
            75.1393108768,
            18.0915326341
          ],
          [
            75.1395886548,
            18.0918104121
          ],
          [
            75.13986643279999,
            18.092088190099997
          ],
          [
            75.14014421079999,
            18.092365968099998
          ],
          [
            75.1404219888,
            18.0926437461
          ],
          [
            75.1406997668,
            18.0929215241
          ],
          [
            75.1409775448,
            18.093199302099997
          ],
          [
            75.14125532279999,
            18.093477080099998
          ],
          [
            75.14153310079999,
            18.0937548581
          ],
          [
            75.1418108788,
            18.0940326361
          ],
          [
            75.1420886568,
            18.094310414099997
          ],
          [
            75.1423664348,
            18.094588192099998
          ],
          [
            75.1426442128,
            18.0948659701
          ],
          [
            75.14292199079999,
            18.095143748099996
          ],
          [
            75.14319976879999,
            18.095421526099997
          ],
          [
            75.1434775468,
            18.0956993041
          ],
          [
            75.1437553248,
            18.0959770821
          ],
          [
            75.1440331028,
            18.096254860099997
          ],
          [
            75.14431088079999,
            18.096532638099998
          ],
          [
            75.14458865879999,
            18.0968104161
          ],
          [
            75.1448664368,
            18.0970881941
          ],
          [
            75.1451442148,
            18.097365972099997
          ],
          [
            75.1454219928,
            18.097643750099998
          ],
          [
            75.1456997708,
            18.0979215281
          ],
          [
            75.14597754879999,
            18.0981993061
          ],
          [
            75.14625532679999,
            18.098477084099997
          ],
          [
            75.1465331048,
            18.098754862099998
          ],
          [
            75.1468108828,
            18.0990326401
          ],
          [
            75.1470886608,
            18.099310418099996
          ],
          [
            75.14736643879999,
            18.099588196099997
          ],
          [
            75.14764421679999,
            18.0998659741
          ],
          [
            75.1479219948,
            18.1001437521
          ],
          [
            75.1481997728,
            18.100421530099997
          ],
          [
            75.1484775508,
            18.100699308099998
          ],
          [
            75.1487553288,
            18.1009770861
          ],
          [
            75.14903310679999,
            18.1012548641
          ],
          [
            75.14931088479999,
            18.101532642099997
          ],
          [
            75.1495886628,
            18.101810420099998
          ],
          [
            75.1498664408,
            18.1020881981
          ],
          [
            75.1495886628,
            18.102365976099996
          ],
          [
            75.1498664408,
            18.102643754099997
          ],
          [
            75.1501442188,
            18.102921532099998
          ],
          [
            75.15042199679999,
            18.102921532099998
          ],
          [
            75.15069977479999,
            18.102921532099998
          ],
          [
            75.1509775528,
            18.102643754099997
          ],
          [
            75.1512553308,
            18.102643754099997
          ],
          [
            75.1515331088,
            18.102921532099998
          ],
          [
            75.15181088679999,
            18.1031993101
          ],
          [
            75.15208866479999,
            18.103477088099996
          ],
          [
            75.15236644279999,
            18.103754866099997
          ],
          [
            75.15236644279999,
            18.1040326441
          ],
          [
            75.1526442208,
            18.1043104221
          ],
          [
            75.1529219988,
            18.104588200099997
          ],
          [
            75.1531997768,
            18.104865978099998
          ],
          [
            75.15347755479999,
            18.1051437561
          ],
          [
            75.15347755479999,
            18.1054215341
          ],
          [
            75.15375533279999,
            18.105699312099997
          ],
          [
            75.1540331108,
            18.105977090099998
          ],
          [
            75.1543108888,
            18.1062548681
          ],
          [
            75.1543108888,
            18.106532646099996
          ],
          [
            75.1543108888,
            18.106810424099997
          ],
          [
            75.1543108888,
            18.107088202099998
          ],
          [
            75.1543108888,
            18.1073659801
          ],
          [
            75.1543108888,
            18.107643758099996
          ],
          [
            75.1543108888,
            18.107921536099997
          ],
          [
            75.1543108888,
            18.1081993141
          ],
          [
            75.1543108888,
            18.1084770921
          ],
          [
            75.1543108888,
            18.108754870099997
          ],
          [
            75.1545886668,
            18.109032648099998
          ],
          [
            75.1543108888,
            18.1093104261
          ],
          [
            75.1540331108,
            18.1095882041
          ],
          [
            75.15375533279999,
            18.109865982099997
          ],
          [
            75.15375533279999,
            18.110143760099998
          ],
          [
            75.1540331108,
            18.1104215381
          ],
          [
            75.1543108888,
            18.110699316099996
          ],
          [
            75.1543108888,
            18.110977094099997
          ],
          [
            75.1540331108,
            18.111254872099998
          ],
          [
            75.1540331108,
            18.1115326501
          ],
          [
            75.1540331108,
            18.111810428099997
          ],
          [
            75.15375533279999,
            18.112088206099997
          ],
          [
            75.15347755479999,
            18.1123659841
          ],
          [
            75.1531997768,
            18.1126437621
          ],
          [
            75.1529219988,
            18.112921540099997
          ],
          [
            75.1529219988,
            18.113199318099998
          ],
          [
            75.1526442208,
            18.1134770961
          ],
          [
            75.15236644279999,
            18.1137548741
          ],
          [
            75.15208866479999,
            18.114032652099997
          ],
          [
            75.15181088679999,
            18.114310430099998
          ],
          [
            75.1515331088,
            18.1145882081
          ],
          [
            75.1512553308,
            18.114865986099996
          ],
          [
            75.1509775528,
            18.115143764099997
          ],
          [
            75.15069977479999,
            18.115421542099998
          ],
          [
            75.15042199679999,
            18.1156993201
          ],
          [
            75.1501442188,
            18.115977098099997
          ],
          [
            75.1498664408,
            18.116254876099998
          ],
          [
            75.1498664408,
            18.1165326541
          ],
          [
            75.1498664408,
            18.1168104321
          ],
          [
            75.1495886628,
            18.117088210099997
          ],
          [
            75.14931088479999,
            18.117365988099998
          ],
          [
            75.14903310679999,
            18.1176437661
          ],
          [
            75.1487553288,
            18.1179215441
          ],
          [
            75.1484775508,
            18.118199322099997
          ],
          [
            75.1481997728,
            18.118199322099997
          ],
          [
            75.1479219948,
            18.118477100099998
          ],
          [
            75.14764421679999,
            18.118477100099998
          ],
          [
            75.14736643879999,
            18.118477100099998
          ],
          [
            75.1470886608,
            18.118199322099997
          ],
          [
            75.1468108828,
            18.118199322099997
          ],
          [
            75.1465331048,
            18.118199322099997
          ],
          [
            75.14625532679999,
            18.118199322099997
          ],
          [
            75.14597754879999,
            18.118477100099998
          ],
          [
            75.1456997708,
            18.1187548781
          ],
          [
            75.1454219928,
            18.119032656099996
          ],
          [
            75.1451442148,
            18.119310434099997
          ],
          [
            75.1448664368,
            18.1195882121
          ],
          [
            75.14458865879999,
            18.1195882121
          ],
          [
            75.14431088079999,
            18.1198659901
          ],
          [
            75.1440331028,
            18.120143768099997
          ],
          [
            75.1437553248,
            18.120143768099997
          ],
          [
            75.1434775468,
            18.120143768099997
          ],
          [
            75.14319976879999,
            18.120421546099998
          ],
          [
            75.14292199079999,
            18.120421546099998
          ],
          [
            75.1426442128,
            18.120421546099998
          ],
          [
            75.1423664348,
            18.120421546099998
          ],
          [
            75.1420886568,
            18.120421546099998
          ],
          [
            75.1418108788,
            18.1206993241
          ],
          [
            75.14153310079999,
            18.1206993241
          ],
          [
            75.14125532279999,
            18.1206993241
          ],
          [
            75.1409775448,
            18.1209771021
          ],
          [
            75.1406997668,
            18.121254880099997
          ],
          [
            75.1404219888,
            18.121532658099998
          ],
          [
            75.14014421079999,
            18.1218104361
          ],
          [
            75.13986643279999,
            18.1220882141
          ],
          [
            75.1395886548,
            18.122365992099997
          ],
          [
            75.1393108768,
            18.122643770099998
          ],
          [
            75.1390330988,
            18.1229215481
          ],
          [
            75.1387553208,
            18.1229215481
          ],
          [
            75.13847754279999,
            18.123199326099996
          ],
          [
            75.13819976479999,
            18.123477104099997
          ],
          [
            75.1379219868,
            18.1237548821
          ],
          [
            75.1376442088,
            18.1240326601
          ],
          [
            75.1373664308,
            18.1240326601
          ],
          [
            75.13708865279999,
            18.1240326601
          ],
          [
            75.13681087479999,
            18.1240326601
          ],
          [
            75.1365330968,
            18.124310438099997
          ],
          [
            75.1362553188,
            18.124310438099997
          ],
          [
            75.1359775408,
            18.124310438099997
          ],
          [
            75.1356997628,
            18.124588216099998
          ],
          [
            75.13542198479999,
            18.1248659941
          ],
          [
            75.13514420679999,
            18.1251437721
          ],
          [
            75.1348664288,
            18.125421550099997
          ],
          [
            75.1345886508,
            18.125699328099998
          ],
          [
            75.1343108728,
            18.1259771061
          ],
          [
            75.13403309479999,
            18.126254884099996
          ],
          [
            75.13375531679999,
            18.126254884099996
          ],
          [
            75.1334775388,
            18.126254884099996
          ],
          [
            75.1331997608,
            18.126254884099996
          ],
          [
            75.1329219828,
            18.126532662099997
          ],
          [
            75.13264420479999,
            18.126810440099998
          ],
          [
            75.13236642679999,
            18.1270882181
          ],
          [
            75.13208864879999,
            18.127365996099996
          ],
          [
            75.1318108708,
            18.127643774099997
          ],
          [
            75.1315330928,
            18.1279215521
          ],
          [
            75.1312553148,
            18.1281993301
          ],
          [
            75.13097753679999,
            18.128477108099997
          ],
          [
            75.13069975879999,
            18.128477108099997
          ],
          [
            75.1304219808,
            18.128477108099997
          ],
          [
            75.1301442028,
            18.128477108099997
          ],
          [
            75.1298664248,
            18.128477108099997
          ],
          [
            75.12958864679999,
            18.128477108099997
          ],
          [
            75.12931086879999,
            18.128477108099997
          ],
          [
            75.1290330908,
            18.128477108099997
          ],
          [
            75.1287553128,
            18.1281993301
          ],
          [
            75.1284775348,
            18.1281993301
          ],
          [
            75.1281997568,
            18.1279215521
          ],
          [
            75.12792197879999,
            18.127643774099997
          ],
          [
            75.12764420079999,
            18.127643774099997
          ],
          [
            75.1273664228,
            18.127643774099997
          ],
          [
            75.1270886448,
            18.127365996099996
          ],
          [
            75.1268108668,
            18.1270882181
          ],
          [
            75.12653308879999,
            18.126810440099998
          ],
          [
            75.12625531079999,
            18.126532662099997
          ],
          [
            75.1259775328,
            18.126254884099996
          ],
          [
            75.1256997548,
            18.126254884099996
          ],
          [
            75.1254219768,
            18.126254884099996
          ],
          [
            75.1251441988,
            18.126254884099996
          ],
          [
            75.12486642079999,
            18.126254884099996
          ],
          [
            75.12458864279999,
            18.1259771061
          ],
          [
            75.1243108648,
            18.1259771061
          ],
          [
            75.1240330868,
            18.1259771061
          ],
          [
            75.1237553088,
            18.125699328099998
          ],
          [
            75.12347753079999,
            18.125421550099997
          ],
          [
            75.12319975279999,
            18.1251437721
          ],
          [
            75.1229219748,
            18.1248659941
          ],
          [
            75.1226441968,
            18.124588216099998
          ],
          [
            75.1223664188,
            18.124310438099997
          ],
          [
            75.1220886408,
            18.1240326601
          ],
          [
            75.12181086279999,
            18.1237548821
          ],
          [
            75.12153308479999,
            18.123477104099997
          ],
          [
            75.1212553068,
            18.123199326099996
          ],
          [
            75.1209775288,
            18.1229215481
          ],
          [
            75.1206997508,
            18.122643770099998
          ],
          [
            75.12042197279999,
            18.122365992099997
          ],
          [
            75.12014419479999,
            18.1220882141
          ],
          [
            75.1198664168,
            18.1218104361
          ],
          [
            75.1195886388,
            18.121532658099998
          ],
          [
            75.1193108608,
            18.121254880099997
          ],
          [
            75.1190330828,
            18.1209771021
          ],
          [
            75.11875530479999,
            18.1206993241
          ],
          [
            75.11847752679999,
            18.120421546099998
          ],
          [
            75.1181997488,
            18.120143768099997
          ],
          [
            75.1179219708,
            18.1198659901
          ],
          [
            75.1176441928,
            18.1195882121
          ],
          [
            75.11736641479999,
            18.119310434099997
          ],
          [
            75.11708863679999,
            18.119032656099996
          ],
          [
            75.1168108588,
            18.1187548781
          ],
          [
            75.1165330808,
            18.118477100099998
          ],
          [
            75.1162553028,
            18.118199322099997
          ],
          [
            75.11597752479999,
            18.1179215441
          ],
          [
            75.11569974679999,
            18.1176437661
          ],
          [
            75.11542196879999,
            18.117365988099998
          ],
          [
            75.1151441908,
            18.117088210099997
          ],
          [
            75.1148664128,
            18.1168104321
          ],
          [
            75.1145886348,
            18.1165326541
          ],
          [
            75.11431085679999,
            18.1165326541
          ],
          [
            75.11403307879999,
            18.1165326541
          ],
          [
            75.1137553008,
            18.1165326541
          ],
          [
            75.1134775228,
            18.1165326541
          ],
          [
            75.1131997448,
            18.1168104321
          ],
          [
            75.11292196679999,
            18.1168104321
          ],
          [
            75.11264418879999,
            18.117088210099997
          ],
          [
            75.11236641079999,
            18.117365988099998
          ],
          [
            75.1120886328,
            18.117365988099998
          ],
          [
            75.1118108548,
            18.117365988099998
          ],
          [
            75.1115330768,
            18.117365988099998
          ],
          [
            75.11125529879999,
            18.1176437661
          ],
          [
            75.11097752079999,
            18.1176437661
          ],
          [
            75.1106997428,
            18.1179215441
          ],
          [
            75.1104219648,
            18.1179215441
          ],
          [
            75.1101441868,
            18.1179215441
          ],
          [
            75.10986640879999,
            18.118199322099997
          ],
          [
            75.10958863079999,
            18.118199322099997
          ],
          [
            75.1093108528,
            18.118199322099997
          ],
          [
            75.1090330748,
            18.118477100099998
          ],
          [
            75.1087552968,
            18.118477100099998
          ],
          [
            75.1084775188,
            18.118477100099998
          ],
          [
            75.10819974079999,
            18.118477100099998
          ],
          [
            75.10792196279999,
            18.118477100099998
          ],
          [
            75.1076441848,
            18.118477100099998
          ],
          [
            75.1073664068,
            18.118199322099997
          ],
          [
            75.1070886288,
            18.118199322099997
          ],
          [
            75.10681085079999,
            18.118477100099998
          ],
          [
            75.10653307279999,
            18.1187548781
          ],
          [
            75.1062552948,
            18.119032656099996
          ],
          [
            75.1059775168,
            18.119310434099997
          ],
          [
            75.1056997388,
            18.119310434099997
          ],
          [
            75.1054219608,
            18.1195882121
          ],
          [
            75.10514418279999,
            18.1195882121
          ],
          [
            75.10486640479999,
            18.1198659901
          ],
          [
            75.1045886268,
            18.1198659901
          ],
          [
            75.1043108488,
            18.1195882121
          ],
          [
            75.1040330708,
            18.1195882121
          ],
          [
            75.10375529279999,
            18.119310434099997
          ],
          [
            75.10347751479999,
            18.119310434099997
          ],
          [
            75.1031997368,
            18.119310434099997
          ],
          [
            75.1029219588,
            18.119310434099997
          ],
          [
            75.1026441808,
            18.1195882121
          ],
          [
            75.1023664028,
            18.1195882121
          ],
          [
            75.10208862479999,
            18.1195882121
          ],
          [
            75.10181084679999,
            18.1195882121
          ],
          [
            75.1015330688,
            18.1195882121
          ],
          [
            75.1012552908,
            18.1195882121
          ],
          [
            75.1009775128,
            18.1195882121
          ],
          [
            75.10069973479999,
            18.1195882121
          ],
          [
            75.10042195679999,
            18.1195882121
          ],
          [
            75.1001441788,
            18.1195882121
          ],
          [
            75.0998664008,
            18.1195882121
          ],
          [
            75.0995886228,
            18.1195882121
          ],
          [
            75.0993108448,
            18.1198659901
          ],
          [
            75.09903306679999,
            18.1198659901
          ],
          [
            75.09875528879999,
            18.1198659901
          ],
          [
            75.0984775108,
            18.120143768099997
          ],
          [
            75.0981997328,
            18.120143768099997
          ],
          [
            75.0979219548,
            18.120143768099997
          ],
          [
            75.09764417679999,
            18.120421546099998
          ],
          [
            75.09736639879999,
            18.1206993241
          ],
          [
            75.0970886208,
            18.1209771021
          ],
          [
            75.0968108428,
            18.121254880099997
          ],
          [
            75.0965330648,
            18.121532658099998
          ],
          [
            75.09625528679999,
            18.1218104361
          ],
          [
            75.09597750879999,
            18.1220882141
          ],
          [
            75.09569973079999,
            18.122365992099997
          ],
          [
            75.09569973079999,
            18.122643770099998
          ],
          [
            75.0954219528,
            18.1229215481
          ],
          [
            75.0954219528,
            18.123199326099996
          ],
          [
            75.09569973079999,
            18.123477104099997
          ],
          [
            75.09597750879999,
            18.1237548821
          ],
          [
            75.09625528679999,
            18.1240326601
          ],
          [
            75.0965330648,
            18.124310438099997
          ],
          [
            75.0968108428,
            18.124588216099998
          ],
          [
            75.0970886208,
            18.124588216099998
          ],
          [
            75.09736639879999,
            18.1248659941
          ],
          [
            75.09736639879999,
            18.1251437721
          ],
          [
            75.09736639879999,
            18.125421550099997
          ],
          [
            75.09736639879999,
            18.125699328099998
          ],
          [
            75.0970886208,
            18.1259771061
          ],
          [
            75.0970886208,
            18.126254884099996
          ],
          [
            75.0968108428,
            18.126532662099997
          ],
          [
            75.0968108428,
            18.126810440099998
          ],
          [
            75.0968108428,
            18.1270882181
          ],
          [
            75.0970886208,
            18.127365996099996
          ],
          [
            75.0970886208,
            18.127643774099997
          ],
          [
            75.09736639879999,
            18.1279215521
          ],
          [
            75.09764417679999,
            18.1281993301
          ],
          [
            75.0979219548,
            18.128477108099997
          ],
          [
            75.0981997328,
            18.128754886099998
          ],
          [
            75.0981997328,
            18.1290326641
          ],
          [
            75.0981997328,
            18.1293104421
          ],
          [
            75.0984775108,
            18.129588220099997
          ],
          [
            75.09875528879999,
            18.129865998099998
          ],
          [
            75.09875528879999,
            18.1301437761
          ],
          [
            75.09875528879999,
            18.130421554099996
          ],
          [
            75.0984775108,
            18.130699332099997
          ],
          [
            75.0984775108,
            18.130977110099998
          ],
          [
            75.0981997328,
            18.1312548881
          ],
          [
            75.0981997328,
            18.131532666099996
          ],
          [
            75.0981997328,
            18.131810444099997
          ],
          [
            75.0984775108,
            18.1320882221
          ],
          [
            75.09875528879999,
            18.1323660001
          ],
          [
            75.09903306679999,
            18.132643778099997
          ],
          [
            75.09903306679999,
            18.132921556099998
          ],
          [
            75.0993108448,
            18.1331993341
          ],
          [
            75.0993108448,
            18.1334771121
          ],
          [
            75.0993108448,
            18.133754890099997
          ],
          [
            75.0993108448,
            18.134032668099998
          ],
          [
            75.0993108448,
            18.1343104461
          ],
          [
            75.0993108448,
            18.134588224099996
          ],
          [
            75.0993108448,
            18.134866002099997
          ],
          [
            75.0993108448,
            18.135143780099998
          ],
          [
            75.0993108448,
            18.1354215581
          ],
          [
            75.0993108448,
            18.135699336099997
          ],
          [
            75.0995886228,
            18.135977114099997
          ],
          [
            75.0993108448,
            18.1362548921
          ],
          [
            75.09903306679999,
            18.1365326701
          ],
          [
            75.09875528879999,
            18.136810448099997
          ],
          [
            75.0984775108,
            18.137088226099998
          ],
          [
            75.0981997328,
            18.1373660041
          ],
          [
            75.0979219548,
            18.1376437821
          ],
          [
            75.09764417679999,
            18.137921560099997
          ],
          [
            75.09764417679999,
            18.138199338099998
          ],
          [
            75.09764417679999,
            18.1384771161
          ],
          [
            75.09764417679999,
            18.138754894099996
          ],
          [
            75.09764417679999,
            18.139032672099997
          ],
          [
            75.09764417679999,
            18.139310450099998
          ],
          [
            75.09764417679999,
            18.1395882281
          ],
          [
            75.09764417679999,
            18.139866006099997
          ],
          [
            75.09764417679999,
            18.140143784099998
          ],
          [
            75.09764417679999,
            18.1404215621
          ],
          [
            75.09736639879999,
            18.1406993401
          ],
          [
            75.0970886208,
            18.140977118099997
          ],
          [
            75.0968108428,
            18.141254896099998
          ],
          [
            75.0965330648,
            18.1415326741
          ],
          [
            75.09625528679999,
            18.1418104521
          ],
          [
            75.09625528679999,
            18.142088230099997
          ],
          [
            75.09625528679999,
            18.142366008099998
          ],
          [
            75.09625528679999,
            18.1426437861
          ],
          [
            75.09625528679999,
            18.142921564099996
          ],
          [
            75.09625528679999,
            18.143199342099997
          ],
          [
            75.09625528679999,
            18.1434771201
          ],
          [
            75.09597750879999,
            18.1437548981
          ],
          [
            75.09569973079999,
            18.144032676099997
          ],
          [
            75.09569973079999,
            18.144310454099998
          ],
          [
            75.09597750879999,
            18.1445882321
          ],
          [
            75.09625528679999,
            18.1448660101
          ],
          [
            75.0965330648,
            18.145143788099997
          ],
          [
            75.0968108428,
            18.145421566099998
          ],
          [
            75.0970886208,
            18.1456993441
          ],
          [
            75.09736639879999,
            18.1459771221
          ],
          [
            75.09764417679999,
            18.146254900099997
          ],
          [
            75.0979219548,
            18.146532678099998
          ],
          [
            75.0981997328,
            18.1468104561
          ],
          [
            75.0984775108,
            18.147088234099996
          ],
          [
            75.09875528879999,
            18.147366012099997
          ],
          [
            75.09903306679999,
            18.1476437901
          ],
          [
            75.0993108448,
            18.1479215681
          ],
          [
            75.0995886228,
            18.148199346099997
          ],
          [
            75.0998664008,
            18.148477124099998
          ],
          [
            75.1001441788,
            18.1487549021
          ],
          [
            75.10042195679999,
            18.1490326801
          ],
          [
            75.10069973479999,
            18.149310458099997
          ],
          [
            75.1009775128,
            18.149588236099998
          ],
          [
            75.1012552908,
            18.1498660141
          ],
          [
            75.1015330688,
            18.150143792099996
          ],
          [
            75.10181084679999,
            18.150421570099997
          ],
          [
            75.10208862479999,
            18.150699348099998
          ],
          [
            75.1023664028,
            18.1509771261
          ],
          [
            75.1026441808,
            18.151254904099996
          ],
          [
            75.1029219588,
            18.151532682099997
          ],
          [
            75.1029219588,
            18.1518104601
          ],
          [
            75.1031997368,
            18.1520882381
          ],
          [
            75.10347751479999,
            18.152366016099997
          ],
          [
            75.10375529279999,
            18.152643794099998
          ],
          [
            75.10375529279999,
            18.1529215721
          ],
          [
            75.1040330708,
            18.1531993501
          ],
          [
            75.1040330708,
            18.153477128099997
          ],
          [
            75.1043108488,
            18.153754906099998
          ],
          [
            75.1045886268,
            18.1540326841
          ],
          [
            75.1045886268,
            18.154310462099996
          ],
          [
            75.1045886268,
            18.154588240099997
          ],
          [
            75.10486640479999,
            18.154866018099998
          ],
          [
            75.1045886268,
            18.1551437961
          ],
          [
            75.1045886268,
            18.155421574099996
          ],
          [
            75.1043108488,
            18.155699352099997
          ],
          [
            75.1043108488,
            18.1559771301
          ],
          [
            75.1043108488,
            18.1562549081
          ],
          [
            75.1043108488,
            18.156532686099997
          ],
          [
            75.1045886268,
            18.156810464099998
          ],
          [
            75.1045886268,
            18.1570882421
          ],
          [
            75.10486640479999,
            18.1573660201
          ],
          [
            75.10486640479999,
            18.157643798099997
          ],
          [
            75.10514418279999,
            18.157921576099998
          ],
          [
            75.10514418279999,
            18.1581993541
          ],
          [
            75.10514418279999,
            18.158477132099996
          ],
          [
            75.10514418279999,
            18.158754910099997
          ],
          [
            75.10514418279999,
            18.159032688099998
          ],
          [
            75.10514418279999,
            18.1593104661
          ],
          [
            75.1054219608,
            18.159588244099997
          ],
          [
            75.1054219608,
            18.159866022099997
          ],
          [
            75.1056997388,
            18.1601438001
          ],
          [
            75.1056997388,
            18.1604215781
          ],
          [
            75.1056997388,
            18.160699356099997
          ],
          [
            75.1059775168,
            18.160977134099998
          ],
          [
            75.1062552948,
            18.1612549121
          ],
          [
            75.10653307279999,
            18.1615326901
          ],
          [
            75.10653307279999,
            18.161810468099997
          ],
          [
            75.10653307279999,
            18.162088246099998
          ],
          [
            75.1062552948,
            18.1623660241
          ],
          [
            75.1062552948,
            18.162643802099996
          ],
          [
            75.10653307279999,
            18.162921580099997
          ],
          [
            75.10653307279999,
            18.163199358099998
          ],
          [
            75.10681085079999,
            18.1634771361
          ],
          [
            75.1070886288,
            18.163754914099997
          ],
          [
            75.1073664068,
            18.164032692099997
          ],
          [
            75.1070886288,
            18.1643104701
          ],
          [
            75.1070886288,
            18.1645882481
          ],
          [
            75.10681085079999,
            18.1645882481
          ],
          [
            75.10653307279999,
            18.164866026099997
          ],
          [
            75.1062552948,
            18.165143804099998
          ],
          [
            75.1062552948,
            18.1654215821
          ],
          [
            75.1059775168,
            18.1656993601
          ],
          [
            75.1059775168,
            18.165977138099997
          ],
          [
            75.1062552948,
            18.166254916099998
          ],
          [
            75.1062552948,
            18.1665326941
          ],
          [
            75.1062552948,
            18.166810472099996
          ],
          [
            75.10653307279999,
            18.167088250099997
          ],
          [
            75.10681085079999,
            18.1673660281
          ],
          [
            75.1070886288,
            18.1676438061
          ],
          [
            75.1070886288,
            18.167921584099997
          ],
          [
            75.1070886288,
            18.168199362099998
          ],
          [
            75.1070886288,
            18.1684771401
          ],
          [
            75.10681085079999,
            18.1687549181
          ],
          [
            75.10681085079999,
            18.169032696099997
          ],
          [
            75.10681085079999,
            18.169310474099998
          ],
          [
            75.1070886288,
            18.1695882521
          ],
          [
            75.1073664068,
            18.1698660301
          ],
          [
            75.1073664068,
            18.170143808099997
          ],
          [
            75.1076441848,
            18.170421586099998
          ],
          [
            75.1076441848,
            18.1706993641
          ],
          [
            75.1076441848,
            18.170977142099996
          ],
          [
            75.10792196279999,
            18.171254920099997
          ],
          [
            75.10792196279999,
            18.1715326981
          ],
          [
            75.10792196279999,
            18.1718104761
          ],
          [
            75.10792196279999,
            18.172088254099997
          ],
          [
            75.10792196279999,
            18.172366032099998
          ],
          [
            75.10792196279999,
            18.1726438101
          ],
          [
            75.10792196279999,
            18.1729215881
          ],
          [
            75.10792196279999,
            18.173199366099997
          ],
          [
            75.10792196279999,
            18.173477144099998
          ],
          [
            75.10792196279999,
            18.1737549221
          ],
          [
            75.10819974079999,
            18.1740327001
          ],
          [
            75.1084775188,
            18.174310478099997
          ],
          [
            75.1084775188,
            18.174588256099998
          ],
          [
            75.1087552968,
            18.1748660341
          ],
          [
            75.1087552968,
            18.175143812099996
          ],
          [
            75.1087552968,
            18.175421590099997
          ],
          [
            75.1087552968,
            18.1756993681
          ],
          [
            75.1087552968,
            18.1759771461
          ],
          [
            75.1090330748,
            18.176254924099997
          ],
          [
            75.1090330748,
            18.176532702099998
          ],
          [
            75.1090330748,
            18.1768104801
          ],
          [
            75.1093108528,
            18.1770882581
          ],
          [
            75.1093108528,
            18.177366036099997
          ],
          [
            75.1093108528,
            18.177643814099998
          ],
          [
            75.1093108528,
            18.1779215921
          ],
          [
            75.1093108528,
            18.178199370099996
          ],
          [
            75.1093108528,
            18.178477148099997
          ],
          [
            75.1093108528,
            18.178754926099998
          ],
          [
            75.1093108528,
            18.1790327041
          ],
          [
            75.1093108528,
            18.179310482099996
          ],
          [
            75.1093108528,
            18.179588260099997
          ],
          [
            75.1093108528,
            18.1798660381
          ],
          [
            75.1093108528,
            18.1801438161
          ],
          [
            75.1093108528,
            18.180421594099997
          ],
          [
            75.1090330748,
            18.180699372099998
          ],
          [
            75.1087552968,
            18.180699372099998
          ],
          [
            75.1084775188,
            18.1809771501
          ],
          [
            75.10819974079999,
            18.1812549281
          ],
          [
            75.10792196279999,
            18.1812549281
          ],
          [
            75.1076441848,
            18.1812549281
          ],
          [
            75.1073664068,
            18.1812549281
          ],
          [
            75.1070886288,
            18.1812549281
          ],
          [
            75.10681085079999,
            18.1812549281
          ],
          [
            75.10653307279999,
            18.181532706099997
          ],
          [
            75.10653307279999,
            18.181810484099998
          ],
          [
            75.10653307279999,
            18.1820882621
          ],
          [
            75.10653307279999,
            18.182366040099996
          ],
          [
            75.10681085079999,
            18.182643818099997
          ],
          [
            75.10681085079999,
            18.182921596099998
          ],
          [
            75.10681085079999,
            18.1831993741
          ],
          [
            75.1070886288,
            18.183477152099996
          ],
          [
            75.1070886288,
            18.183754930099997
          ],
          [
            75.1070886288,
            18.1840327081
          ],
          [
            75.1070886288,
            18.1843104861
          ],
          [
            75.10681085079999,
            18.184588264099997
          ],
          [
            75.10653307279999,
            18.184866042099998
          ],
          [
            75.1062552948,
            18.1851438201
          ],
          [
            75.1059775168,
            18.1854215981
          ],
          [
            75.1059775168,
            18.185699376099997
          ],
          [
            75.1059775168,
            18.185977154099998
          ],
          [
            75.1056997388,
            18.1862549321
          ],
          [
            75.1054219608,
            18.186532710099996
          ],
          [
            75.1054219608,
            18.186810488099997
          ],
          [
            75.10514418279999,
            18.187088266099998
          ],
          [
            75.10514418279999,
            18.1873660441
          ],
          [
            75.10486640479999,
            18.187643822099997
          ],
          [
            75.1045886268,
            18.187921600099997
          ],
          [
            75.1045886268,
            18.1881993781
          ],
          [
            75.1045886268,
            18.1884771561
          ],
          [
            75.1043108488,
            18.188754934099997
          ],
          [
            75.1043108488,
            18.189032712099998
          ],
          [
            75.1045886268,
            18.1893104901
          ],
          [
            75.10486640479999,
            18.1895882681
          ],
          [
            75.10514418279999,
            18.189866046099997
          ],
          [
            75.1054219608,
            18.190143824099998
          ],
          [
            75.1056997388,
            18.1904216021
          ],
          [
            75.1056997388,
            18.190699380099996
          ],
          [
            75.1059775168,
            18.190977158099997
          ],
          [
            75.1062552948,
            18.191254936099998
          ],
          [
            75.1062552948,
            18.1915327141
          ],
          [
            75.10653307279999,
            18.1915327141
          ],
          [
            75.10681085079999,
            18.191810492099997
          ],
          [
            75.1070886288,
            18.192088270099998
          ],
          [
            75.1070886288,
            18.1923660481
          ],
          [
            75.1073664068,
            18.1923660481
          ],
          [
            75.1076441848,
            18.1926438261
          ],
          [
            75.10792196279999,
            18.192921604099997
          ],
          [
            75.10819974079999,
            18.192921604099997
          ],
          [
            75.1084775188,
            18.193199382099998
          ],
          [
            75.1087552968,
            18.1934771601
          ],
          [
            75.1090330748,
            18.1937549381
          ],
          [
            75.1093108528,
            18.194032716099997
          ],
          [
            75.1093108528,
            18.194310494099998
          ],
          [
            75.1093108528,
            18.1945882721
          ],
          [
            75.1093108528,
            18.194866050099996
          ],
          [
            75.1090330748,
            18.195143828099997
          ],
          [
            75.1090330748,
            18.1954216061
          ],
          [
            75.1093108528,
            18.1956993841
          ],
          [
            75.1093108528,
            18.195977162099997
          ],
          [
            75.1093108528,
            18.196254940099998
          ],
          [
            75.1093108528,
            18.1965327181
          ],
          [
            75.1093108528,
            18.1968104961
          ],
          [
            75.1090330748,
            18.197088274099997
          ],
          [
            75.1087552968,
            18.197366052099998
          ],
          [
            75.1087552968,
            18.1976438301
          ],
          [
            75.1087552968,
            18.1979216081
          ],
          [
            75.1087552968,
            18.198199386099997
          ],
          [
            75.1087552968,
            18.198477164099998
          ],
          [
            75.1090330748,
            18.1987549421
          ],
          [
            75.1087552968,
            18.199032720099996
          ],
          [
            75.1084775188,
            18.199310498099997
          ],
          [
            75.1087552968,
            18.1995882761
          ],
          [
            75.1090330748,
            18.1998660541
          ]
        ]
      }
    }
  ]
}