{"type": "FeatureCollection", "features": [{"type": "Feature", "properties": {"time_min": 5, "depth_min_m": 0.05, "depth_max_m": 1.0, "depth_class": "0.05\u20131.0 m", "class_area_km2": 0.009025009096261118, "flooded_area_km2": 0.31677781927876525, "frame_max_depth_m": 12.71233121779511, "class_mean_depth_m": 0.5189871015841732, "scenario_id": "baseline", "model_type": "Automated approximate 2D flood-routing prototype", "validated_hydraulic_output": false}, "geometry": {"type": "Polygon", "coordinates": [[[75.1205608618, 18.078060401099997], [75.1205608618, 18.0777826231], [75.1208386398, 18.0777826231], [75.1208386398, 18.078060401099997], [75.1205608618, 18.078060401099997]]]}}, {"type": "Feature", "properties": {"time_min": 5, "depth_min_m": 0.05, "depth_max_m": 1.0, "depth_class": "0.05\u20131.0 m", "class_area_km2": 0.009025009096261118, "flooded_area_km2": 0.31677781927876525, "frame_max_depth_m": 12.71233121779511, "class_mean_depth_m": 0.5189871015841732, "scenario_id": "baseline", "model_type": "Automated approximate 2D flood-routing prototype", "validated_hydraulic_output": false}, "geometry": {"type": "Polygon", "coordinates": [[[75.1205608618, 18.074171509099997], [75.1205608618, 18.073893731099997], [75.1208386398, 18.073893731099997], [75.1208386398, 18.074171509099997], [75.1205608618, 18.074171509099997]]]}}, {"type": "Feature", "properties": {"time_min": 5, "depth_min_m": 0.05, "depth_max_m": 1.0, "depth_class": "0.05\u20131.0 m", "class_area_km2": 0.009025009096261118, "flooded_area_km2": 0.31677781927876525, "frame_max_depth_m": 12.71233121779511, "class_mean_depth_m": 0.5189871015841732, "scenario_id": "baseline", "model_type": "Automated approximate 2D flood-routing prototype", "validated_hydraulic_output": false}, "geometry": {"type": "Polygon", "coordinates": [[[75.1197275278, 18.0744492871], [75.1197275278, 18.073893731099997], [75.12000530579999, 18.073893731099997], [75.12000530579999, 18.0736159531], [75.12028308379999, 18.0736159531], [75.12028308379999, 18.0744492871], [75.1197275278, 18.0744492871]]]}}, {"type": "Feature", "properties": {"time_min": 5, "depth_min_m": 0.05, "depth_max_m": 1.0, "depth_class": "0.05\u20131.0 m", "class_area_km2": 0.009025009096261118, "flooded_area_km2": 0.31677781927876525, "frame_max_depth_m": 12.71233121779511, "class_mean_depth_m": 0.5189871015841732, "scenario_id": "baseline", "model_type": "Automated approximate 2D flood-routing prototype", "validated_hydraulic_output": false}, "geometry": {"type": "Polygon", "coordinates": [[[75.1194497498, 18.0736159531], [75.1194497498, 18.073338175099998], [75.1197275278, 18.073338175099998], [75.1197275278, 18.0736159531], [75.1194497498, 18.0736159531]]]}}, {"type": "Feature", "properties": {"time_min": 5, "depth_min_m": 0.05, "depth_max_m": 1.0, "depth_class": "0.05\u20131.0 m", "class_area_km2": 0.009025009096261118, "flooded_area_km2": 0.31677781927876525, "frame_max_depth_m": 12.71233121779511, "class_mean_depth_m": 0.5189871015841732, "scenario_id": "baseline", "model_type": "Automated approximate 2D flood-routing prototype", "validated_hydraulic_output": false}, "geometry": {"type": "Polygon", "coordinates": [[[75.1194497498, 18.073060397099997], [75.1194497498, 18.072782619099996], [75.1197275278, 18.072782619099996], [75.1197275278, 18.073060397099997], [75.1194497498, 18.073060397099997]]]}}, {"type": "Feature", "properties": {"time_min": 5, "depth_min_m": 0.05, "depth_max_m": 1.0, "depth_class": "0.05\u20131.0 m", "class_area_km2": 0.009025009096261118, "flooded_area_km2": 0.31677781927876525, "frame_max_depth_m": 12.71233121779511, "class_mean_depth_m": 0.5189871015841732, "scenario_id": "baseline", "model_type": "Automated approximate 2D flood-routing prototype", "validated_hydraulic_output": false}, "geometry": {"type": "Polygon", "coordinates": [[[75.1191719718, 18.072782619099996], [75.1191719718, 18.0725048411], [75.1194497498, 18.0725048411], [75.1194497498, 18.072782619099996], [75.1191719718, 18.072782619099996]]]}}, {"type": "Feature", "properties": {"time_min": 5, "depth_min_m": 1.0, "depth_max_m": 3.0, "depth_class": "1.0\u20133.0 m", "class_area_km2": 0.017147517282896124, "flooded_area_km2": 0.31677781927876525, "frame_max_depth_m": 12.71233121779511, "class_mean_depth_m": 1.98849441937817, "scenario_id": "baseline", "model_type": "Automated approximate 2D flood-routing prototype", "validated_hydraulic_output": false}, "geometry": {"type": "Polygon", "coordinates": [[[75.1194497498, 18.0786159571], [75.1194497498, 18.078338179099998], [75.1197275278, 18.078338179099998], [75.1197275278, 18.0786159571], [75.1194497498, 18.0786159571]]]}}, {"type": "Feature", "properties": {"time_min": 5, "depth_min_m": 1.0, "depth_max_m": 3.0, "depth_class": "1.0\u20133.0 m", "class_area_km2": 0.017147517282896124, "flooded_area_km2": 0.31677781927876525, "frame_max_depth_m": 12.71233121779511, "class_mean_depth_m": 1.98849441937817, "scenario_id": "baseline", "model_type": "Automated approximate 2D flood-routing prototype", "validated_hydraulic_output": false}, "geometry": {"type": "Polygon", "coordinates": [[[75.12028308379999, 18.0786159571], [75.12028308379999, 18.078060401099997], [75.1205608618, 18.078060401099997], [75.1205608618, 18.0786159571], [75.12028308379999, 18.0786159571]]]}}, {"type": "Feature", "properties": {"time_min": 5, "depth_min_m": 1.0, "depth_max_m": 3.0, "depth_class": "1.0\u20133.0 m", "class_area_km2": 0.017147517282896124, "flooded_area_km2": 0.31677781927876525, "frame_max_depth_m": 12.71233121779511, "class_mean_depth_m": 1.98849441937817, "scenario_id": "baseline", "model_type": "Automated approximate 2D flood-routing prototype", "validated_hydraulic_output": false}, "geometry": {"type": "Polygon", "coordinates": [[[75.1205608618, 18.0777826231], [75.1205608618, 18.0766715111], [75.1208386398, 18.0766715111], [75.1208386398, 18.0777826231], [75.1205608618, 18.0777826231]]]}}, {"type": "Feature", "properties": {"time_min": 5, "depth_min_m": 1.0, "depth_max_m": 3.0, "depth_class": "1.0\u20133.0 m", "class_area_km2": 0.017147517282896124, "flooded_area_km2": 0.31677781927876525, "frame_max_depth_m": 12.71233121779511, "class_mean_depth_m": 1.98849441937817, "scenario_id": "baseline", "model_type": "Automated approximate 2D flood-routing prototype", "validated_hydraulic_output": false}, "geometry": {"type": "Polygon", "coordinates": [[[75.12028308379999, 18.076115955099997], [75.12028308379999, 18.0755603991], [75.1205608618, 18.0755603991], [75.1205608618, 18.076115955099997], [75.12028308379999, 18.076115955099997]]]}}, {"type": "Feature", "properties": {"time_min": 5, "depth_min_m": 1.0, "depth_max_m": 3.0, "depth_class": "1.0\u20133.0 m", "class_area_km2": 0.017147517282896124, "flooded_area_km2": 0.31677781927876525, "frame_max_depth_m": 12.71233121779511, "class_mean_depth_m": 1.98849441937817, "scenario_id": "baseline", "model_type": "Automated approximate 2D flood-routing prototype", "validated_hydraulic_output": false}, "geometry": {"type": "Polygon", "coordinates": [[[75.12000530579999, 18.075004843099997], [75.12000530579999, 18.0747270651], [75.1197275278, 18.0747270651], [75.1197275278, 18.0744492871], [75.12028308379999, 18.0744492871], [75.12028308379999, 18.075004843099997], [75.12000530579999, 18.075004843099997]]]}}, {"type": "Feature", "properties": {"time_min": 5, "depth_min_m": 1.0, "depth_max_m": 3.0, "depth_class": "1.0\u20133.0 m", "class_area_km2": 0.017147517282896124, "flooded_area_km2": 0.31677781927876525, "frame_max_depth_m": 12.71233121779511, "class_mean_depth_m": 1.98849441937817, "scenario_id": "baseline", "model_type": "Automated approximate 2D flood-routing prototype", "validated_hydraulic_output": false}, "geometry": {"type": "Polygon", "coordinates": [[[75.1194497498, 18.0744492871], [75.1194497498, 18.073893731099997], [75.1197275278, 18.073893731099997], [75.1197275278, 18.0744492871], [75.1194497498, 18.0744492871]]]}}, {"type": "Feature", "properties": {"time_min": 5, "depth_min_m": 1.0, "depth_max_m": 3.0, "depth_class": "1.0\u20133.0 m", "class_area_km2": 0.017147517282896124, "flooded_area_km2": 0.31677781927876525, "frame_max_depth_m": 12.71233121779511, "class_mean_depth_m": 1.98849441937817, "scenario_id": "baseline", "model_type": "Automated approximate 2D flood-routing prototype", "validated_hydraulic_output": false}, "geometry": {"type": "Polygon", "coordinates": [[[75.12028308379999, 18.074171509099997], [75.12028308379999, 18.073893731099997], [75.1205608618, 18.073893731099997], [75.1205608618, 18.074171509099997], [75.12028308379999, 18.074171509099997]]]}}, {"type": "Feature", "properties": {"time_min": 5, "depth_min_m": 1.0, "depth_max_m": 3.0, "depth_class": "1.0\u20133.0 m", "class_area_km2": 0.017147517282896124, "flooded_area_km2": 0.31677781927876525, "frame_max_depth_m": 12.71233121779511, "class_mean_depth_m": 1.98849441937817, "scenario_id": "baseline", "model_type": "Automated approximate 2D flood-routing prototype", "validated_hydraulic_output": false}, "geometry": {"type": "Polygon", "coordinates": [[[75.1197275278, 18.073893731099997], [75.1197275278, 18.0736159531], [75.12000530579999, 18.0736159531], [75.12000530579999, 18.073893731099997], [75.1197275278, 18.073893731099997]]]}}, {"type": "Feature", "properties": {"time_min": 5, "depth_min_m": 1.0, "depth_max_m": 3.0, "depth_class": "1.0\u20133.0 m", "class_area_km2": 0.017147517282896124, "flooded_area_km2": 0.31677781927876525, "frame_max_depth_m": 12.71233121779511, "class_mean_depth_m": 1.98849441937817, "scenario_id": "baseline", "model_type": "Automated approximate 2D flood-routing prototype", "validated_hydraulic_output": false}, "geometry": {"type": "Polygon", "coordinates": [[[75.1191719718, 18.0736159531], [75.1191719718, 18.072782619099996], [75.1194497498, 18.072782619099996], [75.1194497498, 18.0736159531], [75.1191719718, 18.0736159531]]]}}, {"type": "Feature", "properties": {"time_min": 5, "depth_min_m": 3.0, "depth_max_m": 6.0, "depth_class": "3.0\u20136.0 m", "class_area_km2": 0.04783254821018393, "flooded_area_km2": 0.31677781927876525, "frame_max_depth_m": 12.71233121779511, "class_mean_depth_m": 4.751649374487328, "scenario_id": "baseline", "model_type": "Automated approximate 2D flood-routing prototype", "validated_hydraulic_output": false}, "geometry": {"type": "Polygon", "coordinates": [[[75.1197275278, 18.0786159571], [75.1197275278, 18.078338179099998], [75.1183386378, 18.078338179099998], [75.1183386378, 18.078060401099997], [75.1180608598, 18.078060401099997], [75.1180608598, 18.0777826231], [75.1175053038, 18.0777826231], [75.1175053038, 18.077504845099998], [75.1177830818, 18.077504845099998], [75.1177830818, 18.077227067099997], [75.11861641579999, 18.077227067099997], [75.11861641579999, 18.077504845099998], [75.1194497498, 18.077504845099998], [75.1194497498, 18.0777826231], [75.1197275278, 18.0777826231], [75.1197275278, 18.078060401099997], [75.12028308379999, 18.078060401099997], [75.12028308379999, 18.0786159571], [75.1197275278, 18.0786159571]]]}}, {"type": "Feature", "properties": {"time_min": 5, "depth_min_m": 3.0, "depth_max_m": 6.0, "depth_class": "3.0\u20136.0 m", "class_area_km2": 0.04783254821018393, "flooded_area_km2": 0.31677781927876525, "frame_max_depth_m": 12.71233121779511, "class_mean_depth_m": 4.751649374487328, "scenario_id": "baseline", "model_type": "Automated approximate 2D flood-routing prototype", "validated_hydraulic_output": false}, "geometry": {"type": "Polygon", "coordinates": [[[75.12028308379999, 18.078060401099997], [75.12028308379999, 18.076115955099997], [75.1205608618, 18.076115955099997], [75.1205608618, 18.078060401099997], [75.12028308379999, 18.078060401099997]]]}}, {"type": "Feature", "properties": {"time_min": 5, "depth_min_m": 3.0, "depth_max_m": 6.0, "depth_class": "3.0\u20136.0 m", "class_area_km2": 0.04783254821018393, "flooded_area_km2": 0.31677781927876525, "frame_max_depth_m": 12.71233121779511, "class_mean_depth_m": 4.751649374487328, "scenario_id": "baseline", "model_type": "Automated approximate 2D flood-routing prototype", "validated_hydraulic_output": false}, "geometry": {"type": "Polygon", "coordinates": [[[75.12000530579999, 18.076115955099997], [75.12000530579999, 18.0755603991], [75.1197275278, 18.0755603991], [75.1197275278, 18.075004843099997], [75.1194497498, 18.075004843099997], [75.1194497498, 18.0744492871], [75.1197275278, 18.0744492871], [75.1197275278, 18.0747270651], [75.12000530579999, 18.0747270651], [75.12000530579999, 18.075004843099997], [75.12028308379999, 18.075004843099997], [75.12028308379999, 18.076115955099997], [75.12000530579999, 18.076115955099997]]]}}, {"type": "Feature", "properties": {"time_min": 5, "depth_min_m": 3.0, "depth_max_m": 6.0, "depth_class": "3.0\u20136.0 m", "class_area_km2": 0.04783254821018393, "flooded_area_km2": 0.31677781927876525, "frame_max_depth_m": 12.71233121779511, "class_mean_depth_m": 4.751649374487328, "scenario_id": "baseline", "model_type": "Automated approximate 2D flood-routing prototype", "validated_hydraulic_output": false}, "geometry": {"type": "Polygon", "coordinates": [[[75.11889419379999, 18.0744492871], [75.11889419379999, 18.073060397099997], [75.1191719718, 18.073060397099997], [75.1191719718, 18.0736159531], [75.1194497498, 18.0736159531], [75.1194497498, 18.0744492871], [75.11889419379999, 18.0744492871]]]}}, {"type": "Feature", "properties": {"time_min": 5, "depth_min_m": 3.0, "depth_max_m": 6.0, "depth_class": "3.0\u20136.0 m", "class_area_km2": 0.04783254821018393, "flooded_area_km2": 0.31677781927876525, "frame_max_depth_m": 12.71233121779511, "class_mean_depth_m": 4.751649374487328, "scenario_id": "baseline", "model_type": "Automated approximate 2D flood-routing prototype", "validated_hydraulic_output": false}, "geometry": {"type": "Polygon", "coordinates": [[[75.1194497498, 18.073338175099998], [75.1194497498, 18.073060397099997], [75.1197275278, 18.073060397099997], [75.1197275278, 18.073338175099998], [75.1194497498, 18.073338175099998]]]}}, {"type": "Feature", "properties": {"time_min": 5, "depth_min_m": 3.0, "depth_max_m": 6.0, "depth_class": "3.0\u20136.0 m", "class_area_km2": 0.04783254821018393, "flooded_area_km2": 0.31677781927876525, "frame_max_depth_m": 12.71233121779511, "class_mean_depth_m": 4.751649374487328, "scenario_id": "baseline", "model_type": "Automated approximate 2D flood-routing prototype", "validated_hydraulic_output": false}, "geometry": {"type": "Polygon", "coordinates": [[[75.1177830818, 18.0725048411], [75.1177830818, 18.072227063099998], [75.1183386378, 18.072227063099998], [75.1183386378, 18.0725048411], [75.1177830818, 18.0725048411]]]}}, {"type": "Feature", "properties": {"time_min": 5, "depth_min_m": 3.0, "depth_max_m": 6.0, "depth_class": "3.0\u20136.0 m", "class_area_km2": 0.04783254821018393, "flooded_area_km2": 0.31677781927876525, "frame_max_depth_m": 12.71233121779511, "class_mean_depth_m": 4.751649374487328, "scenario_id": "baseline", "model_type": "Automated approximate 2D flood-routing prototype", "validated_hydraulic_output": false}, "geometry": {"type": "Polygon", "coordinates": [[[75.11889419379999, 18.0725048411], [75.11889419379999, 18.072227063099998], [75.1191719718, 18.072227063099998], [75.1191719718, 18.0725048411], [75.11889419379999, 18.0725048411]]]}}, {"type": "Feature", "properties": {"time_min": 5, "depth_min_m": 6.0, "depth_max_m": null, "depth_class": "6.0+ m", "class_area_km2": 0.24277274468942409, "flooded_area_km2": 0.31677781927876525, "frame_max_depth_m": 12.71233121779511, "class_mean_depth_m": 10.031747590101395, "scenario_id": "baseline", "model_type": "Automated approximate 2D flood-routing prototype", "validated_hydraulic_output": false}, "geometry": {"type": "Polygon", "coordinates": [[[75.1197275278, 18.078060401099997], [75.1197275278, 18.0777826231], [75.1194497498, 18.0777826231], [75.1194497498, 18.077504845099998], [75.11861641579999, 18.077504845099998], [75.11861641579999, 18.077227067099997], [75.1177830818, 18.077227067099997], [75.1177830818, 18.077504845099998], [75.1166719698, 18.077504845099998], [75.1166719698, 18.077227067099997], [75.1163941918, 18.077227067099997], [75.1163941918, 18.076949289099996], [75.1161164138, 18.076949289099996], [75.1161164138, 18.0766715111], [75.11583863579999, 18.0766715111], [75.11583863579999, 18.076393733099998], [75.11556085779999, 18.076393733099998], [75.11556085779999, 18.0758381771], [75.1152830798, 18.0758381771], [75.1152830798, 18.0747270651], [75.1150053018, 18.0747270651], [75.1150053018, 18.0744492871], [75.1147275238, 18.0744492871], [75.1147275238, 18.074171509099997], [75.11444974579999, 18.074171509099997], [75.11444974579999, 18.073893731099997], [75.1147275238, 18.073893731099997], [75.1147275238, 18.0736159531], [75.1150053018, 18.0736159531], [75.1150053018, 18.073338175099998], [75.1152830798, 18.073338175099998], [75.1152830798, 18.073060397099997], [75.11556085779999, 18.073060397099997], [75.11556085779999, 18.072782619099996], [75.11694974779999, 18.072782619099996], [75.11694974779999, 18.0725048411], [75.1183386378, 18.0725048411], [75.1183386378, 18.072227063099998], [75.11889419379999, 18.072227063099998], [75.11889419379999, 18.0725048411], [75.1191719718, 18.0725048411], [75.1191719718, 18.073060397099997], [75.11889419379999, 18.073060397099997], [75.11889419379999, 18.0744492871], [75.1194497498, 18.0744492871], [75.1194497498, 18.075004843099997], [75.1197275278, 18.075004843099997], [75.1197275278, 18.0755603991], [75.12000530579999, 18.0755603991], [75.12000530579999, 18.076115955099997], [75.12028308379999, 18.076115955099997], [75.12028308379999, 18.078060401099997], [75.1197275278, 18.078060401099997]]]}}]}