{"type": "FeatureCollection", "features": [{"type": "Feature", "properties": {"time_min": 10, "depth_min_m": 0.05, "depth_max_m": 1.0, "depth_class": "0.05\u20131.0 m", "class_area_km2": 0.02888002910803558, "flooded_area_km2": 0.8808408877950851, "frame_max_depth_m": 16.048773331423945, "class_mean_depth_m": 0.5469155738555855, "scenario_id": "baseline", "model_type": "Automated approximate 2D flood-routing prototype", "validated_hydraulic_output": false}, "geometry": {"type": "Polygon", "coordinates": [[[75.1161164138, 18.080560403099998], [75.1161164138, 18.080282625099997], [75.11694974779999, 18.080282625099997], [75.11694974779999, 18.080560403099998], [75.1161164138, 18.080560403099998]]]}}, {"type": "Feature", "properties": {"time_min": 10, "depth_min_m": 0.05, "depth_max_m": 1.0, "depth_class": "0.05\u20131.0 m", "class_area_km2": 0.02888002910803558, "flooded_area_km2": 0.8808408877950851, "frame_max_depth_m": 16.048773331423945, "class_mean_depth_m": 0.5469155738555855, "scenario_id": "baseline", "model_type": "Automated approximate 2D flood-routing prototype", "validated_hydraulic_output": false}, "geometry": {"type": "Polygon", "coordinates": [[[75.1191719718, 18.080560403099998], [75.1191719718, 18.080282625099997], [75.11694974779999, 18.080282625099997], [75.11694974779999, 18.0800048471], [75.1194497498, 18.0800048471], [75.1194497498, 18.080282625099997], [75.1197275278, 18.080282625099997], [75.1197275278, 18.080560403099998], [75.1191719718, 18.080560403099998]]]}}, {"type": "Feature", "properties": {"time_min": 10, "depth_min_m": 0.05, "depth_max_m": 1.0, "depth_class": "0.05\u20131.0 m", "class_area_km2": 0.02888002910803558, "flooded_area_km2": 0.8808408877950851, "frame_max_depth_m": 16.048773331423945, "class_mean_depth_m": 0.5469155738555855, "scenario_id": "baseline", "model_type": "Automated approximate 2D flood-routing prototype", "validated_hydraulic_output": false}, "geometry": {"type": "Polygon", "coordinates": [[[75.1191719718, 18.079449291099998], [75.1191719718, 18.079171513099997], [75.1194497498, 18.079171513099997], [75.1194497498, 18.079449291099998], [75.1191719718, 18.079449291099998]]]}}, {"type": "Feature", "properties": {"time_min": 10, "depth_min_m": 0.05, "depth_max_m": 1.0, "depth_class": "0.05\u20131.0 m", "class_area_km2": 0.02888002910803558, "flooded_area_km2": 0.8808408877950851, "frame_max_depth_m": 16.048773331423945, "class_mean_depth_m": 0.5469155738555855, "scenario_id": "baseline", "model_type": "Automated approximate 2D flood-routing prototype", "validated_hydraulic_output": false}, "geometry": {"type": "Polygon", "coordinates": [[[75.11889419379999, 18.079171513099997], [75.11889419379999, 18.0788937351], [75.1191719718, 18.0788937351], [75.1191719718, 18.079171513099997], [75.11889419379999, 18.079171513099997]]]}}, {"type": "Feature", "properties": {"time_min": 10, "depth_min_m": 0.05, "depth_max_m": 1.0, "depth_class": "0.05\u20131.0 m", "class_area_km2": 0.02888002910803558, "flooded_area_km2": 0.8808408877950851, "frame_max_depth_m": 16.048773331423945, "class_mean_depth_m": 0.5469155738555855, "scenario_id": "baseline", "model_type": "Automated approximate 2D flood-routing prototype", "validated_hydraulic_output": false}, "geometry": {"type": "Polygon", "coordinates": [[[75.1191719718, 18.0788937351], [75.1191719718, 18.0786159571], [75.1197275278, 18.0786159571], [75.1197275278, 18.0788937351], [75.1191719718, 18.0788937351]]]}}, {"type": "Feature", "properties": {"time_min": 10, "depth_min_m": 0.05, "depth_max_m": 1.0, "depth_class": "0.05\u20131.0 m", "class_area_km2": 0.02888002910803558, "flooded_area_km2": 0.8808408877950851, "frame_max_depth_m": 16.048773331423945, "class_mean_depth_m": 0.5469155738555855, "scenario_id": "baseline", "model_type": "Automated approximate 2D flood-routing prototype", "validated_hydraulic_output": false}, "geometry": {"type": "Polygon", "coordinates": [[[75.12028308379999, 18.0788937351], [75.12028308379999, 18.0786159571], [75.1205608618, 18.0786159571], [75.1205608618, 18.0788937351], [75.12028308379999, 18.0788937351]]]}}, {"type": "Feature", "properties": {"time_min": 10, "depth_min_m": 0.05, "depth_max_m": 1.0, "depth_class": "0.05\u20131.0 m", "class_area_km2": 0.02888002910803558, "flooded_area_km2": 0.8808408877950851, "frame_max_depth_m": 16.048773331423945, "class_mean_depth_m": 0.5469155738555855, "scenario_id": "baseline", "model_type": "Automated approximate 2D flood-routing prototype", "validated_hydraulic_output": false}, "geometry": {"type": "Polygon", "coordinates": [[[75.1205608618, 18.078060401099997], [75.1205608618, 18.0777826231], [75.1208386398, 18.0777826231], [75.1208386398, 18.078060401099997], [75.1205608618, 18.078060401099997]]]}}, {"type": "Feature", "properties": {"time_min": 10, "depth_min_m": 0.05, "depth_max_m": 1.0, "depth_class": "0.05\u20131.0 m", "class_area_km2": 0.02888002910803558, "flooded_area_km2": 0.8808408877950851, "frame_max_depth_m": 16.048773331423945, "class_mean_depth_m": 0.5469155738555855, "scenario_id": "baseline", "model_type": "Automated approximate 2D flood-routing prototype", "validated_hydraulic_output": false}, "geometry": {"type": "Polygon", "coordinates": [[[75.1225053078, 18.077227067099997], [75.1225053078, 18.076949289099996], [75.1227830858, 18.076949289099996], [75.1227830858, 18.077227067099997], [75.1225053078, 18.077227067099997]]]}}, {"type": "Feature", "properties": {"time_min": 10, "depth_min_m": 0.05, "depth_max_m": 1.0, "depth_class": "0.05\u20131.0 m", "class_area_km2": 0.02888002910803558, "flooded_area_km2": 0.8808408877950851, "frame_max_depth_m": 16.048773331423945, "class_mean_depth_m": 0.5469155738555855, "scenario_id": "baseline", "model_type": "Automated approximate 2D flood-routing prototype", "validated_hydraulic_output": false}, "geometry": {"type": "Polygon", "coordinates": [[[75.12639419979999, 18.0747270651], [75.12639419979999, 18.0744492871], [75.1266719778, 18.0744492871], [75.1266719778, 18.0747270651], [75.12639419979999, 18.0747270651]]]}}, {"type": "Feature", "properties": {"time_min": 10, "depth_min_m": 0.05, "depth_max_m": 1.0, "depth_class": "0.05\u20131.0 m", "class_area_km2": 0.02888002910803558, "flooded_area_km2": 0.8808408877950851, "frame_max_depth_m": 16.048773331423945, "class_mean_depth_m": 0.5469155738555855, "scenario_id": "baseline", "model_type": "Automated approximate 2D flood-routing prototype", "validated_hydraulic_output": false}, "geometry": {"type": "Polygon", "coordinates": [[[75.1205608618, 18.074171509099997], [75.1205608618, 18.073893731099997], [75.1208386398, 18.073893731099997], [75.1208386398, 18.074171509099997], [75.1205608618, 18.074171509099997]]]}}, {"type": "Feature", "properties": {"time_min": 10, "depth_min_m": 0.05, "depth_max_m": 1.0, "depth_class": "0.05\u20131.0 m", "class_area_km2": 0.02888002910803558, "flooded_area_km2": 0.8808408877950851, "frame_max_depth_m": 16.048773331423945, "class_mean_depth_m": 0.5469155738555855, "scenario_id": "baseline", "model_type": "Automated approximate 2D flood-routing prototype", "validated_hydraulic_output": false}, "geometry": {"type": "Polygon", "coordinates": [[[75.1266719778, 18.074171509099997], [75.1266719778, 18.073893731099997], [75.1269497558, 18.073893731099997], [75.1269497558, 18.074171509099997], [75.1266719778, 18.074171509099997]]]}}, {"type": "Feature", "properties": {"time_min": 10, "depth_min_m": 0.05, "depth_max_m": 1.0, "depth_class": "0.05\u20131.0 m", "class_area_km2": 0.02888002910803558, "flooded_area_km2": 0.8808408877950851, "frame_max_depth_m": 16.048773331423945, "class_mean_depth_m": 0.5469155738555855, "scenario_id": "baseline", "model_type": "Automated approximate 2D flood-routing prototype", "validated_hydraulic_output": false}, "geometry": {"type": "Polygon", "coordinates": [[[75.1197275278, 18.0744492871], [75.1197275278, 18.074171509099997], [75.12000530579999, 18.074171509099997], [75.12000530579999, 18.0736159531], [75.12028308379999, 18.0736159531], [75.12028308379999, 18.0744492871], [75.1197275278, 18.0744492871]]]}}, {"type": "Feature", "properties": {"time_min": 10, "depth_min_m": 0.05, "depth_max_m": 1.0, "depth_class": "0.05\u20131.0 m", "class_area_km2": 0.02888002910803558, "flooded_area_km2": 0.8808408877950851, "frame_max_depth_m": 16.048773331423945, "class_mean_depth_m": 0.5469155738555855, "scenario_id": "baseline", "model_type": "Automated approximate 2D flood-routing prototype", "validated_hydraulic_output": false}, "geometry": {"type": "Polygon", "coordinates": [[[75.1194497498, 18.0736159531], [75.1194497498, 18.073338175099998], [75.1197275278, 18.073338175099998], [75.1197275278, 18.0736159531], [75.1194497498, 18.0736159531]]]}}, {"type": "Feature", "properties": {"time_min": 10, "depth_min_m": 0.05, "depth_max_m": 1.0, "depth_class": "0.05\u20131.0 m", "class_area_km2": 0.02888002910803558, "flooded_area_km2": 0.8808408877950851, "frame_max_depth_m": 16.048773331423945, "class_mean_depth_m": 0.5469155738555855, "scenario_id": "baseline", "model_type": "Automated approximate 2D flood-routing prototype", "validated_hydraulic_output": false}, "geometry": {"type": "Polygon", "coordinates": [[[75.1191719718, 18.072782619099996], [75.1191719718, 18.0725048411], [75.1194497498, 18.0725048411], [75.1194497498, 18.072782619099996], [75.1191719718, 18.072782619099996]]]}}, {"type": "Feature", "properties": {"time_min": 10, "depth_min_m": 0.05, "depth_max_m": 1.0, "depth_class": "0.05\u20131.0 m", "class_area_km2": 0.02888002910803558, "flooded_area_km2": 0.8808408877950851, "frame_max_depth_m": 16.048773331423945, "class_mean_depth_m": 0.5469155738555855, "scenario_id": "baseline", "model_type": "Automated approximate 2D flood-routing prototype", "validated_hydraulic_output": false}, "geometry": {"type": "Polygon", "coordinates": [[[75.11722752579999, 18.0725048411], [75.11722752579999, 18.072227063099998], [75.1175053038, 18.072227063099998], [75.1175053038, 18.0725048411], [75.11722752579999, 18.0725048411]]]}}, {"type": "Feature", "properties": {"time_min": 10, "depth_min_m": 0.05, "depth_max_m": 1.0, "depth_class": "0.05\u20131.0 m", "class_area_km2": 0.02888002910803558, "flooded_area_km2": 0.8808408877950851, "frame_max_depth_m": 16.048773331423945, "class_mean_depth_m": 0.5469155738555855, "scenario_id": "baseline", "model_type": "Automated approximate 2D flood-routing prototype", "validated_hydraulic_output": false}, "geometry": {"type": "Polygon", "coordinates": [[[75.11417196779999, 18.071949285099997], [75.11417196779999, 18.0716715071], [75.11444974579999, 18.0716715071], [75.11444974579999, 18.071949285099997], [75.11417196779999, 18.071949285099997]]]}}, {"type": "Feature", "properties": {"time_min": 10, "depth_min_m": 1.0, "depth_max_m": 3.0, "depth_class": "1.0\u20133.0 m", "class_area_km2": 0.07581007640859339, "flooded_area_km2": 0.8808408877950851, "frame_max_depth_m": 16.048773331423945, "class_mean_depth_m": 2.0388329569587293, "scenario_id": "baseline", "model_type": "Automated approximate 2D flood-routing prototype", "validated_hydraulic_output": false}, "geometry": {"type": "Polygon", "coordinates": [[[75.11556085779999, 18.080560403099998], [75.11556085779999, 18.080282625099997], [75.1150053018, 18.080282625099997], [75.1150053018, 18.0800048471], [75.1147275238, 18.0800048471], [75.1147275238, 18.0797270691], [75.11444974579999, 18.0797270691], [75.11444974579999, 18.079171513099997], [75.1152830798, 18.079171513099997], [75.1152830798, 18.079449291099998], [75.11583863579999, 18.079449291099998], [75.11583863579999, 18.079171513099997], [75.1161164138, 18.079171513099997], [75.1161164138, 18.079449291099998], [75.1163941918, 18.079449291099998], [75.1163941918, 18.0797270691], [75.11694974779999, 18.0797270691], [75.11694974779999, 18.079449291099998], [75.1175053038, 18.079449291099998], [75.1175053038, 18.0797270691], [75.1177830818, 18.0797270691], [75.1177830818, 18.079449291099998], [75.1180608598, 18.079449291099998], [75.1180608598, 18.079171513099997], [75.11861641579999, 18.079171513099997], [75.11861641579999, 18.0786159571], [75.1191719718, 18.0786159571], [75.1191719718, 18.0788937351], [75.11889419379999, 18.0788937351], [75.11889419379999, 18.079171513099997], [75.1191719718, 18.079171513099997], [75.1191719718, 18.079449291099998], [75.1194497498, 18.079449291099998], [75.1194497498, 18.0797270691], [75.1197275278, 18.0797270691], [75.1197275278, 18.080282625099997], [75.1194497498, 18.080282625099997], [75.1194497498, 18.0800048471], [75.11694974779999, 18.0800048471], [75.11694974779999, 18.080282625099997], [75.1161164138, 18.080282625099997], [75.1161164138, 18.080560403099998], [75.11556085779999, 18.080560403099998]]]}}, {"type": "Feature", "properties": {"time_min": 10, "depth_min_m": 1.0, "depth_max_m": 3.0, "depth_class": "1.0\u20133.0 m", "class_area_km2": 0.07581007640859339, "flooded_area_km2": 0.8808408877950851, "frame_max_depth_m": 16.048773331423945, "class_mean_depth_m": 2.0388329569587293, "scenario_id": "baseline", "model_type": "Automated approximate 2D flood-routing prototype", "validated_hydraulic_output": false}, "geometry": {"type": "Polygon", "coordinates": [[[75.1197275278, 18.0788937351], [75.1197275278, 18.0786159571], [75.12028308379999, 18.0786159571], [75.12028308379999, 18.0788937351], [75.1197275278, 18.0788937351]]]}}, {"type": "Feature", "properties": {"time_min": 10, "depth_min_m": 1.0, "depth_max_m": 3.0, "depth_class": "1.0\u20133.0 m", "class_area_km2": 0.07581007640859339, "flooded_area_km2": 0.8808408877950851, "frame_max_depth_m": 16.048773331423945, "class_mean_depth_m": 2.0388329569587293, "scenario_id": "baseline", "model_type": "Automated approximate 2D flood-routing prototype", "validated_hydraulic_output": false}, "geometry": {"type": "Polygon", "coordinates": [[[75.12028308379999, 18.0786159571], [75.12028308379999, 18.078338179099998], [75.1205608618, 18.078338179099998], [75.1205608618, 18.0786159571], [75.12028308379999, 18.0786159571]]]}}, {"type": "Feature", "properties": {"time_min": 10, "depth_min_m": 1.0, "depth_max_m": 3.0, "depth_class": "1.0\u20133.0 m", "class_area_km2": 0.07581007640859339, "flooded_area_km2": 0.8808408877950851, "frame_max_depth_m": 16.048773331423945, "class_mean_depth_m": 2.0388329569587293, "scenario_id": "baseline", "model_type": "Automated approximate 2D flood-routing prototype", "validated_hydraulic_output": false}, "geometry": {"type": "Polygon", "coordinates": [[[75.1205608618, 18.0777826231], [75.1205608618, 18.0766715111], [75.1208386398, 18.0766715111], [75.1208386398, 18.0777826231], [75.1205608618, 18.0777826231]]]}}, {"type": "Feature", "properties": {"time_min": 10, "depth_min_m": 1.0, "depth_max_m": 3.0, "depth_class": "1.0\u20133.0 m", "class_area_km2": 0.07581007640859339, "flooded_area_km2": 0.8808408877950851, "frame_max_depth_m": 16.048773331423945, "class_mean_depth_m": 2.0388329569587293, "scenario_id": "baseline", "model_type": "Automated approximate 2D flood-routing prototype", "validated_hydraulic_output": false}, "geometry": {"type": "Polygon", "coordinates": [[[75.1225053078, 18.076949289099996], [75.1225053078, 18.0766715111], [75.1227830858, 18.0766715111], [75.1227830858, 18.076949289099996], [75.1225053078, 18.076949289099996]]]}}, {"type": "Feature", "properties": {"time_min": 10, "depth_min_m": 1.0, "depth_max_m": 3.0, "depth_class": "1.0\u20133.0 m", "class_area_km2": 0.07581007640859339, "flooded_area_km2": 0.8808408877950851, "frame_max_depth_m": 16.048773331423945, "class_mean_depth_m": 2.0388329569587293, "scenario_id": "baseline", "model_type": "Automated approximate 2D flood-routing prototype", "validated_hydraulic_output": false}, "geometry": {"type": "Polygon", "coordinates": [[[75.12028308379999, 18.076115955099997], [75.12028308379999, 18.0755603991], [75.1205608618, 18.0755603991], [75.1205608618, 18.076115955099997], [75.12028308379999, 18.076115955099997]]]}}, {"type": "Feature", "properties": {"time_min": 10, "depth_min_m": 1.0, "depth_max_m": 3.0, "depth_class": "1.0\u20133.0 m", "class_area_km2": 0.07581007640859339, "flooded_area_km2": 0.8808408877950851, "frame_max_depth_m": 16.048773331423945, "class_mean_depth_m": 2.0388329569587293, "scenario_id": "baseline", "model_type": "Automated approximate 2D flood-routing prototype", "validated_hydraulic_output": false}, "geometry": {"type": "Polygon", "coordinates": [[[75.12000530579999, 18.075004843099997], [75.12000530579999, 18.0747270651], [75.1197275278, 18.0747270651], [75.1197275278, 18.0744492871], [75.12028308379999, 18.0744492871], [75.12028308379999, 18.075004843099997], [75.12000530579999, 18.075004843099997]]]}}, {"type": "Feature", "properties": {"time_min": 10, "depth_min_m": 1.0, "depth_max_m": 3.0, "depth_class": "1.0\u20133.0 m", "class_area_km2": 0.07581007640859339, "flooded_area_km2": 0.8808408877950851, "frame_max_depth_m": 16.048773331423945, "class_mean_depth_m": 2.0388329569587293, "scenario_id": "baseline", "model_type": "Automated approximate 2D flood-routing prototype", "validated_hydraulic_output": false}, "geometry": {"type": "Polygon", "coordinates": [[[75.12028308379999, 18.074171509099997], [75.12028308379999, 18.073893731099997], [75.1205608618, 18.073893731099997], [75.1205608618, 18.074171509099997], [75.12028308379999, 18.074171509099997]]]}}, {"type": "Feature", "properties": {"time_min": 10, "depth_min_m": 1.0, "depth_max_m": 3.0, "depth_class": "1.0\u20133.0 m", "class_area_km2": 0.07581007640859339, "flooded_area_km2": 0.8808408877950851, "frame_max_depth_m": 16.048773331423945, "class_mean_depth_m": 2.0388329569587293, "scenario_id": "baseline", "model_type": "Automated approximate 2D flood-routing prototype", "validated_hydraulic_output": false}, "geometry": {"type": "Polygon", "coordinates": [[[75.1194497498, 18.0744492871], [75.1194497498, 18.073893731099997], [75.1197275278, 18.073893731099997], [75.1197275278, 18.0736159531], [75.12000530579999, 18.0736159531], [75.12000530579999, 18.074171509099997], [75.1197275278, 18.074171509099997], [75.1197275278, 18.0744492871], [75.1194497498, 18.0744492871]]]}}, {"type": "Feature", "properties": {"time_min": 10, "depth_min_m": 1.0, "depth_max_m": 3.0, "depth_class": "1.0\u20133.0 m", "class_area_km2": 0.07581007640859339, "flooded_area_km2": 0.8808408877950851, "frame_max_depth_m": 16.048773331423945, "class_mean_depth_m": 2.0388329569587293, "scenario_id": "baseline", "model_type": "Automated approximate 2D flood-routing prototype", "validated_hydraulic_output": false}, "geometry": {"type": "Polygon", "coordinates": [[[75.1191719718, 18.0736159531], [75.1191719718, 18.072782619099996], [75.1197275278, 18.072782619099996], [75.1197275278, 18.073060397099997], [75.1194497498, 18.073060397099997], [75.1194497498, 18.0736159531], [75.1191719718, 18.0736159531]]]}}, {"type": "Feature", "properties": {"time_min": 10, "depth_min_m": 1.0, "depth_max_m": 3.0, "depth_class": "1.0\u20133.0 m", "class_area_km2": 0.07581007640859339, "flooded_area_km2": 0.8808408877950851, "frame_max_depth_m": 16.048773331423945, "class_mean_depth_m": 2.0388329569587293, "scenario_id": "baseline", "model_type": "Automated approximate 2D flood-routing prototype", "validated_hydraulic_output": false}, "geometry": {"type": "Polygon", "coordinates": [[[75.11556085779999, 18.0725048411], [75.11556085779999, 18.072227063099998], [75.1161164138, 18.072227063099998], [75.1161164138, 18.0725048411], [75.11556085779999, 18.0725048411]]]}}, {"type": "Feature", "properties": {"time_min": 10, "depth_min_m": 1.0, "depth_max_m": 3.0, "depth_class": "1.0\u20133.0 m", "class_area_km2": 0.07581007640859339, "flooded_area_km2": 0.8808408877950851, "frame_max_depth_m": 16.048773331423945, "class_mean_depth_m": 2.0388329569587293, "scenario_id": "baseline", "model_type": "Automated approximate 2D flood-routing prototype", "validated_hydraulic_output": false}, "geometry": {"type": "Polygon", "coordinates": [[[75.1175053038, 18.0725048411], [75.1175053038, 18.072227063099998], [75.1177830818, 18.072227063099998], [75.1177830818, 18.0725048411], [75.1175053038, 18.0725048411]]]}}, {"type": "Feature", "properties": {"time_min": 10, "depth_min_m": 1.0, "depth_max_m": 3.0, "depth_class": "1.0\u20133.0 m", "class_area_km2": 0.07581007640859339, "flooded_area_km2": 0.8808408877950851, "frame_max_depth_m": 16.048773331423945, "class_mean_depth_m": 2.0388329569587293, "scenario_id": "baseline", "model_type": "Automated approximate 2D flood-routing prototype", "validated_hydraulic_output": false}, "geometry": {"type": "Polygon", "coordinates": [[[75.11444974579999, 18.072227063099998], [75.11444974579999, 18.071949285099997], [75.1150053018, 18.071949285099997], [75.1150053018, 18.072227063099998], [75.11444974579999, 18.072227063099998]]]}}, {"type": "Feature", "properties": {"time_min": 10, "depth_min_m": 1.0, "depth_max_m": 3.0, "depth_class": "1.0\u20133.0 m", "class_area_km2": 0.07581007640859339, "flooded_area_km2": 0.8808408877950851, "frame_max_depth_m": 16.048773331423945, "class_mean_depth_m": 2.0388329569587293, "scenario_id": "baseline", "model_type": "Automated approximate 2D flood-routing prototype", "validated_hydraulic_output": false}, "geometry": {"type": "Polygon", "coordinates": [[[75.11389418979999, 18.071949285099997], [75.11389418979999, 18.0716715071], [75.11417196779999, 18.0716715071], [75.11417196779999, 18.071949285099997], [75.11389418979999, 18.071949285099997]]]}}, {"type": "Feature", "properties": {"time_min": 10, "depth_min_m": 1.0, "depth_max_m": 3.0, "depth_class": "1.0\u20133.0 m", "class_area_km2": 0.07581007640859339, "flooded_area_km2": 0.8808408877950851, "frame_max_depth_m": 16.048773331423945, "class_mean_depth_m": 2.0388329569587293, "scenario_id": "baseline", "model_type": "Automated approximate 2D flood-routing prototype", "validated_hydraulic_output": false}, "geometry": {"type": "Polygon", "coordinates": [[[75.1130608558, 18.0716715071], [75.1130608558, 18.0713937291], [75.1136164118, 18.0713937291], [75.1136164118, 18.0716715071], [75.1130608558, 18.0716715071]]]}}, {"type": "Feature", "properties": {"time_min": 10, "depth_min_m": 3.0, "depth_max_m": 6.0, "depth_class": "3.0\u20136.0 m", "class_area_km2": 0.1064951073358812, "flooded_area_km2": 0.8808408877950851, "frame_max_depth_m": 16.048773331423945, "class_mean_depth_m": 4.634876867738829, "scenario_id": "baseline", "model_type": "Automated approximate 2D flood-routing prototype", "validated_hydraulic_output": false}, "geometry": {"type": "Polygon", "coordinates": [[[75.1163941918, 18.0797270691], [75.1163941918, 18.079449291099998], [75.1161164138, 18.079449291099998], [75.1161164138, 18.079171513099997], [75.11583863579999, 18.079171513099997], [75.11583863579999, 18.079449291099998], [75.1152830798, 18.079449291099998], [75.1152830798, 18.079171513099997], [75.11444974579999, 18.079171513099997], [75.11444974579999, 18.079449291099998], [75.11389418979999, 18.079449291099998], [75.11389418979999, 18.079171513099997], [75.1136164118, 18.079171513099997], [75.1136164118, 18.0786159571], [75.11389418979999, 18.0786159571], [75.11389418979999, 18.078338179099998], [75.1150053018, 18.078338179099998], [75.1150053018, 18.0786159571], [75.1163941918, 18.0786159571], [75.1163941918, 18.079171513099997], [75.11694974779999, 18.079171513099997], [75.11694974779999, 18.0788937351], [75.1177830818, 18.0788937351], [75.1177830818, 18.078338179099998], [75.1180608598, 18.078338179099998], [75.1180608598, 18.078060401099997], [75.11722752579999, 18.078060401099997], [75.11722752579999, 18.077504845099998], [75.1177830818, 18.077504845099998], [75.1177830818, 18.077227067099997], [75.11861641579999, 18.077227067099997], [75.11861641579999, 18.077504845099998], [75.1194497498, 18.077504845099998], [75.1194497498, 18.0777826231], [75.1197275278, 18.0777826231], [75.1197275278, 18.078060401099997], [75.12028308379999, 18.078060401099997], [75.12028308379999, 18.076115955099997], [75.1205608618, 18.076115955099997], [75.1205608618, 18.078338179099998], [75.12028308379999, 18.078338179099998], [75.12028308379999, 18.0786159571], [75.11861641579999, 18.0786159571], [75.11861641579999, 18.079171513099997], [75.1180608598, 18.079171513099997], [75.1180608598, 18.079449291099998], [75.1177830818, 18.079449291099998], [75.1177830818, 18.0797270691], [75.1175053038, 18.0797270691], [75.1175053038, 18.079449291099998], [75.11694974779999, 18.079449291099998], [75.11694974779999, 18.0797270691], [75.1163941918, 18.0797270691]]]}}, {"type": "Feature", "properties": {"time_min": 10, "depth_min_m": 3.0, "depth_max_m": 6.0, "depth_class": "3.0\u20136.0 m", "class_area_km2": 0.1064951073358812, "flooded_area_km2": 0.8808408877950851, "frame_max_depth_m": 16.048773331423945, "class_mean_depth_m": 4.634876867738829, "scenario_id": "baseline", "model_type": "Automated approximate 2D flood-routing prototype", "validated_hydraulic_output": false}, "geometry": {"type": "Polygon", "coordinates": [[[75.12000530579999, 18.0758381771], [75.12000530579999, 18.0755603991], [75.1197275278, 18.0755603991], [75.1197275278, 18.0747270651], [75.12000530579999, 18.0747270651], [75.12000530579999, 18.075004843099997], [75.12028308379999, 18.075004843099997], [75.12028308379999, 18.0758381771], [75.12000530579999, 18.0758381771]]]}}, {"type": "Feature", "properties": {"time_min": 10, "depth_min_m": 3.0, "depth_max_m": 6.0, "depth_class": "3.0\u20136.0 m", "class_area_km2": 0.1064951073358812, "flooded_area_km2": 0.8808408877950851, "frame_max_depth_m": 16.048773331423945, "class_mean_depth_m": 4.634876867738829, "scenario_id": "baseline", "model_type": "Automated approximate 2D flood-routing prototype", "validated_hydraulic_output": false}, "geometry": {"type": "Polygon", "coordinates": [[[75.1194497498, 18.0747270651], [75.1194497498, 18.0744492871], [75.1197275278, 18.0744492871], [75.1197275278, 18.0747270651], [75.1194497498, 18.0747270651]]]}}, {"type": "Feature", "properties": {"time_min": 10, "depth_min_m": 3.0, "depth_max_m": 6.0, "depth_class": "3.0\u20136.0 m", "class_area_km2": 0.1064951073358812, "flooded_area_km2": 0.8808408877950851, "frame_max_depth_m": 16.048773331423945, "class_mean_depth_m": 4.634876867738829, "scenario_id": "baseline", "model_type": "Automated approximate 2D flood-routing prototype", "validated_hydraulic_output": false}, "geometry": {"type": "Polygon", "coordinates": [[[75.1191719718, 18.0744492871], [75.1191719718, 18.074171509099997], [75.11889419379999, 18.074171509099997], [75.11889419379999, 18.073338175099998], [75.1191719718, 18.073338175099998], [75.1191719718, 18.0736159531], [75.1194497498, 18.0736159531], [75.1194497498, 18.0744492871], [75.1191719718, 18.0744492871]]]}}, {"type": "Feature", "properties": {"time_min": 10, "depth_min_m": 3.0, "depth_max_m": 6.0, "depth_class": "3.0\u20136.0 m", "class_area_km2": 0.1064951073358812, "flooded_area_km2": 0.8808408877950851, "frame_max_depth_m": 16.048773331423945, "class_mean_depth_m": 4.634876867738829, "scenario_id": "baseline", "model_type": "Automated approximate 2D flood-routing prototype", "validated_hydraulic_output": false}, "geometry": {"type": "Polygon", "coordinates": [[[75.1194497498, 18.073338175099998], [75.1194497498, 18.073060397099997], [75.1197275278, 18.073060397099997], [75.1197275278, 18.073338175099998], [75.1194497498, 18.073338175099998]]]}}, {"type": "Feature", "properties": {"time_min": 10, "depth_min_m": 3.0, "depth_max_m": 6.0, "depth_class": "3.0\u20136.0 m", "class_area_km2": 0.1064951073358812, "flooded_area_km2": 0.8808408877950851, "frame_max_depth_m": 16.048773331423945, "class_mean_depth_m": 4.634876867738829, "scenario_id": "baseline", "model_type": "Automated approximate 2D flood-routing prototype", "validated_hydraulic_output": false}, "geometry": {"type": "Polygon", "coordinates": [[[75.1166719698, 18.072782619099996], [75.1166719698, 18.0725048411], [75.11694974779999, 18.0725048411], [75.11694974779999, 18.072782619099996], [75.1166719698, 18.072782619099996]]]}}, {"type": "Feature", "properties": {"time_min": 10, "depth_min_m": 3.0, "depth_max_m": 6.0, "depth_class": "3.0\u20136.0 m", "class_area_km2": 0.1064951073358812, "flooded_area_km2": 0.8808408877950851, "frame_max_depth_m": 16.048773331423945, "class_mean_depth_m": 4.634876867738829, "scenario_id": "baseline", "model_type": "Automated approximate 2D flood-routing prototype", "validated_hydraulic_output": false}, "geometry": {"type": "Polygon", "coordinates": [[[75.1150053018, 18.0725048411], [75.1150053018, 18.072227063099998], [75.11556085779999, 18.072227063099998], [75.11556085779999, 18.0725048411], [75.1150053018, 18.0725048411]]]}}, {"type": "Feature", "properties": {"time_min": 10, "depth_min_m": 3.0, "depth_max_m": 6.0, "depth_class": "3.0\u20136.0 m", "class_area_km2": 0.1064951073358812, "flooded_area_km2": 0.8808408877950851, "frame_max_depth_m": 16.048773331423945, "class_mean_depth_m": 4.634876867738829, "scenario_id": "baseline", "model_type": "Automated approximate 2D flood-routing prototype", "validated_hydraulic_output": false}, "geometry": {"type": "Polygon", "coordinates": [[[75.1177830818, 18.0725048411], [75.1177830818, 18.072227063099998], [75.1180608598, 18.072227063099998], [75.1180608598, 18.0725048411], [75.1177830818, 18.0725048411]]]}}, {"type": "Feature", "properties": {"time_min": 10, "depth_min_m": 3.0, "depth_max_m": 6.0, "depth_class": "3.0\u20136.0 m", "class_area_km2": 0.1064951073358812, "flooded_area_km2": 0.8808408877950851, "frame_max_depth_m": 16.048773331423945, "class_mean_depth_m": 4.634876867738829, "scenario_id": "baseline", "model_type": "Automated approximate 2D flood-routing prototype", "validated_hydraulic_output": false}, "geometry": {"type": "Polygon", "coordinates": [[[75.11889419379999, 18.0725048411], [75.11889419379999, 18.072227063099998], [75.1191719718, 18.072227063099998], [75.1191719718, 18.0725048411], [75.11889419379999, 18.0725048411]]]}}, {"type": "Feature", "properties": {"time_min": 10, "depth_min_m": 3.0, "depth_max_m": 6.0, "depth_class": "3.0\u20136.0 m", "class_area_km2": 0.1064951073358812, "flooded_area_km2": 0.8808408877950851, "frame_max_depth_m": 16.048773331423945, "class_mean_depth_m": 4.634876867738829, "scenario_id": "baseline", "model_type": "Automated approximate 2D flood-routing prototype", "validated_hydraulic_output": false}, "geometry": {"type": "Polygon", "coordinates": [[[75.11389418979999, 18.072227063099998], [75.11389418979999, 18.071949285099997], [75.11444974579999, 18.071949285099997], [75.11444974579999, 18.072227063099998], [75.11389418979999, 18.072227063099998]]]}}, {"type": "Feature", "properties": {"time_min": 10, "depth_min_m": 3.0, "depth_max_m": 6.0, "depth_class": "3.0\u20136.0 m", "class_area_km2": 0.1064951073358812, "flooded_area_km2": 0.8808408877950851, "frame_max_depth_m": 16.048773331423945, "class_mean_depth_m": 4.634876867738829, "scenario_id": "baseline", "model_type": "Automated approximate 2D flood-routing prototype", "validated_hydraulic_output": false}, "geometry": {"type": "Polygon", "coordinates": [[[75.1130608558, 18.071949285099997], [75.1130608558, 18.0716715071], [75.11389418979999, 18.0716715071], [75.11389418979999, 18.071949285099997], [75.1130608558, 18.071949285099997]]]}}, {"type": "Feature", "properties": {"time_min": 10, "depth_min_m": 3.0, "depth_max_m": 6.0, "depth_class": "3.0\u20136.0 m", "class_area_km2": 0.1064951073358812, "flooded_area_km2": 0.8808408877950851, "frame_max_depth_m": 16.048773331423945, "class_mean_depth_m": 4.634876867738829, "scenario_id": "baseline", "model_type": "Automated approximate 2D flood-routing prototype", "validated_hydraulic_output": false}, "geometry": {"type": "Polygon", "coordinates": [[[75.11250529979999, 18.0716715071], [75.11250529979999, 18.0713937291], [75.1130608558, 18.0713937291], [75.1130608558, 18.0716715071], [75.11250529979999, 18.0716715071]]]}}, {"type": "Feature", "properties": {"time_min": 10, "depth_min_m": 6.0, "depth_max_m": null, "depth_class": "6.0+ m", "class_area_km2": 0.6696556749425749, "flooded_area_km2": 0.8808408877950851, "frame_max_depth_m": 16.048773331423945, "class_mean_depth_m": 11.11099094100426, "scenario_id": "baseline", "model_type": "Automated approximate 2D flood-routing prototype", "validated_hydraulic_output": false}, "geometry": {"type": "Polygon", "coordinates": [[[75.1133386338, 18.079171513099997], [75.1133386338, 18.0788937351], [75.1130608558, 18.0788937351], [75.1130608558, 18.0786159571], [75.11278307779999, 18.0786159571], [75.11278307779999, 18.078338179099998], [75.11250529979999, 18.078338179099998], [75.11250529979999, 18.0777826231], [75.1122275218, 18.0777826231], [75.1122275218, 18.077504845099998], [75.1119497438, 18.077504845099998], [75.1119497438, 18.077227067099997], [75.1116719658, 18.077227067099997], [75.1116719658, 18.076949289099996], [75.11139418779999, 18.076949289099996], [75.11139418779999, 18.0766715111], [75.1108386318, 18.0766715111], [75.1108386318, 18.076115955099997], [75.1105608538, 18.076115955099997], [75.1105608538, 18.0755603991], [75.1102830758, 18.0755603991], [75.1102830758, 18.075282621099998], [75.1100052978, 18.075282621099998], [75.1100052978, 18.075004843099997], [75.10972751979999, 18.075004843099997], [75.10972751979999, 18.074171509099997], [75.10944974179999, 18.074171509099997], [75.10944974179999, 18.073893731099997], [75.1091719638, 18.073893731099997], [75.1091719638, 18.073338175099998], [75.1088941858, 18.073338175099998], [75.1088941858, 18.073060397099997], [75.1086164078, 18.073060397099997], [75.1086164078, 18.072782619099996], [75.1088941858, 18.072782619099996], [75.1088941858, 18.0725048411], [75.10972751979999, 18.0725048411], [75.10972751979999, 18.072227063099998], [75.1102830758, 18.072227063099998], [75.1102830758, 18.071949285099997], [75.11111640979999, 18.071949285099997], [75.11111640979999, 18.0716715071], [75.1130608558, 18.0716715071], [75.1130608558, 18.071949285099997], [75.11389418979999, 18.071949285099997], [75.11389418979999, 18.072227063099998], [75.1150053018, 18.072227063099998], [75.1150053018, 18.0725048411], [75.1166719698, 18.0725048411], [75.1166719698, 18.072782619099996], [75.11694974779999, 18.072782619099996], [75.11694974779999, 18.0725048411], [75.1180608598, 18.0725048411], [75.1180608598, 18.072227063099998], [75.11889419379999, 18.072227063099998], [75.11889419379999, 18.0725048411], [75.1191719718, 18.0725048411], [75.1191719718, 18.073338175099998], [75.11889419379999, 18.073338175099998], [75.11889419379999, 18.074171509099997], [75.1191719718, 18.074171509099997], [75.1191719718, 18.0744492871], [75.1194497498, 18.0744492871], [75.1194497498, 18.0747270651], [75.1197275278, 18.0747270651], [75.1197275278, 18.0755603991], [75.12000530579999, 18.0755603991], [75.12000530579999, 18.0758381771], [75.12028308379999, 18.0758381771], [75.12028308379999, 18.078060401099997], [75.1197275278, 18.078060401099997], [75.1197275278, 18.0777826231], [75.1194497498, 18.0777826231], [75.1194497498, 18.077504845099998], [75.11861641579999, 18.077504845099998], [75.11861641579999, 18.077227067099997], [75.1177830818, 18.077227067099997], [75.1177830818, 18.077504845099998], [75.11722752579999, 18.077504845099998], [75.11722752579999, 18.078060401099997], [75.1180608598, 18.078060401099997], [75.1180608598, 18.078338179099998], [75.1177830818, 18.078338179099998], [75.1177830818, 18.0788937351], [75.11694974779999, 18.0788937351], [75.11694974779999, 18.079171513099997], [75.1163941918, 18.079171513099997], [75.1163941918, 18.0786159571], [75.1150053018, 18.0786159571], [75.1150053018, 18.078338179099998], [75.11389418979999, 18.078338179099998], [75.11389418979999, 18.0786159571], [75.1136164118, 18.0786159571], [75.1136164118, 18.079171513099997], [75.1133386338, 18.079171513099997]]]}}]}