{"type": "FeatureCollection", "features": [{"type": "Feature", "properties": {"time_min": 15, "depth_min_m": 0.05, "depth_max_m": 1.0, "depth_class": "0.05\u20131.0 m", "class_area_km2": 0.05776005821607116, "flooded_area_km2": 1.5658390782013039, "frame_max_depth_m": 15.801188473542425, "class_mean_depth_m": 0.5751490639049734, "scenario_id": "baseline", "model_type": "Automated approximate 2D flood-routing prototype", "validated_hydraulic_output": false}, "geometry": {"type": "Polygon", "coordinates": [[[75.11250529979999, 18.0830604051], [75.11250529979999, 18.082504849099998], [75.11278307779999, 18.082504849099998], [75.11278307779999, 18.0827826271], [75.1130608558, 18.0827826271], [75.1130608558, 18.0830604051], [75.11250529979999, 18.0830604051]]]}}, {"type": "Feature", "properties": {"time_min": 15, "depth_min_m": 0.05, "depth_max_m": 1.0, "depth_class": "0.05\u20131.0 m", "class_area_km2": 0.05776005821607116, "flooded_area_km2": 1.5658390782013039, "frame_max_depth_m": 15.801188473542425, "class_mean_depth_m": 0.5751490639049734, "scenario_id": "baseline", "model_type": "Automated approximate 2D flood-routing prototype", "validated_hydraulic_output": false}, "geometry": {"type": "Polygon", "coordinates": [[[75.11278307779999, 18.082504849099998], [75.11278307779999, 18.082227071099997], [75.1130608558, 18.082227071099997], [75.1130608558, 18.082504849099998], [75.11278307779999, 18.082504849099998]]]}}, {"type": "Feature", "properties": {"time_min": 15, "depth_min_m": 0.05, "depth_max_m": 1.0, "depth_class": "0.05\u20131.0 m", "class_area_km2": 0.05776005821607116, "flooded_area_km2": 1.5658390782013039, "frame_max_depth_m": 15.801188473542425, "class_mean_depth_m": 0.5751490639049734, "scenario_id": "baseline", "model_type": "Automated approximate 2D flood-routing prototype", "validated_hydraulic_output": false}, "geometry": {"type": "Polygon", "coordinates": [[[75.1130608558, 18.082227071099997], [75.1130608558, 18.0819492931], [75.1133386338, 18.0819492931], [75.1133386338, 18.082227071099997], [75.1130608558, 18.082227071099997]]]}}, {"type": "Feature", "properties": {"time_min": 15, "depth_min_m": 0.05, "depth_max_m": 1.0, "depth_class": "0.05\u20131.0 m", "class_area_km2": 0.05776005821607116, "flooded_area_km2": 1.5658390782013039, "frame_max_depth_m": 15.801188473542425, "class_mean_depth_m": 0.5751490639049734, "scenario_id": "baseline", "model_type": "Automated approximate 2D flood-routing prototype", "validated_hydraulic_output": false}, "geometry": {"type": "Polygon", "coordinates": [[[75.1133386338, 18.0819492931], [75.1133386338, 18.0816715151], [75.1136164118, 18.0816715151], [75.1136164118, 18.0819492931], [75.1133386338, 18.0819492931]]]}}, {"type": "Feature", "properties": {"time_min": 15, "depth_min_m": 0.05, "depth_max_m": 1.0, "depth_class": "0.05\u20131.0 m", "class_area_km2": 0.05776005821607116, "flooded_area_km2": 1.5658390782013039, "frame_max_depth_m": 15.801188473542425, "class_mean_depth_m": 0.5751490639049734, "scenario_id": "baseline", "model_type": "Automated approximate 2D flood-routing prototype", "validated_hydraulic_output": false}, "geometry": {"type": "Polygon", "coordinates": [[[75.1136164118, 18.0816715151], [75.1136164118, 18.081393737099997], [75.11389418979999, 18.081393737099997], [75.11389418979999, 18.0816715151], [75.1136164118, 18.0816715151]]]}}, {"type": "Feature", "properties": {"time_min": 15, "depth_min_m": 0.05, "depth_max_m": 1.0, "depth_class": "0.05\u20131.0 m", "class_area_km2": 0.05776005821607116, "flooded_area_km2": 1.5658390782013039, "frame_max_depth_m": 15.801188473542425, "class_mean_depth_m": 0.5751490639049734, "scenario_id": "baseline", "model_type": "Automated approximate 2D flood-routing prototype", "validated_hydraulic_output": false}, "geometry": {"type": "Polygon", "coordinates": [[[75.11389418979999, 18.081393737099997], [75.11389418979999, 18.081115959099996], [75.11417196779999, 18.081115959099996], [75.11417196779999, 18.081393737099997], [75.11389418979999, 18.081393737099997]]]}}, {"type": "Feature", "properties": {"time_min": 15, "depth_min_m": 0.05, "depth_max_m": 1.0, "depth_class": "0.05\u20131.0 m", "class_area_km2": 0.05776005821607116, "flooded_area_km2": 1.5658390782013039, "frame_max_depth_m": 15.801188473542425, "class_mean_depth_m": 0.5751490639049734, "scenario_id": "baseline", "model_type": "Automated approximate 2D flood-routing prototype", "validated_hydraulic_output": false}, "geometry": {"type": "Polygon", "coordinates": [[[75.11444974579999, 18.081115959099996], [75.11444974579999, 18.0808381811], [75.1147275238, 18.0808381811], [75.1147275238, 18.081115959099996], [75.11444974579999, 18.081115959099996]]]}}, {"type": "Feature", "properties": {"time_min": 15, "depth_min_m": 0.05, "depth_max_m": 1.0, "depth_class": "0.05\u20131.0 m", "class_area_km2": 0.05776005821607116, "flooded_area_km2": 1.5658390782013039, "frame_max_depth_m": 15.801188473542425, "class_mean_depth_m": 0.5751490639049734, "scenario_id": "baseline", "model_type": "Automated approximate 2D flood-routing prototype", "validated_hydraulic_output": false}, "geometry": {"type": "Polygon", "coordinates": [[[75.1147275238, 18.0808381811], [75.1147275238, 18.080560403099998], [75.1150053018, 18.080560403099998], [75.1150053018, 18.0808381811], [75.1147275238, 18.0808381811]]]}}, {"type": "Feature", "properties": {"time_min": 15, "depth_min_m": 0.05, "depth_max_m": 1.0, "depth_class": "0.05\u20131.0 m", "class_area_km2": 0.05776005821607116, "flooded_area_km2": 1.5658390782013039, "frame_max_depth_m": 15.801188473542425, "class_mean_depth_m": 0.5751490639049734, "scenario_id": "baseline", "model_type": "Automated approximate 2D flood-routing prototype", "validated_hydraulic_output": false}, "geometry": {"type": "Polygon", "coordinates": [[[75.11556085779999, 18.0808381811], [75.11556085779999, 18.080560403099998], [75.11583863579999, 18.080560403099998], [75.11583863579999, 18.0808381811], [75.11556085779999, 18.0808381811]]]}}, {"type": "Feature", "properties": {"time_min": 15, "depth_min_m": 0.05, "depth_max_m": 1.0, "depth_class": "0.05\u20131.0 m", "class_area_km2": 0.05776005821607116, "flooded_area_km2": 1.5658390782013039, "frame_max_depth_m": 15.801188473542425, "class_mean_depth_m": 0.5751490639049734, "scenario_id": "baseline", "model_type": "Automated approximate 2D flood-routing prototype", "validated_hydraulic_output": false}, "geometry": {"type": "Polygon", "coordinates": [[[75.1150053018, 18.080560403099998], [75.1150053018, 18.080282625099997], [75.11556085779999, 18.080282625099997], [75.11556085779999, 18.080560403099998], [75.1150053018, 18.080560403099998]]]}}, {"type": "Feature", "properties": {"time_min": 15, "depth_min_m": 0.05, "depth_max_m": 1.0, "depth_class": "0.05\u20131.0 m", "class_area_km2": 0.05776005821607116, "flooded_area_km2": 1.5658390782013039, "frame_max_depth_m": 15.801188473542425, "class_mean_depth_m": 0.5751490639049734, "scenario_id": "baseline", "model_type": "Automated approximate 2D flood-routing prototype", "validated_hydraulic_output": false}, "geometry": {"type": "Polygon", "coordinates": [[[75.11583863579999, 18.080560403099998], [75.11583863579999, 18.0800048471], [75.1163941918, 18.0800048471], [75.1163941918, 18.080282625099997], [75.11694974779999, 18.080282625099997], [75.11694974779999, 18.080560403099998], [75.11583863579999, 18.080560403099998]]]}}, {"type": "Feature", "properties": {"time_min": 15, "depth_min_m": 0.05, "depth_max_m": 1.0, "depth_class": "0.05\u20131.0 m", "class_area_km2": 0.05776005821607116, "flooded_area_km2": 1.5658390782013039, "frame_max_depth_m": 15.801188473542425, "class_mean_depth_m": 0.5751490639049734, "scenario_id": "baseline", "model_type": "Automated approximate 2D flood-routing prototype", "validated_hydraulic_output": false}, "geometry": {"type": "Polygon", "coordinates": [[[75.11694974779999, 18.080282625099997], [75.11694974779999, 18.0800048471], [75.1175053038, 18.0800048471], [75.1175053038, 18.080282625099997], [75.11694974779999, 18.080282625099997]]]}}, {"type": "Feature", "properties": {"time_min": 15, "depth_min_m": 0.05, "depth_max_m": 1.0, "depth_class": "0.05\u20131.0 m", "class_area_km2": 0.05776005821607116, "flooded_area_km2": 1.5658390782013039, "frame_max_depth_m": 15.801188473542425, "class_mean_depth_m": 0.5751490639049734, "scenario_id": "baseline", "model_type": "Automated approximate 2D flood-routing prototype", "validated_hydraulic_output": false}, "geometry": {"type": "Polygon", "coordinates": [[[75.1191719718, 18.080282625099997], [75.1191719718, 18.0800048471], [75.1183386378, 18.0800048471], [75.1183386378, 18.0797270691], [75.1191719718, 18.0797270691], [75.1191719718, 18.079171513099997], [75.1194497498, 18.079171513099997], [75.1194497498, 18.0797270691], [75.1197275278, 18.0797270691], [75.1197275278, 18.080282625099997], [75.1191719718, 18.080282625099997]]]}}, {"type": "Feature", "properties": {"time_min": 15, "depth_min_m": 0.05, "depth_max_m": 1.0, "depth_class": "0.05\u20131.0 m", "class_area_km2": 0.05776005821607116, "flooded_area_km2": 1.5658390782013039, "frame_max_depth_m": 15.801188473542425, "class_mean_depth_m": 0.5751490639049734, "scenario_id": "baseline", "model_type": "Automated approximate 2D flood-routing prototype", "validated_hydraulic_output": false}, "geometry": {"type": "Polygon", "coordinates": [[[75.11889419379999, 18.079171513099997], [75.11889419379999, 18.0788937351], [75.1191719718, 18.0788937351], [75.1191719718, 18.079171513099997], [75.11889419379999, 18.079171513099997]]]}}, {"type": "Feature", "properties": {"time_min": 15, "depth_min_m": 0.05, "depth_max_m": 1.0, "depth_class": "0.05\u20131.0 m", "class_area_km2": 0.05776005821607116, "flooded_area_km2": 1.5658390782013039, "frame_max_depth_m": 15.801188473542425, "class_mean_depth_m": 0.5751490639049734, "scenario_id": "baseline", "model_type": "Automated approximate 2D flood-routing prototype", "validated_hydraulic_output": false}, "geometry": {"type": "Polygon", "coordinates": [[[75.1191719718, 18.0788937351], [75.1191719718, 18.0786159571], [75.1194497498, 18.0786159571], [75.1194497498, 18.0788937351], [75.1191719718, 18.0788937351]]]}}, {"type": "Feature", "properties": {"time_min": 15, "depth_min_m": 0.05, "depth_max_m": 1.0, "depth_class": "0.05\u20131.0 m", "class_area_km2": 0.05776005821607116, "flooded_area_km2": 1.5658390782013039, "frame_max_depth_m": 15.801188473542425, "class_mean_depth_m": 0.5751490639049734, "scenario_id": "baseline", "model_type": "Automated approximate 2D flood-routing prototype", "validated_hydraulic_output": false}, "geometry": {"type": "Polygon", "coordinates": [[[75.1197275278, 18.0788937351], [75.1197275278, 18.0786159571], [75.12000530579999, 18.0786159571], [75.12000530579999, 18.0788937351], [75.1197275278, 18.0788937351]]]}}, {"type": "Feature", "properties": {"time_min": 15, "depth_min_m": 0.05, "depth_max_m": 1.0, "depth_class": "0.05\u20131.0 m", "class_area_km2": 0.05776005821607116, "flooded_area_km2": 1.5658390782013039, "frame_max_depth_m": 15.801188473542425, "class_mean_depth_m": 0.5751490639049734, "scenario_id": "baseline", "model_type": "Automated approximate 2D flood-routing prototype", "validated_hydraulic_output": false}, "geometry": {"type": "Polygon", "coordinates": [[[75.12028308379999, 18.0788937351], [75.12028308379999, 18.0786159571], [75.1205608618, 18.0786159571], [75.1205608618, 18.0788937351], [75.12028308379999, 18.0788937351]]]}}, {"type": "Feature", "properties": {"time_min": 15, "depth_min_m": 0.05, "depth_max_m": 1.0, "depth_class": "0.05\u20131.0 m", "class_area_km2": 0.05776005821607116, "flooded_area_km2": 1.5658390782013039, "frame_max_depth_m": 15.801188473542425, "class_mean_depth_m": 0.5751490639049734, "scenario_id": "baseline", "model_type": "Automated approximate 2D flood-routing prototype", "validated_hydraulic_output": false}, "geometry": {"type": "Polygon", "coordinates": [[[75.1205608618, 18.078060401099997], [75.1205608618, 18.0777826231], [75.1208386398, 18.0777826231], [75.1208386398, 18.078060401099997], [75.1205608618, 18.078060401099997]]]}}, {"type": "Feature", "properties": {"time_min": 15, "depth_min_m": 0.05, "depth_max_m": 1.0, "depth_class": "0.05\u20131.0 m", "class_area_km2": 0.05776005821607116, "flooded_area_km2": 1.5658390782013039, "frame_max_depth_m": 15.801188473542425, "class_mean_depth_m": 0.5751490639049734, "scenario_id": "baseline", "model_type": "Automated approximate 2D flood-routing prototype", "validated_hydraulic_output": false}, "geometry": {"type": "Polygon", "coordinates": [[[75.1205608618, 18.076949289099996], [75.1205608618, 18.0766715111], [75.1208386398, 18.0766715111], [75.1208386398, 18.076949289099996], [75.1205608618, 18.076949289099996]]]}}, {"type": "Feature", "properties": {"time_min": 15, "depth_min_m": 0.05, "depth_max_m": 1.0, "depth_class": "0.05\u20131.0 m", "class_area_km2": 0.05776005821607116, "flooded_area_km2": 1.5658390782013039, "frame_max_depth_m": 15.801188473542425, "class_mean_depth_m": 0.5751490639049734, "scenario_id": "baseline", "model_type": "Automated approximate 2D flood-routing prototype", "validated_hydraulic_output": false}, "geometry": {"type": "Polygon", "coordinates": [[[75.1225053078, 18.076949289099996], [75.1225053078, 18.0766715111], [75.1227830858, 18.0766715111], [75.1227830858, 18.076949289099996], [75.1225053078, 18.076949289099996]]]}}, {"type": "Feature", "properties": {"time_min": 15, "depth_min_m": 0.05, "depth_max_m": 1.0, "depth_class": "0.05\u20131.0 m", "class_area_km2": 0.05776005821607116, "flooded_area_km2": 1.5658390782013039, "frame_max_depth_m": 15.801188473542425, "class_mean_depth_m": 0.5751490639049734, "scenario_id": "baseline", "model_type": "Automated approximate 2D flood-routing prototype", "validated_hydraulic_output": false}, "geometry": {"type": "Polygon", "coordinates": [[[75.1302830918, 18.076393733099998], [75.1302830918, 18.076115955099997], [75.1305608698, 18.076115955099997], [75.1305608698, 18.076393733099998], [75.1302830918, 18.076393733099998]]]}}, {"type": "Feature", "properties": {"time_min": 15, "depth_min_m": 0.05, "depth_max_m": 1.0, "depth_class": "0.05\u20131.0 m", "class_area_km2": 0.05776005821607116, "flooded_area_km2": 1.5658390782013039, "frame_max_depth_m": 15.801188473542425, "class_mean_depth_m": 0.5751490639049734, "scenario_id": "baseline", "model_type": "Automated approximate 2D flood-routing prototype", "validated_hydraulic_output": false}, "geometry": {"type": "Polygon", "coordinates": [[[75.1297275358, 18.076115955099997], [75.1297275358, 18.0758381771], [75.1300053138, 18.0758381771], [75.1300053138, 18.076115955099997], [75.1297275358, 18.076115955099997]]]}}, {"type": "Feature", "properties": {"time_min": 15, "depth_min_m": 0.05, "depth_max_m": 1.0, "depth_class": "0.05\u20131.0 m", "class_area_km2": 0.05776005821607116, "flooded_area_km2": 1.5658390782013039, "frame_max_depth_m": 15.801188473542425, "class_mean_depth_m": 0.5751490639049734, "scenario_id": "baseline", "model_type": "Automated approximate 2D flood-routing prototype", "validated_hydraulic_output": false}, "geometry": {"type": "Polygon", "coordinates": [[[75.1305608698, 18.076115955099997], [75.1305608698, 18.0758381771], [75.13111642579999, 18.0758381771], [75.13111642579999, 18.076115955099997], [75.1305608698, 18.076115955099997]]]}}, {"type": "Feature", "properties": {"time_min": 15, "depth_min_m": 0.05, "depth_max_m": 1.0, "depth_class": "0.05\u20131.0 m", "class_area_km2": 0.05776005821607116, "flooded_area_km2": 1.5658390782013039, "frame_max_depth_m": 15.801188473542425, "class_mean_depth_m": 0.5751490639049734, "scenario_id": "baseline", "model_type": "Automated approximate 2D flood-routing prototype", "validated_hydraulic_output": false}, "geometry": {"type": "Polygon", "coordinates": [[[75.1302830918, 18.0755603991], [75.1302830918, 18.075282621099998], [75.13083864779999, 18.075282621099998], [75.13083864779999, 18.0755603991], [75.1302830918, 18.0755603991]]]}}, {"type": "Feature", "properties": {"time_min": 15, "depth_min_m": 0.05, "depth_max_m": 1.0, "depth_class": "0.05\u20131.0 m", "class_area_km2": 0.05776005821607116, "flooded_area_km2": 1.5658390782013039, "frame_max_depth_m": 15.801188473542425, "class_mean_depth_m": 0.5751490639049734, "scenario_id": "baseline", "model_type": "Automated approximate 2D flood-routing prototype", "validated_hydraulic_output": false}, "geometry": {"type": "Polygon", "coordinates": [[[75.1288942018, 18.075282621099998], [75.1288942018, 18.075004843099997], [75.12917197979999, 18.075004843099997], [75.12917197979999, 18.075282621099998], [75.1288942018, 18.075282621099998]]]}}, {"type": "Feature", "properties": {"time_min": 15, "depth_min_m": 0.05, "depth_max_m": 1.0, "depth_class": "0.05\u20131.0 m", "class_area_km2": 0.05776005821607116, "flooded_area_km2": 1.5658390782013039, "frame_max_depth_m": 15.801188473542425, "class_mean_depth_m": 0.5751490639049734, "scenario_id": "baseline", "model_type": "Automated approximate 2D flood-routing prototype", "validated_hydraulic_output": false}, "geometry": {"type": "Polygon", "coordinates": [[[75.1300053138, 18.075282621099998], [75.1300053138, 18.075004843099997], [75.1302830918, 18.075004843099997], [75.1302830918, 18.075282621099998], [75.1300053138, 18.075282621099998]]]}}, {"type": "Feature", "properties": {"time_min": 15, "depth_min_m": 0.05, "depth_max_m": 1.0, "depth_class": "0.05\u20131.0 m", "class_area_km2": 0.05776005821607116, "flooded_area_km2": 1.5658390782013039, "frame_max_depth_m": 15.801188473542425, "class_mean_depth_m": 0.5751490639049734, "scenario_id": "baseline", "model_type": "Automated approximate 2D flood-routing prototype", "validated_hydraulic_output": false}, "geometry": {"type": "Polygon", "coordinates": [[[75.1283386458, 18.075004843099997], [75.1283386458, 18.0747270651], [75.1288942018, 18.0747270651], [75.1288942018, 18.075004843099997], [75.1283386458, 18.075004843099997]]]}}, {"type": "Feature", "properties": {"time_min": 15, "depth_min_m": 0.05, "depth_max_m": 1.0, "depth_class": "0.05\u20131.0 m", "class_area_km2": 0.05776005821607116, "flooded_area_km2": 1.5658390782013039, "frame_max_depth_m": 15.801188473542425, "class_mean_depth_m": 0.5751490639049734, "scenario_id": "baseline", "model_type": "Automated approximate 2D flood-routing prototype", "validated_hydraulic_output": false}, "geometry": {"type": "Polygon", "coordinates": [[[75.12000530579999, 18.0747270651], [75.12000530579999, 18.0744492871], [75.12028308379999, 18.0744492871], [75.12028308379999, 18.0747270651], [75.12000530579999, 18.0747270651]]]}}, {"type": "Feature", "properties": {"time_min": 15, "depth_min_m": 0.05, "depth_max_m": 1.0, "depth_class": "0.05\u20131.0 m", "class_area_km2": 0.05776005821607116, "flooded_area_km2": 1.5658390782013039, "frame_max_depth_m": 15.801188473542425, "class_mean_depth_m": 0.5751490639049734, "scenario_id": "baseline", "model_type": "Automated approximate 2D flood-routing prototype", "validated_hydraulic_output": false}, "geometry": {"type": "Polygon", "coordinates": [[[75.12639419979999, 18.0747270651], [75.12639419979999, 18.0744492871], [75.1266719778, 18.0744492871], [75.1266719778, 18.0747270651], [75.12639419979999, 18.0747270651]]]}}, {"type": "Feature", "properties": {"time_min": 15, "depth_min_m": 0.05, "depth_max_m": 1.0, "depth_class": "0.05\u20131.0 m", "class_area_km2": 0.05776005821607116, "flooded_area_km2": 1.5658390782013039, "frame_max_depth_m": 15.801188473542425, "class_mean_depth_m": 0.5751490639049734, "scenario_id": "baseline", "model_type": "Automated approximate 2D flood-routing prototype", "validated_hydraulic_output": false}, "geometry": {"type": "Polygon", "coordinates": [[[75.1205608618, 18.074171509099997], [75.1205608618, 18.073893731099997], [75.1208386398, 18.073893731099997], [75.1208386398, 18.074171509099997], [75.1205608618, 18.074171509099997]]]}}, {"type": "Feature", "properties": {"time_min": 15, "depth_min_m": 0.05, "depth_max_m": 1.0, "depth_class": "0.05\u20131.0 m", "class_area_km2": 0.05776005821607116, "flooded_area_km2": 1.5658390782013039, "frame_max_depth_m": 15.801188473542425, "class_mean_depth_m": 0.5751490639049734, "scenario_id": "baseline", "model_type": "Automated approximate 2D flood-routing prototype", "validated_hydraulic_output": false}, "geometry": {"type": "Polygon", "coordinates": [[[75.1272275338, 18.074171509099997], [75.1272275338, 18.073893731099997], [75.1275053118, 18.073893731099997], [75.1275053118, 18.074171509099997], [75.1272275338, 18.074171509099997]]]}}, {"type": "Feature", "properties": {"time_min": 15, "depth_min_m": 0.05, "depth_max_m": 1.0, "depth_class": "0.05\u20131.0 m", "class_area_km2": 0.05776005821607116, "flooded_area_km2": 1.5658390782013039, "frame_max_depth_m": 15.801188473542425, "class_mean_depth_m": 0.5751490639049734, "scenario_id": "baseline", "model_type": "Automated approximate 2D flood-routing prototype", "validated_hydraulic_output": false}, "geometry": {"type": "Polygon", "coordinates": [[[75.1197275278, 18.0744492871], [75.1197275278, 18.073893731099997], [75.12000530579999, 18.073893731099997], [75.12000530579999, 18.0736159531], [75.12028308379999, 18.0736159531], [75.12028308379999, 18.074171509099997], [75.12000530579999, 18.074171509099997], [75.12000530579999, 18.0744492871], [75.1197275278, 18.0744492871]]]}}, {"type": "Feature", "properties": {"time_min": 15, "depth_min_m": 0.05, "depth_max_m": 1.0, "depth_class": "0.05\u20131.0 m", "class_area_km2": 0.05776005821607116, "flooded_area_km2": 1.5658390782013039, "frame_max_depth_m": 15.801188473542425, "class_mean_depth_m": 0.5751490639049734, "scenario_id": "baseline", "model_type": "Automated approximate 2D flood-routing prototype", "validated_hydraulic_output": false}, "geometry": {"type": "Polygon", "coordinates": [[[75.1194497498, 18.073060397099997], [75.1194497498, 18.072782619099996], [75.1197275278, 18.072782619099996], [75.1197275278, 18.073060397099997], [75.1194497498, 18.073060397099997]]]}}, {"type": "Feature", "properties": {"time_min": 15, "depth_min_m": 0.05, "depth_max_m": 1.0, "depth_class": "0.05\u20131.0 m", "class_area_km2": 0.05776005821607116, "flooded_area_km2": 1.5658390782013039, "frame_max_depth_m": 15.801188473542425, "class_mean_depth_m": 0.5751490639049734, "scenario_id": "baseline", "model_type": "Automated approximate 2D flood-routing prototype", "validated_hydraulic_output": false}, "geometry": {"type": "Polygon", "coordinates": [[[75.1191719718, 18.072782619099996], [75.1191719718, 18.0725048411], [75.1194497498, 18.0725048411], [75.1194497498, 18.072782619099996], [75.1191719718, 18.072782619099996]]]}}, {"type": "Feature", "properties": {"time_min": 15, "depth_min_m": 0.05, "depth_max_m": 1.0, "depth_class": "0.05\u20131.0 m", "class_area_km2": 0.05776005821607116, "flooded_area_km2": 1.5658390782013039, "frame_max_depth_m": 15.801188473542425, "class_mean_depth_m": 0.5751490639049734, "scenario_id": "baseline", "model_type": "Automated approximate 2D flood-routing prototype", "validated_hydraulic_output": false}, "geometry": {"type": "Polygon", "coordinates": [[[75.11583863579999, 18.0725048411], [75.11583863579999, 18.072227063099998], [75.1161164138, 18.072227063099998], [75.1161164138, 18.0725048411], [75.11583863579999, 18.0725048411]]]}}, {"type": "Feature", "properties": {"time_min": 15, "depth_min_m": 0.05, "depth_max_m": 1.0, "depth_class": "0.05\u20131.0 m", "class_area_km2": 0.05776005821607116, "flooded_area_km2": 1.5658390782013039, "frame_max_depth_m": 15.801188473542425, "class_mean_depth_m": 0.5751490639049734, "scenario_id": "baseline", "model_type": "Automated approximate 2D flood-routing prototype", "validated_hydraulic_output": false}, "geometry": {"type": "Polygon", "coordinates": [[[75.1122275218, 18.0713937291], [75.1122275218, 18.071115951099998], [75.1130608558, 18.071115951099998], [75.1130608558, 18.0713937291], [75.1122275218, 18.0713937291]]]}}, {"type": "Feature", "properties": {"time_min": 15, "depth_min_m": 0.05, "depth_max_m": 1.0, "depth_class": "0.05\u20131.0 m", "class_area_km2": 0.05776005821607116, "flooded_area_km2": 1.5658390782013039, "frame_max_depth_m": 15.801188473542425, "class_mean_depth_m": 0.5751490639049734, "scenario_id": "baseline", "model_type": "Automated approximate 2D flood-routing prototype", "validated_hydraulic_output": false}, "geometry": {"type": "Polygon", "coordinates": [[[75.1108386318, 18.070838173099997], [75.1108386318, 18.0705603951], [75.11111640979999, 18.0705603951], [75.11111640979999, 18.070838173099997], [75.1108386318, 18.070838173099997]]]}}, {"type": "Feature", "properties": {"time_min": 15, "depth_min_m": 0.05, "depth_max_m": 1.0, "depth_class": "0.05\u20131.0 m", "class_area_km2": 0.05776005821607116, "flooded_area_km2": 1.5658390782013039, "frame_max_depth_m": 15.801188473542425, "class_mean_depth_m": 0.5751490639049734, "scenario_id": "baseline", "model_type": "Automated approximate 2D flood-routing prototype", "validated_hydraulic_output": false}, "geometry": {"type": "Polygon", "coordinates": [[[75.1102830758, 18.0705603951], [75.1102830758, 18.0702826171], [75.1105608538, 18.0702826171], [75.1105608538, 18.0705603951], [75.1102830758, 18.0705603951]]]}}, {"type": "Feature", "properties": {"time_min": 15, "depth_min_m": 0.05, "depth_max_m": 1.0, "depth_class": "0.05\u20131.0 m", "class_area_km2": 0.05776005821607116, "flooded_area_km2": 1.5658390782013039, "frame_max_depth_m": 15.801188473542425, "class_mean_depth_m": 0.5751490639049734, "scenario_id": "baseline", "model_type": "Automated approximate 2D flood-routing prototype", "validated_hydraulic_output": false}, "geometry": {"type": "Polygon", "coordinates": [[[75.10972751979999, 18.0702826171], [75.10972751979999, 18.070004839099997], [75.1100052978, 18.070004839099997], [75.1100052978, 18.0702826171], [75.10972751979999, 18.0702826171]]]}}, {"type": "Feature", "properties": {"time_min": 15, "depth_min_m": 1.0, "depth_max_m": 3.0, "depth_class": "1.0\u20133.0 m", "class_area_km2": 0.1579376591845696, "flooded_area_km2": 1.5658390782013039, "frame_max_depth_m": 15.801188473542425, "class_mean_depth_m": 2.0689547612098353, "scenario_id": "baseline", "model_type": "Automated approximate 2D flood-routing prototype", "validated_hydraulic_output": false}, "geometry": {"type": "Polygon", "coordinates": [[[75.1105608538, 18.081115959099996], [75.1105608538, 18.0808381811], [75.1102830758, 18.0808381811], [75.1102830758, 18.080560403099998], [75.1108386318, 18.080560403099998], [75.1108386318, 18.081115959099996], [75.1105608538, 18.081115959099996]]]}}, {"type": "Feature", "properties": {"time_min": 15, "depth_min_m": 1.0, "depth_max_m": 3.0, "depth_class": "1.0\u20133.0 m", "class_area_km2": 0.1579376591845696, "flooded_area_km2": 1.5658390782013039, "frame_max_depth_m": 15.801188473542425, "class_mean_depth_m": 2.0689547612098353, "scenario_id": "baseline", "model_type": "Automated approximate 2D flood-routing prototype", "validated_hydraulic_output": false}, "geometry": {"type": "Polygon", "coordinates": [[[75.1119497438, 18.0830604051], [75.1119497438, 18.082504849099998], [75.1122275218, 18.082504849099998], [75.1122275218, 18.0819492931], [75.1119497438, 18.0819492931], [75.1119497438, 18.0816715151], [75.1122275218, 18.0816715151], [75.1122275218, 18.081393737099997], [75.1130608558, 18.081393737099997], [75.1130608558, 18.081115959099996], [75.1133386338, 18.081115959099996], [75.1133386338, 18.0808381811], [75.1136164118, 18.0808381811], [75.1136164118, 18.080560403099998], [75.11389418979999, 18.080560403099998], [75.11389418979999, 18.080282625099997], [75.11417196779999, 18.080282625099997], [75.11417196779999, 18.079449291099998], [75.11444974579999, 18.079449291099998], [75.11444974579999, 18.0788937351], [75.1152830798, 18.0788937351], [75.1152830798, 18.079171513099997], [75.1163941918, 18.079171513099997], [75.1163941918, 18.079449291099998], [75.1177830818, 18.079449291099998], [75.1177830818, 18.079171513099997], [75.1183386378, 18.079171513099997], [75.1183386378, 18.0788937351], [75.11861641579999, 18.0788937351], [75.11861641579999, 18.0786159571], [75.1191719718, 18.0786159571], [75.1191719718, 18.0788937351], [75.11889419379999, 18.0788937351], [75.11889419379999, 18.079171513099997], [75.1191719718, 18.079171513099997], [75.1191719718, 18.0797270691], [75.1183386378, 18.0797270691], [75.1183386378, 18.0800048471], [75.11694974779999, 18.0800048471], [75.11694974779999, 18.080282625099997], [75.1163941918, 18.080282625099997], [75.1163941918, 18.0800048471], [75.11583863579999, 18.0800048471], [75.11583863579999, 18.080560403099998], [75.11556085779999, 18.080560403099998], [75.11556085779999, 18.080282625099997], [75.1150053018, 18.080282625099997], [75.1150053018, 18.080560403099998], [75.1147275238, 18.080560403099998], [75.1147275238, 18.0808381811], [75.11444974579999, 18.0808381811], [75.11444974579999, 18.081115959099996], [75.11389418979999, 18.081115959099996], [75.11389418979999, 18.081393737099997], [75.1136164118, 18.081393737099997], [75.1136164118, 18.0816715151], [75.1133386338, 18.0816715151], [75.1133386338, 18.0819492931], [75.1130608558, 18.0819492931], [75.1130608558, 18.082227071099997], [75.11278307779999, 18.082227071099997], [75.11278307779999, 18.082504849099998], [75.11250529979999, 18.082504849099998], [75.11250529979999, 18.0830604051], [75.1119497438, 18.0830604051]]]}}, {"type": "Feature", "properties": {"time_min": 15, "depth_min_m": 1.0, "depth_max_m": 3.0, "depth_class": "1.0\u20133.0 m", "class_area_km2": 0.1579376591845696, "flooded_area_km2": 1.5658390782013039, "frame_max_depth_m": 15.801188473542425, "class_mean_depth_m": 2.0689547612098353, "scenario_id": "baseline", "model_type": "Automated approximate 2D flood-routing prototype", "validated_hydraulic_output": false}, "geometry": {"type": "Polygon", "coordinates": [[[75.12000530579999, 18.0788937351], [75.12000530579999, 18.0786159571], [75.12028308379999, 18.0786159571], [75.12028308379999, 18.0788937351], [75.12000530579999, 18.0788937351]]]}}, {"type": "Feature", "properties": {"time_min": 15, "depth_min_m": 1.0, "depth_max_m": 3.0, "depth_class": "1.0\u20133.0 m", "class_area_km2": 0.1579376591845696, "flooded_area_km2": 1.5658390782013039, "frame_max_depth_m": 15.801188473542425, "class_mean_depth_m": 2.0689547612098353, "scenario_id": "baseline", "model_type": "Automated approximate 2D flood-routing prototype", "validated_hydraulic_output": false}, "geometry": {"type": "Polygon", "coordinates": [[[75.1191719718, 18.0786159571], [75.1191719718, 18.078338179099998], [75.1197275278, 18.078338179099998], [75.1197275278, 18.0786159571], [75.1191719718, 18.0786159571]]]}}, {"type": "Feature", "properties": {"time_min": 15, "depth_min_m": 1.0, "depth_max_m": 3.0, "depth_class": "1.0\u20133.0 m", "class_area_km2": 0.1579376591845696, "flooded_area_km2": 1.5658390782013039, "frame_max_depth_m": 15.801188473542425, "class_mean_depth_m": 2.0689547612098353, "scenario_id": "baseline", "model_type": "Automated approximate 2D flood-routing prototype", "validated_hydraulic_output": false}, "geometry": {"type": "Polygon", "coordinates": [[[75.12028308379999, 18.0786159571], [75.12028308379999, 18.078060401099997], [75.1205608618, 18.078060401099997], [75.1205608618, 18.0786159571], [75.12028308379999, 18.0786159571]]]}}, {"type": "Feature", "properties": {"time_min": 15, "depth_min_m": 1.0, "depth_max_m": 3.0, "depth_class": "1.0\u20133.0 m", "class_area_km2": 0.1579376591845696, "flooded_area_km2": 1.5658390782013039, "frame_max_depth_m": 15.801188473542425, "class_mean_depth_m": 2.0689547612098353, "scenario_id": "baseline", "model_type": "Automated approximate 2D flood-routing prototype", "validated_hydraulic_output": false}, "geometry": {"type": "Polygon", "coordinates": [[[75.10972751979999, 18.0800048471], [75.10972751979999, 18.079171513099997], [75.10944974179999, 18.079171513099997], [75.10944974179999, 18.0786159571], [75.1091719638, 18.0786159571], [75.1091719638, 18.078338179099998], [75.1088941858, 18.078338179099998], [75.1088941858, 18.0777826231], [75.1086164078, 18.0777826231], [75.1086164078, 18.077504845099998], [75.1091719638, 18.077504845099998], [75.1091719638, 18.0777826231], [75.10944974179999, 18.0777826231], [75.10944974179999, 18.078060401099997], [75.10972751979999, 18.078060401099997], [75.10972751979999, 18.078338179099998], [75.1100052978, 18.078338179099998], [75.1100052978, 18.0786159571], [75.1102830758, 18.0786159571], [75.1102830758, 18.0797270691], [75.1100052978, 18.0797270691], [75.1100052978, 18.0800048471], [75.10972751979999, 18.0800048471]]]}}, {"type": "Feature", "properties": {"time_min": 15, "depth_min_m": 1.0, "depth_max_m": 3.0, "depth_class": "1.0\u20133.0 m", "class_area_km2": 0.1579376591845696, "flooded_area_km2": 1.5658390782013039, "frame_max_depth_m": 15.801188473542425, "class_mean_depth_m": 2.0689547612098353, "scenario_id": "baseline", "model_type": "Automated approximate 2D flood-routing prototype", "validated_hydraulic_output": false}, "geometry": {"type": "Polygon", "coordinates": [[[75.1205608618, 18.0777826231], [75.1205608618, 18.076949289099996], [75.1208386398, 18.076949289099996], [75.1208386398, 18.0777826231], [75.1205608618, 18.0777826231]]]}}, {"type": "Feature", "properties": {"time_min": 15, "depth_min_m": 1.0, "depth_max_m": 3.0, "depth_class": "1.0\u20133.0 m", "class_area_km2": 0.1579376591845696, "flooded_area_km2": 1.5658390782013039, "frame_max_depth_m": 15.801188473542425, "class_mean_depth_m": 2.0689547612098353, "scenario_id": "baseline", "model_type": "Automated approximate 2D flood-routing prototype", "validated_hydraulic_output": false}, "geometry": {"type": "Polygon", "coordinates": [[[75.13083864779999, 18.076393733099998], [75.13083864779999, 18.076115955099997], [75.13111642579999, 18.076115955099997], [75.13111642579999, 18.076393733099998], [75.13083864779999, 18.076393733099998]]]}}, {"type": "Feature", "properties": {"time_min": 15, "depth_min_m": 1.0, "depth_max_m": 3.0, "depth_class": "1.0\u20133.0 m", "class_area_km2": 0.1579376591845696, "flooded_area_km2": 1.5658390782013039, "frame_max_depth_m": 15.801188473542425, "class_mean_depth_m": 2.0689547612098353, "scenario_id": "baseline", "model_type": "Automated approximate 2D flood-routing prototype", "validated_hydraulic_output": false}, "geometry": {"type": "Polygon", "coordinates": [[[75.13111642579999, 18.076115955099997], [75.13111642579999, 18.0758381771], [75.1313942038, 18.0758381771], [75.1313942038, 18.076115955099997], [75.13111642579999, 18.076115955099997]]]}}, {"type": "Feature", "properties": {"time_min": 15, "depth_min_m": 1.0, "depth_max_m": 3.0, "depth_class": "1.0\u20133.0 m", "class_area_km2": 0.1579376591845696, "flooded_area_km2": 1.5658390782013039, "frame_max_depth_m": 15.801188473542425, "class_mean_depth_m": 2.0689547612098353, "scenario_id": "baseline", "model_type": "Automated approximate 2D flood-routing prototype", "validated_hydraulic_output": false}, "geometry": {"type": "Polygon", "coordinates": [[[75.12028308379999, 18.076115955099997], [75.12028308379999, 18.0755603991], [75.1205608618, 18.0755603991], [75.1205608618, 18.076115955099997], [75.12028308379999, 18.076115955099997]]]}}, {"type": "Feature", "properties": {"time_min": 15, "depth_min_m": 1.0, "depth_max_m": 3.0, "depth_class": "1.0\u20133.0 m", "class_area_km2": 0.1579376591845696, "flooded_area_km2": 1.5658390782013039, "frame_max_depth_m": 15.801188473542425, "class_mean_depth_m": 2.0689547612098353, "scenario_id": "baseline", "model_type": "Automated approximate 2D flood-routing prototype", "validated_hydraulic_output": false}, "geometry": {"type": "Polygon", "coordinates": [[[75.1300053138, 18.076115955099997], [75.1300053138, 18.0758381771], [75.1302830918, 18.0758381771], [75.1302830918, 18.0755603991], [75.13083864779999, 18.0755603991], [75.13083864779999, 18.0758381771], [75.1305608698, 18.0758381771], [75.1305608698, 18.076115955099997], [75.1300053138, 18.076115955099997]]]}}, {"type": "Feature", "properties": {"time_min": 15, "depth_min_m": 1.0, "depth_max_m": 3.0, "depth_class": "1.0\u20133.0 m", "class_area_km2": 0.1579376591845696, "flooded_area_km2": 1.5658390782013039, "frame_max_depth_m": 15.801188473542425, "class_mean_depth_m": 2.0689547612098353, "scenario_id": "baseline", "model_type": "Automated approximate 2D flood-routing prototype", "validated_hydraulic_output": false}, "geometry": {"type": "Polygon", "coordinates": [[[75.1297275358, 18.0755603991], [75.1297275358, 18.075282621099998], [75.1302830918, 18.075282621099998], [75.1302830918, 18.0755603991], [75.1297275358, 18.0755603991]]]}}, {"type": "Feature", "properties": {"time_min": 15, "depth_min_m": 1.0, "depth_max_m": 3.0, "depth_class": "1.0\u20133.0 m", "class_area_km2": 0.1579376591845696, "flooded_area_km2": 1.5658390782013039, "frame_max_depth_m": 15.801188473542425, "class_mean_depth_m": 2.0689547612098353, "scenario_id": "baseline", "model_type": "Automated approximate 2D flood-routing prototype", "validated_hydraulic_output": false}, "geometry": {"type": "Polygon", "coordinates": [[[75.13083864779999, 18.075282621099998], [75.13083864779999, 18.075004843099997], [75.13111642579999, 18.075004843099997], [75.13111642579999, 18.075282621099998], [75.13083864779999, 18.075282621099998]]]}}, {"type": "Feature", "properties": {"time_min": 15, "depth_min_m": 1.0, "depth_max_m": 3.0, "depth_class": "1.0\u20133.0 m", "class_area_km2": 0.1579376591845696, "flooded_area_km2": 1.5658390782013039, "frame_max_depth_m": 15.801188473542425, "class_mean_depth_m": 2.0689547612098353, "scenario_id": "baseline", "model_type": "Automated approximate 2D flood-routing prototype", "validated_hydraulic_output": false}, "geometry": {"type": "Polygon", "coordinates": [[[75.12000530579999, 18.075282621099998], [75.12000530579999, 18.0747270651], [75.12028308379999, 18.0747270651], [75.12028308379999, 18.075282621099998], [75.12000530579999, 18.075282621099998]]]}}, {"type": "Feature", "properties": {"time_min": 15, "depth_min_m": 1.0, "depth_max_m": 3.0, "depth_class": "1.0\u20133.0 m", "class_area_km2": 0.1579376591845696, "flooded_area_km2": 1.5658390782013039, "frame_max_depth_m": 15.801188473542425, "class_mean_depth_m": 2.0689547612098353, "scenario_id": "baseline", "model_type": "Automated approximate 2D flood-routing prototype", "validated_hydraulic_output": false}, "geometry": {"type": "Polygon", "coordinates": [[[75.12806086779999, 18.075004843099997], [75.12806086779999, 18.0747270651], [75.1283386458, 18.0747270651], [75.1283386458, 18.075004843099997], [75.12806086779999, 18.075004843099997]]]}}, {"type": "Feature", "properties": {"time_min": 15, "depth_min_m": 1.0, "depth_max_m": 3.0, "depth_class": "1.0\u20133.0 m", "class_area_km2": 0.1579376591845696, "flooded_area_km2": 1.5658390782013039, "frame_max_depth_m": 15.801188473542425, "class_mean_depth_m": 2.0689547612098353, "scenario_id": "baseline", "model_type": "Automated approximate 2D flood-routing prototype", "validated_hydraulic_output": false}, "geometry": {"type": "Polygon", "coordinates": [[[75.1197275278, 18.0747270651], [75.1197275278, 18.0744492871], [75.12000530579999, 18.0744492871], [75.12000530579999, 18.0747270651], [75.1197275278, 18.0747270651]]]}}, {"type": "Feature", "properties": {"time_min": 15, "depth_min_m": 1.0, "depth_max_m": 3.0, "depth_class": "1.0\u20133.0 m", "class_area_km2": 0.1579376591845696, "flooded_area_km2": 1.5658390782013039, "frame_max_depth_m": 15.801188473542425, "class_mean_depth_m": 2.0689547612098353, "scenario_id": "baseline", "model_type": "Automated approximate 2D flood-routing prototype", "validated_hydraulic_output": false}, "geometry": {"type": "Polygon", "coordinates": [[[75.1194497498, 18.0744492871], [75.1194497498, 18.073893731099997], [75.1197275278, 18.073893731099997], [75.1197275278, 18.0744492871], [75.1194497498, 18.0744492871]]]}}, {"type": "Feature", "properties": {"time_min": 15, "depth_min_m": 1.0, "depth_max_m": 3.0, "depth_class": "1.0\u20133.0 m", "class_area_km2": 0.1579376591845696, "flooded_area_km2": 1.5658390782013039, "frame_max_depth_m": 15.801188473542425, "class_mean_depth_m": 2.0689547612098353, "scenario_id": "baseline", "model_type": "Automated approximate 2D flood-routing prototype", "validated_hydraulic_output": false}, "geometry": {"type": "Polygon", "coordinates": [[[75.12028308379999, 18.074171509099997], [75.12028308379999, 18.073893731099997], [75.1205608618, 18.073893731099997], [75.1205608618, 18.074171509099997], [75.12028308379999, 18.074171509099997]]]}}, {"type": "Feature", "properties": {"time_min": 15, "depth_min_m": 1.0, "depth_max_m": 3.0, "depth_class": "1.0\u20133.0 m", "class_area_km2": 0.1579376591845696, "flooded_area_km2": 1.5658390782013039, "frame_max_depth_m": 15.801188473542425, "class_mean_depth_m": 2.0689547612098353, "scenario_id": "baseline", "model_type": "Automated approximate 2D flood-routing prototype", "validated_hydraulic_output": false}, "geometry": {"type": "Polygon", "coordinates": [[[75.1197275278, 18.073893731099997], [75.1197275278, 18.0736159531], [75.12000530579999, 18.0736159531], [75.12000530579999, 18.073893731099997], [75.1197275278, 18.073893731099997]]]}}, {"type": "Feature", "properties": {"time_min": 15, "depth_min_m": 1.0, "depth_max_m": 3.0, "depth_class": "1.0\u20133.0 m", "class_area_km2": 0.1579376591845696, "flooded_area_km2": 1.5658390782013039, "frame_max_depth_m": 15.801188473542425, "class_mean_depth_m": 2.0689547612098353, "scenario_id": "baseline", "model_type": "Automated approximate 2D flood-routing prototype", "validated_hydraulic_output": false}, "geometry": {"type": "Polygon", "coordinates": [[[75.1272275338, 18.073893731099997], [75.1272275338, 18.0736159531], [75.1275053118, 18.0736159531], [75.1275053118, 18.073893731099997], [75.1272275338, 18.073893731099997]]]}}, {"type": "Feature", "properties": {"time_min": 15, "depth_min_m": 1.0, "depth_max_m": 3.0, "depth_class": "1.0\u20133.0 m", "class_area_km2": 0.1579376591845696, "flooded_area_km2": 1.5658390782013039, "frame_max_depth_m": 15.801188473542425, "class_mean_depth_m": 2.0689547612098353, "scenario_id": "baseline", "model_type": "Automated approximate 2D flood-routing prototype", "validated_hydraulic_output": false}, "geometry": {"type": "Polygon", "coordinates": [[[75.1191719718, 18.0736159531], [75.1191719718, 18.072782619099996], [75.1194497498, 18.072782619099996], [75.1194497498, 18.0736159531], [75.1191719718, 18.0736159531]]]}}, {"type": "Feature", "properties": {"time_min": 15, "depth_min_m": 1.0, "depth_max_m": 3.0, "depth_class": "1.0\u20133.0 m", "class_area_km2": 0.1579376591845696, "flooded_area_km2": 1.5658390782013039, "frame_max_depth_m": 15.801188473542425, "class_mean_depth_m": 2.0689547612098353, "scenario_id": "baseline", "model_type": "Automated approximate 2D flood-routing prototype", "validated_hydraulic_output": false}, "geometry": {"type": "Polygon", "coordinates": [[[75.1152830798, 18.0725048411], [75.1152830798, 18.072227063099998], [75.11583863579999, 18.072227063099998], [75.11583863579999, 18.0725048411], [75.1152830798, 18.0725048411]]]}}, {"type": "Feature", "properties": {"time_min": 15, "depth_min_m": 1.0, "depth_max_m": 3.0, "depth_class": "1.0\u20133.0 m", "class_area_km2": 0.1579376591845696, "flooded_area_km2": 1.5658390782013039, "frame_max_depth_m": 15.801188473542425, "class_mean_depth_m": 2.0689547612098353, "scenario_id": "baseline", "model_type": "Automated approximate 2D flood-routing prototype", "validated_hydraulic_output": false}, "geometry": {"type": "Polygon", "coordinates": [[[75.1175053038, 18.0725048411], [75.1175053038, 18.072227063099998], [75.1177830818, 18.072227063099998], [75.1177830818, 18.0725048411], [75.1175053038, 18.0725048411]]]}}, {"type": "Feature", "properties": {"time_min": 15, "depth_min_m": 1.0, "depth_max_m": 3.0, "depth_class": "1.0\u20133.0 m", "class_area_km2": 0.1579376591845696, "flooded_area_km2": 1.5658390782013039, "frame_max_depth_m": 15.801188473542425, "class_mean_depth_m": 2.0689547612098353, "scenario_id": "baseline", "model_type": "Automated approximate 2D flood-routing prototype", "validated_hydraulic_output": false}, "geometry": {"type": "Polygon", "coordinates": [[[75.11444974579999, 18.072227063099998], [75.11444974579999, 18.071949285099997], [75.1150053018, 18.071949285099997], [75.1150053018, 18.072227063099998], [75.11444974579999, 18.072227063099998]]]}}, {"type": "Feature", "properties": {"time_min": 15, "depth_min_m": 1.0, "depth_max_m": 3.0, "depth_class": "1.0\u20133.0 m", "class_area_km2": 0.1579376591845696, "flooded_area_km2": 1.5658390782013039, "frame_max_depth_m": 15.801188473542425, "class_mean_depth_m": 2.0689547612098353, "scenario_id": "baseline", "model_type": "Automated approximate 2D flood-routing prototype", "validated_hydraulic_output": false}, "geometry": {"type": "Polygon", "coordinates": [[[75.1136164118, 18.071949285099997], [75.1136164118, 18.0716715071], [75.11417196779999, 18.0716715071], [75.11417196779999, 18.071949285099997], [75.1136164118, 18.071949285099997]]]}}, {"type": "Feature", "properties": {"time_min": 15, "depth_min_m": 1.0, "depth_max_m": 3.0, "depth_class": "1.0\u20133.0 m", "class_area_km2": 0.1579376591845696, "flooded_area_km2": 1.5658390782013039, "frame_max_depth_m": 15.801188473542425, "class_mean_depth_m": 2.0689547612098353, "scenario_id": "baseline", "model_type": "Automated approximate 2D flood-routing prototype", "validated_hydraulic_output": false}, "geometry": {"type": "Polygon", "coordinates": [[[75.1130608558, 18.0716715071], [75.1130608558, 18.0713937291], [75.1136164118, 18.0713937291], [75.1136164118, 18.0716715071], [75.1130608558, 18.0716715071]]]}}, {"type": "Feature", "properties": {"time_min": 15, "depth_min_m": 1.0, "depth_max_m": 3.0, "depth_class": "1.0\u20133.0 m", "class_area_km2": 0.1579376591845696, "flooded_area_km2": 1.5658390782013039, "frame_max_depth_m": 15.801188473542425, "class_mean_depth_m": 2.0689547612098353, "scenario_id": "baseline", "model_type": "Automated approximate 2D flood-routing prototype", "validated_hydraulic_output": false}, "geometry": {"type": "Polygon", "coordinates": [[[75.11139418779999, 18.0713937291], [75.11139418779999, 18.071115951099998], [75.1122275218, 18.071115951099998], [75.1122275218, 18.0713937291], [75.11139418779999, 18.0713937291]]]}}, {"type": "Feature", "properties": {"time_min": 15, "depth_min_m": 1.0, "depth_max_m": 3.0, "depth_class": "1.0\u20133.0 m", "class_area_km2": 0.1579376591845696, "flooded_area_km2": 1.5658390782013039, "frame_max_depth_m": 15.801188473542425, "class_mean_depth_m": 2.0689547612098353, "scenario_id": "baseline", "model_type": "Automated approximate 2D flood-routing prototype", "validated_hydraulic_output": false}, "geometry": {"type": "Polygon", "coordinates": [[[75.11111640979999, 18.071115951099998], [75.11111640979999, 18.070838173099997], [75.11139418779999, 18.070838173099997], [75.11139418779999, 18.071115951099998], [75.11111640979999, 18.071115951099998]]]}}, {"type": "Feature", "properties": {"time_min": 15, "depth_min_m": 1.0, "depth_max_m": 3.0, "depth_class": "1.0\u20133.0 m", "class_area_km2": 0.1579376591845696, "flooded_area_km2": 1.5658390782013039, "frame_max_depth_m": 15.801188473542425, "class_mean_depth_m": 2.0689547612098353, "scenario_id": "baseline", "model_type": "Automated approximate 2D flood-routing prototype", "validated_hydraulic_output": false}, "geometry": {"type": "Polygon", "coordinates": [[[75.1100052978, 18.070838173099997], [75.1100052978, 18.0705603951], [75.10972751979999, 18.0705603951], [75.10972751979999, 18.0702826171], [75.1102830758, 18.0702826171], [75.1102830758, 18.0705603951], [75.1108386318, 18.0705603951], [75.1108386318, 18.070838173099997], [75.1100052978, 18.070838173099997]]]}}, {"type": "Feature", "properties": {"time_min": 15, "depth_min_m": 1.0, "depth_max_m": 3.0, "depth_class": "1.0\u20133.0 m", "class_area_km2": 0.1579376591845696, "flooded_area_km2": 1.5658390782013039, "frame_max_depth_m": 15.801188473542425, "class_mean_depth_m": 2.0689547612098353, "scenario_id": "baseline", "model_type": "Automated approximate 2D flood-routing prototype", "validated_hydraulic_output": false}, "geometry": {"type": "Polygon", "coordinates": [[[75.1088941858, 18.0702826171], [75.1088941858, 18.0694492831], [75.1091719638, 18.0694492831], [75.1091719638, 18.069727061099996], [75.10972751979999, 18.069727061099996], [75.10972751979999, 18.0702826171], [75.1088941858, 18.0702826171]]]}}, {"type": "Feature", "properties": {"time_min": 15, "depth_min_m": 3.0, "depth_max_m": 6.0, "depth_class": "3.0\u20136.0 m", "class_area_km2": 0.27345777561671186, "flooded_area_km2": 1.5658390782013039, "frame_max_depth_m": 15.801188473542425, "class_mean_depth_m": 4.660320239380141, "scenario_id": "baseline", "model_type": "Automated approximate 2D flood-routing prototype", "validated_hydraulic_output": false}, "geometry": {"type": "Polygon", "coordinates": [[[75.13083864779999, 18.0766715111], [75.13083864779999, 18.076393733099998], [75.13111642579999, 18.076393733099998], [75.13111642579999, 18.0766715111], [75.13083864779999, 18.0766715111]]]}}, {"type": "Feature", "properties": {"time_min": 15, "depth_min_m": 3.0, "depth_max_m": 6.0, "depth_class": "3.0\u20136.0 m", "class_area_km2": 0.27345777561671186, "flooded_area_km2": 1.5658390782013039, "frame_max_depth_m": 15.801188473542425, "class_mean_depth_m": 4.660320239380141, "scenario_id": "baseline", "model_type": "Automated approximate 2D flood-routing prototype", "validated_hydraulic_output": false}, "geometry": {"type": "Polygon", "coordinates": [[[75.1116719658, 18.0830604051], [75.1116719658, 18.082504849099998], [75.11139418779999, 18.082504849099998], [75.11139418779999, 18.082227071099997], [75.11111640979999, 18.082227071099997], [75.11111640979999, 18.0819492931], [75.1108386318, 18.0819492931], [75.1108386318, 18.0816715151], [75.1105608538, 18.0816715151], [75.1105608538, 18.081115959099996], [75.1108386318, 18.081115959099996], [75.1108386318, 18.080560403099998], [75.1102830758, 18.080560403099998], [75.1102830758, 18.080282625099997], [75.1100052978, 18.080282625099997], [75.1100052978, 18.0797270691], [75.1102830758, 18.0797270691], [75.1102830758, 18.0786159571], [75.1100052978, 18.0786159571], [75.1100052978, 18.078338179099998], [75.10972751979999, 18.078338179099998], [75.10972751979999, 18.078060401099997], [75.10944974179999, 18.078060401099997], [75.10944974179999, 18.0777826231], [75.1091719638, 18.0777826231], [75.1091719638, 18.077504845099998], [75.10833862979999, 18.077504845099998], [75.10833862979999, 18.077227067099997], [75.10806085179999, 18.077227067099997], [75.10806085179999, 18.076949289099996], [75.1075052958, 18.076949289099996], [75.1075052958, 18.0766715111], [75.1086164078, 18.0766715111], [75.1086164078, 18.076949289099996], [75.1100052978, 18.076949289099996], [75.1100052978, 18.077227067099997], [75.1105608538, 18.077227067099997], [75.1105608538, 18.0777826231], [75.1108386318, 18.0777826231], [75.1108386318, 18.078338179099998], [75.11111640979999, 18.078338179099998], [75.11111640979999, 18.079171513099997], [75.11139418779999, 18.079171513099997], [75.11139418779999, 18.079449291099998], [75.1116719658, 18.079449291099998], [75.1116719658, 18.0797270691], [75.1119497438, 18.0797270691], [75.1119497438, 18.0800048471], [75.11278307779999, 18.0800048471], [75.11278307779999, 18.0797270691], [75.1133386338, 18.0797270691], [75.1133386338, 18.0786159571], [75.1136164118, 18.0786159571], [75.1136164118, 18.078338179099998], [75.1152830798, 18.078338179099998], [75.1152830798, 18.0786159571], [75.11583863579999, 18.0786159571], [75.11583863579999, 18.078338179099998], [75.1161164138, 18.078338179099998], [75.1161164138, 18.0786159571], [75.1163941918, 18.0786159571], [75.1163941918, 18.0788937351], [75.1175053038, 18.0788937351], [75.1175053038, 18.078338179099998], [75.11722752579999, 18.078338179099998], [75.11722752579999, 18.078060401099997], [75.11694974779999, 18.078060401099997], [75.11694974779999, 18.0777826231], [75.11722752579999, 18.0777826231], [75.11722752579999, 18.077504845099998], [75.1175053038, 18.077504845099998], [75.1175053038, 18.077227067099997], [75.11861641579999, 18.077227067099997], [75.11861641579999, 18.077504845099998], [75.1194497498, 18.077504845099998], [75.1194497498, 18.0777826231], [75.1197275278, 18.0777826231], [75.1197275278, 18.078060401099997], [75.12000530579999, 18.078060401099997], [75.12000530579999, 18.0777826231], [75.12028308379999, 18.0777826231], [75.12028308379999, 18.076115955099997], [75.1205608618, 18.076115955099997], [75.1205608618, 18.078060401099997], [75.12028308379999, 18.078060401099997], [75.12028308379999, 18.0786159571], [75.1197275278, 18.0786159571], [75.1197275278, 18.078338179099998], [75.1191719718, 18.078338179099998], [75.1191719718, 18.0786159571], [75.11861641579999, 18.0786159571], [75.11861641579999, 18.0788937351], [75.1183386378, 18.0788937351], [75.1183386378, 18.079171513099997], [75.1177830818, 18.079171513099997], [75.1177830818, 18.079449291099998], [75.1163941918, 18.079449291099998], [75.1163941918, 18.079171513099997], [75.1152830798, 18.079171513099997], [75.1152830798, 18.0788937351], [75.11444974579999, 18.0788937351], [75.11444974579999, 18.079449291099998], [75.11417196779999, 18.079449291099998], [75.11417196779999, 18.080282625099997], [75.11389418979999, 18.080282625099997], [75.11389418979999, 18.080560403099998], [75.1136164118, 18.080560403099998], [75.1136164118, 18.0808381811], [75.1133386338, 18.0808381811], [75.1133386338, 18.081115959099996], [75.1130608558, 18.081115959099996], [75.1130608558, 18.081393737099997], [75.1122275218, 18.081393737099997], [75.1122275218, 18.0816715151], [75.1119497438, 18.0816715151], [75.1119497438, 18.0819492931], [75.1122275218, 18.0819492931], [75.1122275218, 18.082504849099998], [75.1119497438, 18.082504849099998], [75.1119497438, 18.0830604051], [75.1116719658, 18.0830604051]]]}}, {"type": "Feature", "properties": {"time_min": 15, "depth_min_m": 3.0, "depth_max_m": 6.0, "depth_class": "3.0\u20136.0 m", "class_area_km2": 0.27345777561671186, "flooded_area_km2": 1.5658390782013039, "frame_max_depth_m": 15.801188473542425, "class_mean_depth_m": 4.660320239380141, "scenario_id": "baseline", "model_type": "Automated approximate 2D flood-routing prototype", "validated_hydraulic_output": false}, "geometry": {"type": "Polygon", "coordinates": [[[75.13083864779999, 18.0758381771], [75.13083864779999, 18.0755603991], [75.13111642579999, 18.0755603991], [75.13111642579999, 18.0758381771], [75.13083864779999, 18.0758381771]]]}}, {"type": "Feature", "properties": {"time_min": 15, "depth_min_m": 3.0, "depth_max_m": 6.0, "depth_class": "3.0\u20136.0 m", "class_area_km2": 0.27345777561671186, "flooded_area_km2": 1.5658390782013039, "frame_max_depth_m": 15.801188473542425, "class_mean_depth_m": 4.660320239380141, "scenario_id": "baseline", "model_type": "Automated approximate 2D flood-routing prototype", "validated_hydraulic_output": false}, "geometry": {"type": "Polygon", "coordinates": [[[75.1302830918, 18.075282621099998], [75.1302830918, 18.075004843099997], [75.1305608698, 18.075004843099997], [75.1305608698, 18.075282621099998], [75.1302830918, 18.075282621099998]]]}}, {"type": "Feature", "properties": {"time_min": 15, "depth_min_m": 3.0, "depth_max_m": 6.0, "depth_class": "3.0\u20136.0 m", "class_area_km2": 0.27345777561671186, "flooded_area_km2": 1.5658390782013039, "frame_max_depth_m": 15.801188473542425, "class_mean_depth_m": 4.660320239380141, "scenario_id": "baseline", "model_type": "Automated approximate 2D flood-routing prototype", "validated_hydraulic_output": false}, "geometry": {"type": "Polygon", "coordinates": [[[75.1183386378, 18.073893731099997], [75.1183386378, 18.0736159531], [75.11861641579999, 18.0736159531], [75.11861641579999, 18.073893731099997], [75.1183386378, 18.073893731099997]]]}}, {"type": "Feature", "properties": {"time_min": 15, "depth_min_m": 3.0, "depth_max_m": 6.0, "depth_class": "3.0\u20136.0 m", "class_area_km2": 0.27345777561671186, "flooded_area_km2": 1.5658390782013039, "frame_max_depth_m": 15.801188473542425, "class_mean_depth_m": 4.660320239380141, "scenario_id": "baseline", "model_type": "Automated approximate 2D flood-routing prototype", "validated_hydraulic_output": false}, "geometry": {"type": "Polygon", "coordinates": [[[75.12000530579999, 18.076115955099997], [75.12000530579999, 18.0755603991], [75.1197275278, 18.0755603991], [75.1197275278, 18.075004843099997], [75.1194497498, 18.075004843099997], [75.1194497498, 18.0747270651], [75.1191719718, 18.0747270651], [75.1191719718, 18.0744492871], [75.11889419379999, 18.0744492871], [75.11889419379999, 18.073060397099997], [75.1191719718, 18.073060397099997], [75.1191719718, 18.0736159531], [75.1194497498, 18.0736159531], [75.1194497498, 18.0744492871], [75.1197275278, 18.0744492871], [75.1197275278, 18.0747270651], [75.12000530579999, 18.0747270651], [75.12000530579999, 18.075282621099998], [75.12028308379999, 18.075282621099998], [75.12028308379999, 18.076115955099997], [75.12000530579999, 18.076115955099997]]]}}, {"type": "Feature", "properties": {"time_min": 15, "depth_min_m": 3.0, "depth_max_m": 6.0, "depth_class": "3.0\u20136.0 m", "class_area_km2": 0.27345777561671186, "flooded_area_km2": 1.5658390782013039, "frame_max_depth_m": 15.801188473542425, "class_mean_depth_m": 4.660320239380141, "scenario_id": "baseline", "model_type": "Automated approximate 2D flood-routing prototype", "validated_hydraulic_output": false}, "geometry": {"type": "Polygon", "coordinates": [[[75.1194497498, 18.073338175099998], [75.1194497498, 18.073060397099997], [75.1197275278, 18.073060397099997], [75.1197275278, 18.073338175099998], [75.1194497498, 18.073338175099998]]]}}, {"type": "Feature", "properties": {"time_min": 15, "depth_min_m": 3.0, "depth_max_m": 6.0, "depth_class": "3.0\u20136.0 m", "class_area_km2": 0.27345777561671186, "flooded_area_km2": 1.5658390782013039, "frame_max_depth_m": 15.801188473542425, "class_mean_depth_m": 4.660320239380141, "scenario_id": "baseline", "model_type": "Automated approximate 2D flood-routing prototype", "validated_hydraulic_output": false}, "geometry": {"type": "Polygon", "coordinates": [[[75.1166719698, 18.072782619099996], [75.1166719698, 18.0725048411], [75.11694974779999, 18.0725048411], [75.11694974779999, 18.072782619099996], [75.1166719698, 18.072782619099996]]]}}, {"type": "Feature", "properties": {"time_min": 15, "depth_min_m": 3.0, "depth_max_m": 6.0, "depth_class": "3.0\u20136.0 m", "class_area_km2": 0.27345777561671186, "flooded_area_km2": 1.5658390782013039, "frame_max_depth_m": 15.801188473542425, "class_mean_depth_m": 4.660320239380141, "scenario_id": "baseline", "model_type": "Automated approximate 2D flood-routing prototype", "validated_hydraulic_output": false}, "geometry": {"type": "Polygon", "coordinates": [[[75.1147275238, 18.0725048411], [75.1147275238, 18.072227063099998], [75.1152830798, 18.072227063099998], [75.1152830798, 18.0725048411], [75.1147275238, 18.0725048411]]]}}, {"type": "Feature", "properties": {"time_min": 15, "depth_min_m": 3.0, "depth_max_m": 6.0, "depth_class": "3.0\u20136.0 m", "class_area_km2": 0.27345777561671186, "flooded_area_km2": 1.5658390782013039, "frame_max_depth_m": 15.801188473542425, "class_mean_depth_m": 4.660320239380141, "scenario_id": "baseline", "model_type": "Automated approximate 2D flood-routing prototype", "validated_hydraulic_output": false}, "geometry": {"type": "Polygon", "coordinates": [[[75.1177830818, 18.0725048411], [75.1177830818, 18.072227063099998], [75.1183386378, 18.072227063099998], [75.1183386378, 18.0725048411], [75.1177830818, 18.0725048411]]]}}, {"type": "Feature", "properties": {"time_min": 15, "depth_min_m": 3.0, "depth_max_m": 6.0, "depth_class": "3.0\u20136.0 m", "class_area_km2": 0.27345777561671186, "flooded_area_km2": 1.5658390782013039, "frame_max_depth_m": 15.801188473542425, "class_mean_depth_m": 4.660320239380141, "scenario_id": "baseline", "model_type": "Automated approximate 2D flood-routing prototype", "validated_hydraulic_output": false}, "geometry": {"type": "Polygon", "coordinates": [[[75.11889419379999, 18.0725048411], [75.11889419379999, 18.072227063099998], [75.1191719718, 18.072227063099998], [75.1191719718, 18.0725048411], [75.11889419379999, 18.0725048411]]]}}, {"type": "Feature", "properties": {"time_min": 15, "depth_min_m": 3.0, "depth_max_m": 6.0, "depth_class": "3.0\u20136.0 m", "class_area_km2": 0.27345777561671186, "flooded_area_km2": 1.5658390782013039, "frame_max_depth_m": 15.801188473542425, "class_mean_depth_m": 4.660320239380141, "scenario_id": "baseline", "model_type": "Automated approximate 2D flood-routing prototype", "validated_hydraulic_output": false}, "geometry": {"type": "Polygon", "coordinates": [[[75.1136164118, 18.072227063099998], [75.1136164118, 18.071949285099997], [75.11444974579999, 18.071949285099997], [75.11444974579999, 18.072227063099998], [75.1136164118, 18.072227063099998]]]}}, {"type": "Feature", "properties": {"time_min": 15, "depth_min_m": 3.0, "depth_max_m": 6.0, "depth_class": "3.0\u20136.0 m", "class_area_km2": 0.27345777561671186, "flooded_area_km2": 1.5658390782013039, "frame_max_depth_m": 15.801188473542425, "class_mean_depth_m": 4.660320239380141, "scenario_id": "baseline", "model_type": "Automated approximate 2D flood-routing prototype", "validated_hydraulic_output": false}, "geometry": {"type": "Polygon", "coordinates": [[[75.11250529979999, 18.071949285099997], [75.11250529979999, 18.0716715071], [75.11139418779999, 18.0716715071], [75.11139418779999, 18.0713937291], [75.1130608558, 18.0713937291], [75.1130608558, 18.0716715071], [75.1136164118, 18.0716715071], [75.1136164118, 18.071949285099997], [75.11250529979999, 18.071949285099997]]]}}, {"type": "Feature", "properties": {"time_min": 15, "depth_min_m": 3.0, "depth_max_m": 6.0, "depth_class": "3.0\u20136.0 m", "class_area_km2": 0.27345777561671186, "flooded_area_km2": 1.5658390782013039, "frame_max_depth_m": 15.801188473542425, "class_mean_depth_m": 4.660320239380141, "scenario_id": "baseline", "model_type": "Automated approximate 2D flood-routing prototype", "validated_hydraulic_output": false}, "geometry": {"type": "Polygon", "coordinates": [[[75.1102830758, 18.0713937291], [75.1102830758, 18.071115951099998], [75.10944974179999, 18.071115951099998], [75.10944974179999, 18.070838173099997], [75.1091719638, 18.070838173099997], [75.1091719638, 18.071115951099998], [75.1088941858, 18.071115951099998], [75.1088941858, 18.070838173099997], [75.1086164078, 18.070838173099997], [75.1086164078, 18.0705603951], [75.10833862979999, 18.0705603951], [75.10833862979999, 18.070004839099997], [75.10806085179999, 18.070004839099997], [75.10806085179999, 18.069727061099996], [75.1088941858, 18.069727061099996], [75.1088941858, 18.0702826171], [75.10972751979999, 18.0702826171], [75.10972751979999, 18.0705603951], [75.1100052978, 18.0705603951], [75.1100052978, 18.070838173099997], [75.11111640979999, 18.070838173099997], [75.11111640979999, 18.071115951099998], [75.11139418779999, 18.071115951099998], [75.11139418779999, 18.0713937291], [75.1108386318, 18.0713937291], [75.1108386318, 18.071115951099998], [75.1105608538, 18.071115951099998], [75.1105608538, 18.0713937291], [75.1102830758, 18.0713937291]]]}}, {"type": "Feature", "properties": {"time_min": 15, "depth_min_m": 6.0, "depth_max_m": null, "depth_class": "6.0+ m", "class_area_km2": 1.0766835851839514, "flooded_area_km2": 1.5658390782013039, "frame_max_depth_m": 15.801188473542425, "class_mean_depth_m": 11.027428275094774, "scenario_id": "baseline", "model_type": "Automated approximate 2D flood-routing prototype", "validated_hydraulic_output": false}, "geometry": {"type": "Polygon", "coordinates": [[[75.13111642579999, 18.0766715111], [75.13111642579999, 18.076115955099997], [75.1313942038, 18.076115955099997], [75.1313942038, 18.0766715111], [75.13111642579999, 18.0766715111]]]}}, {"type": "Feature", "properties": {"time_min": 15, "depth_min_m": 6.0, "depth_max_m": null, "depth_class": "6.0+ m", "class_area_km2": 1.0766835851839514, "flooded_area_km2": 1.5658390782013039, "frame_max_depth_m": 15.801188473542425, "class_mean_depth_m": 11.027428275094774, "scenario_id": "baseline", "model_type": "Automated approximate 2D flood-routing prototype", "validated_hydraulic_output": false}, "geometry": {"type": "Polygon", "coordinates": [[[75.1297275358, 18.0758381771], [75.1297275358, 18.0755603991], [75.1302830918, 18.0755603991], [75.1302830918, 18.0758381771], [75.1297275358, 18.0758381771]]]}}, {"type": "Feature", "properties": {"time_min": 15, "depth_min_m": 6.0, "depth_max_m": null, "depth_class": "6.0+ m", "class_area_km2": 1.0766835851839514, "flooded_area_km2": 1.5658390782013039, "frame_max_depth_m": 15.801188473542425, "class_mean_depth_m": 11.027428275094774, "scenario_id": "baseline", "model_type": "Automated approximate 2D flood-routing prototype", "validated_hydraulic_output": false}, "geometry": {"type": "Polygon", "coordinates": [[[75.1119497438, 18.0800048471], [75.1119497438, 18.0797270691], [75.1116719658, 18.0797270691], [75.1116719658, 18.079449291099998], [75.11139418779999, 18.079449291099998], [75.11139418779999, 18.079171513099997], [75.11111640979999, 18.079171513099997], [75.11111640979999, 18.078338179099998], [75.1108386318, 18.078338179099998], [75.1108386318, 18.0777826231], [75.1105608538, 18.0777826231], [75.1105608538, 18.077227067099997], [75.1100052978, 18.077227067099997], [75.1100052978, 18.076949289099996], [75.1086164078, 18.076949289099996], [75.1086164078, 18.0766715111], [75.1075052958, 18.0766715111], [75.1075052958, 18.076393733099998], [75.1072275178, 18.076393733099998], [75.1072275178, 18.076115955099997], [75.1069497398, 18.076115955099997], [75.1069497398, 18.0758381771], [75.10667196179999, 18.0758381771], [75.10667196179999, 18.0755603991], [75.10639418379999, 18.0755603991], [75.10639418379999, 18.075282621099998], [75.1061164058, 18.075282621099998], [75.1061164058, 18.075004843099997], [75.1058386278, 18.075004843099997], [75.1058386278, 18.0747270651], [75.1055608498, 18.0747270651], [75.1055608498, 18.0744492871], [75.10528307179999, 18.0744492871], [75.10528307179999, 18.074171509099997], [75.10500529379999, 18.074171509099997], [75.10500529379999, 18.073893731099997], [75.1044497378, 18.073893731099997], [75.1044497378, 18.0736159531], [75.1041719598, 18.0736159531], [75.1041719598, 18.073060397099997], [75.1038941818, 18.073060397099997], [75.1038941818, 18.072782619099996], [75.10361640379999, 18.072782619099996], [75.10361640379999, 18.072227063099998], [75.10333862579999, 18.072227063099998], [75.10333862579999, 18.071949285099997], [75.1030608478, 18.071949285099997], [75.1030608478, 18.0716715071], [75.10333862579999, 18.0716715071], [75.10333862579999, 18.0713937291], [75.1038941818, 18.0713937291], [75.1038941818, 18.071115951099998], [75.1044497378, 18.071115951099998], [75.1044497378, 18.070838173099997], [75.1058386278, 18.070838173099997], [75.1058386278, 18.0705603951], [75.10639418379999, 18.0705603951], [75.10639418379999, 18.0702826171], [75.1069497398, 18.0702826171], [75.1069497398, 18.070004839099997], [75.10833862979999, 18.070004839099997], [75.10833862979999, 18.0705603951], [75.1086164078, 18.0705603951], [75.1086164078, 18.070838173099997], [75.1088941858, 18.070838173099997], [75.1088941858, 18.071115951099998], [75.1091719638, 18.071115951099998], [75.1091719638, 18.070838173099997], [75.10944974179999, 18.070838173099997], [75.10944974179999, 18.071115951099998], [75.1102830758, 18.071115951099998], [75.1102830758, 18.0713937291], [75.1105608538, 18.0713937291], [75.1105608538, 18.071115951099998], [75.1108386318, 18.071115951099998], [75.1108386318, 18.0713937291], [75.11139418779999, 18.0713937291], [75.11139418779999, 18.0716715071], [75.11250529979999, 18.0716715071], [75.11250529979999, 18.071949285099997], [75.1136164118, 18.071949285099997], [75.1136164118, 18.072227063099998], [75.1147275238, 18.072227063099998], [75.1147275238, 18.0725048411], [75.1166719698, 18.0725048411], [75.1166719698, 18.072782619099996], [75.11694974779999, 18.072782619099996], [75.11694974779999, 18.0725048411], [75.1183386378, 18.0725048411], [75.1183386378, 18.072227063099998], [75.11889419379999, 18.072227063099998], [75.11889419379999, 18.0725048411], [75.1191719718, 18.0725048411], [75.1191719718, 18.073060397099997], [75.11889419379999, 18.073060397099997], [75.11889419379999, 18.0744492871], [75.1191719718, 18.0744492871], [75.1191719718, 18.0747270651], [75.1194497498, 18.0747270651], [75.1194497498, 18.075004843099997], [75.1197275278, 18.075004843099997], [75.1197275278, 18.0755603991], [75.12000530579999, 18.0755603991], [75.12000530579999, 18.076115955099997], [75.12028308379999, 18.076115955099997], [75.12028308379999, 18.0777826231], [75.12000530579999, 18.0777826231], [75.12000530579999, 18.078060401099997], [75.1197275278, 18.078060401099997], [75.1197275278, 18.0777826231], [75.1194497498, 18.0777826231], [75.1194497498, 18.077504845099998], [75.11861641579999, 18.077504845099998], [75.11861641579999, 18.077227067099997], [75.1175053038, 18.077227067099997], [75.1175053038, 18.077504845099998], [75.11722752579999, 18.077504845099998], [75.11722752579999, 18.0777826231], [75.11694974779999, 18.0777826231], [75.11694974779999, 18.078060401099997], [75.11722752579999, 18.078060401099997], [75.11722752579999, 18.078338179099998], [75.1175053038, 18.078338179099998], [75.1175053038, 18.0788937351], [75.1163941918, 18.0788937351], [75.1163941918, 18.0786159571], [75.1161164138, 18.0786159571], [75.1161164138, 18.078338179099998], [75.11583863579999, 18.078338179099998], [75.11583863579999, 18.0786159571], [75.1152830798, 18.0786159571], [75.1152830798, 18.078338179099998], [75.1136164118, 18.078338179099998], [75.1136164118, 18.0786159571], [75.1133386338, 18.0786159571], [75.1133386338, 18.0797270691], [75.11278307779999, 18.0797270691], [75.11278307779999, 18.0800048471], [75.1119497438, 18.0800048471]], [[75.1183386378, 18.073893731099997], [75.11861641579999, 18.073893731099997], [75.11861641579999, 18.0736159531], [75.1183386378, 18.0736159531], [75.1183386378, 18.073893731099997]]]}}]}