{"type": "FeatureCollection", "features": [{"type": "Feature", "properties": {"time_min": 35, "depth_min_m": 0.05, "depth_max_m": 1.0, "depth_class": "0.05\u20131.0 m", "class_area_km2": 0.0153425154636439, "flooded_area_km2": 0.9331859405533997, "frame_max_depth_m": 118.1801876114622, "class_mean_depth_m": 0.593047359853746, "scenario_id": "baseline", "model_type": "Automated approximate 2D flood-routing prototype", "validated_hydraulic_output": false}, "geometry": {"type": "Polygon", "coordinates": [[[75.1313942038, 18.0955604151], [75.1313942038, 18.095004859099998], [75.1316719818, 18.095004859099998], [75.1316719818, 18.0955604151], [75.1313942038, 18.0955604151]]]}}, {"type": "Feature", "properties": {"time_min": 35, "depth_min_m": 0.05, "depth_max_m": 1.0, "depth_class": "0.05\u20131.0 m", "class_area_km2": 0.0153425154636439, "flooded_area_km2": 0.9331859405533997, "frame_max_depth_m": 118.1801876114622, "class_mean_depth_m": 0.593047359853746, "scenario_id": "baseline", "model_type": "Automated approximate 2D flood-routing prototype", "validated_hydraulic_output": false}, "geometry": {"type": "Polygon", "coordinates": [[[75.1297275358, 18.0933381911], [75.1297275358, 18.093060413099998], [75.1300053138, 18.093060413099998], [75.1300053138, 18.0933381911], [75.1297275358, 18.0933381911]]]}}, {"type": "Feature", "properties": {"time_min": 35, "depth_min_m": 0.05, "depth_max_m": 1.0, "depth_class": "0.05\u20131.0 m", "class_area_km2": 0.0153425154636439, "flooded_area_km2": 0.9331859405533997, "frame_max_depth_m": 118.1801876114622, "class_mean_depth_m": 0.593047359853746, "scenario_id": "baseline", "model_type": "Automated approximate 2D flood-routing prototype", "validated_hydraulic_output": false}, "geometry": {"type": "Polygon", "coordinates": [[[75.1300053138, 18.092782635099997], [75.1300053138, 18.092504857099996], [75.1302830918, 18.092504857099996], [75.1302830918, 18.092782635099997], [75.1300053138, 18.092782635099997]]]}}, {"type": "Feature", "properties": {"time_min": 35, "depth_min_m": 0.05, "depth_max_m": 1.0, "depth_class": "0.05\u20131.0 m", "class_area_km2": 0.0153425154636439, "flooded_area_km2": 0.9331859405533997, "frame_max_depth_m": 118.1801876114622, "class_mean_depth_m": 0.593047359853746, "scenario_id": "baseline", "model_type": "Automated approximate 2D flood-routing prototype", "validated_hydraulic_output": false}, "geometry": {"type": "Polygon", "coordinates": [[[75.1319497598, 18.0913937451], [75.1319497598, 18.0911159671], [75.13222753779999, 18.0911159671], [75.13222753779999, 18.0913937451], [75.1319497598, 18.0913937451]]]}}, {"type": "Feature", "properties": {"time_min": 35, "depth_min_m": 0.05, "depth_max_m": 1.0, "depth_class": "0.05\u20131.0 m", "class_area_km2": 0.0153425154636439, "flooded_area_km2": 0.9331859405533997, "frame_max_depth_m": 118.1801876114622, "class_mean_depth_m": 0.593047359853746, "scenario_id": "baseline", "model_type": "Automated approximate 2D flood-routing prototype", "validated_hydraulic_output": false}, "geometry": {"type": "Polygon", "coordinates": [[[75.13222753779999, 18.0911159671], [75.13222753779999, 18.090838189099998], [75.13250531579999, 18.090838189099998], [75.13250531579999, 18.0911159671], [75.13222753779999, 18.0911159671]]]}}, {"type": "Feature", "properties": {"time_min": 35, "depth_min_m": 0.05, "depth_max_m": 1.0, "depth_class": "0.05\u20131.0 m", "class_area_km2": 0.0153425154636439, "flooded_area_km2": 0.9331859405533997, "frame_max_depth_m": 118.1801876114622, "class_mean_depth_m": 0.593047359853746, "scenario_id": "baseline", "model_type": "Automated approximate 2D flood-routing prototype", "validated_hydraulic_output": false}, "geometry": {"type": "Polygon", "coordinates": [[[75.13250531579999, 18.090560411099997], [75.13250531579999, 18.0902826331], [75.1327830938, 18.0902826331], [75.1327830938, 18.090560411099997], [75.13250531579999, 18.090560411099997]]]}}, {"type": "Feature", "properties": {"time_min": 35, "depth_min_m": 0.05, "depth_max_m": 1.0, "depth_class": "0.05\u20131.0 m", "class_area_km2": 0.0153425154636439, "flooded_area_km2": 0.9331859405533997, "frame_max_depth_m": 118.1801876114622, "class_mean_depth_m": 0.593047359853746, "scenario_id": "baseline", "model_type": "Automated approximate 2D flood-routing prototype", "validated_hydraulic_output": false}, "geometry": {"type": "Polygon", "coordinates": [[[75.1327830938, 18.0900048551], [75.1327830938, 18.089727077099997], [75.1330608718, 18.089727077099997], [75.1330608718, 18.0900048551], [75.1327830938, 18.0900048551]]]}}, {"type": "Feature", "properties": {"time_min": 35, "depth_min_m": 0.05, "depth_max_m": 1.0, "depth_class": "0.05\u20131.0 m", "class_area_km2": 0.0153425154636439, "flooded_area_km2": 0.9331859405533997, "frame_max_depth_m": 118.1801876114622, "class_mean_depth_m": 0.593047359853746, "scenario_id": "baseline", "model_type": "Automated approximate 2D flood-routing prototype", "validated_hydraulic_output": false}, "geometry": {"type": "Polygon", "coordinates": [[[75.1344497618, 18.086671519099998], [75.1344497618, 18.086393741099997], [75.1350053178, 18.086393741099997], [75.1350053178, 18.086671519099998], [75.1344497618, 18.086671519099998]]]}}, {"type": "Feature", "properties": {"time_min": 35, "depth_min_m": 0.05, "depth_max_m": 1.0, "depth_class": "0.05\u20131.0 m", "class_area_km2": 0.0153425154636439, "flooded_area_km2": 0.9331859405533997, "frame_max_depth_m": 118.1801876114622, "class_mean_depth_m": 0.593047359853746, "scenario_id": "baseline", "model_type": "Automated approximate 2D flood-routing prototype", "validated_hydraulic_output": false}, "geometry": {"type": "Polygon", "coordinates": [[[75.13417198379999, 18.0858381851], [75.13417198379999, 18.085560407099997], [75.1344497618, 18.085560407099997], [75.1344497618, 18.0858381851], [75.13417198379999, 18.0858381851]]]}}, {"type": "Feature", "properties": {"time_min": 35, "depth_min_m": 0.05, "depth_max_m": 1.0, "depth_class": "0.05\u20131.0 m", "class_area_km2": 0.0153425154636439, "flooded_area_km2": 0.9331859405533997, "frame_max_depth_m": 118.1801876114622, "class_mean_depth_m": 0.593047359853746, "scenario_id": "baseline", "model_type": "Automated approximate 2D flood-routing prototype", "validated_hydraulic_output": false}, "geometry": {"type": "Polygon", "coordinates": [[[75.1363942078, 18.085560407099997], [75.1363942078, 18.085282629099996], [75.13667198579999, 18.085282629099996], [75.13667198579999, 18.085560407099997], [75.1363942078, 18.085560407099997]]]}}, {"type": "Feature", "properties": {"time_min": 35, "depth_min_m": 0.05, "depth_max_m": 1.0, "depth_class": "0.05\u20131.0 m", "class_area_km2": 0.0153425154636439, "flooded_area_km2": 0.9331859405533997, "frame_max_depth_m": 118.1801876114622, "class_mean_depth_m": 0.593047359853746, "scenario_id": "baseline", "model_type": "Automated approximate 2D flood-routing prototype", "validated_hydraulic_output": false}, "geometry": {"type": "Polygon", "coordinates": [[[75.13528309579999, 18.085282629099996], [75.13528309579999, 18.0850048511], [75.13556087379999, 18.0850048511], [75.13556087379999, 18.085282629099996], [75.13528309579999, 18.085282629099996]]]}}, {"type": "Feature", "properties": {"time_min": 35, "depth_min_m": 0.05, "depth_max_m": 1.0, "depth_class": "0.05\u20131.0 m", "class_area_km2": 0.0153425154636439, "flooded_area_km2": 0.9331859405533997, "frame_max_depth_m": 118.1801876114622, "class_mean_depth_m": 0.593047359853746, "scenario_id": "baseline", "model_type": "Automated approximate 2D flood-routing prototype", "validated_hydraulic_output": false}, "geometry": {"type": "Polygon", "coordinates": [[[75.13694976379999, 18.085282629099996], [75.13694976379999, 18.0850048511], [75.1372275418, 18.0850048511], [75.1372275418, 18.085282629099996], [75.13694976379999, 18.085282629099996]]]}}, {"type": "Feature", "properties": {"time_min": 35, "depth_min_m": 0.05, "depth_max_m": 1.0, "depth_class": "0.05\u20131.0 m", "class_area_km2": 0.0153425154636439, "flooded_area_km2": 0.9331859405533997, "frame_max_depth_m": 118.1801876114622, "class_mean_depth_m": 0.593047359853746, "scenario_id": "baseline", "model_type": "Automated approximate 2D flood-routing prototype", "validated_hydraulic_output": false}, "geometry": {"type": "Polygon", "coordinates": [[[75.1380608758, 18.084449295099997], [75.1380608758, 18.0841715171], [75.13833865379999, 18.0841715171], [75.13833865379999, 18.084449295099997], [75.1380608758, 18.084449295099997]]]}}, {"type": "Feature", "properties": {"time_min": 35, "depth_min_m": 0.05, "depth_max_m": 1.0, "depth_class": "0.05\u20131.0 m", "class_area_km2": 0.0153425154636439, "flooded_area_km2": 0.9331859405533997, "frame_max_depth_m": 118.1801876114622, "class_mean_depth_m": 0.593047359853746, "scenario_id": "baseline", "model_type": "Automated approximate 2D flood-routing prototype", "validated_hydraulic_output": false}, "geometry": {"type": "Polygon", "coordinates": [[[75.1405608778, 18.083615961099998], [75.1405608778, 18.083338183099997], [75.1408386558, 18.083338183099997], [75.1408386558, 18.083615961099998], [75.1405608778, 18.083615961099998]]]}}, {"type": "Feature", "properties": {"time_min": 35, "depth_min_m": 0.05, "depth_max_m": 1.0, "depth_class": "0.05\u20131.0 m", "class_area_km2": 0.0153425154636439, "flooded_area_km2": 0.9331859405533997, "frame_max_depth_m": 118.1801876114622, "class_mean_depth_m": 0.593047359853746, "scenario_id": "baseline", "model_type": "Automated approximate 2D flood-routing prototype", "validated_hydraulic_output": false}, "geometry": {"type": "Polygon", "coordinates": [[[75.1408386558, 18.083338183099997], [75.1408386558, 18.0830604051], [75.1411164338, 18.0830604051], [75.1411164338, 18.083338183099997], [75.1408386558, 18.083338183099997]]]}}, {"type": "Feature", "properties": {"time_min": 35, "depth_min_m": 1.0, "depth_max_m": 3.0, "depth_class": "1.0\u20133.0 m", "class_area_km2": 0.03429503456579225, "flooded_area_km2": 0.9331859405533997, "frame_max_depth_m": 118.1801876114622, "class_mean_depth_m": 2.1418230002882708, "scenario_id": "baseline", "model_type": "Automated approximate 2D flood-routing prototype", "validated_hydraulic_output": false}, "geometry": {"type": "Polygon", "coordinates": [[[75.13083864779999, 18.0952826371], [75.13083864779999, 18.094727081099997], [75.13111642579999, 18.094727081099997], [75.13111642579999, 18.0952826371], [75.13083864779999, 18.0952826371]]]}}, {"type": "Feature", "properties": {"time_min": 35, "depth_min_m": 1.0, "depth_max_m": 3.0, "depth_class": "1.0\u20133.0 m", "class_area_km2": 0.03429503456579225, "flooded_area_km2": 0.9331859405533997, "frame_max_depth_m": 118.1801876114622, "class_mean_depth_m": 2.1418230002882708, "scenario_id": "baseline", "model_type": "Automated approximate 2D flood-routing prototype", "validated_hydraulic_output": false}, "geometry": {"type": "Polygon", "coordinates": [[[75.1302830918, 18.0944493031], [75.1302830918, 18.0941715251], [75.1305608698, 18.0941715251], [75.1305608698, 18.0944493031], [75.1302830918, 18.0944493031]]]}}, {"type": "Feature", "properties": {"time_min": 35, "depth_min_m": 1.0, "depth_max_m": 3.0, "depth_class": "1.0\u20133.0 m", "class_area_km2": 0.03429503456579225, "flooded_area_km2": 0.9331859405533997, "frame_max_depth_m": 118.1801876114622, "class_mean_depth_m": 2.1418230002882708, "scenario_id": "baseline", "model_type": "Automated approximate 2D flood-routing prototype", "validated_hydraulic_output": false}, "geometry": {"type": "Polygon", "coordinates": [[[75.1297275358, 18.093060413099998], [75.1297275358, 18.092782635099997], [75.1300053138, 18.092782635099997], [75.1300053138, 18.093060413099998], [75.1297275358, 18.093060413099998]]]}}, {"type": "Feature", "properties": {"time_min": 35, "depth_min_m": 1.0, "depth_max_m": 3.0, "depth_class": "1.0\u20133.0 m", "class_area_km2": 0.03429503456579225, "flooded_area_km2": 0.9331859405533997, "frame_max_depth_m": 118.1801876114622, "class_mean_depth_m": 2.1418230002882708, "scenario_id": "baseline", "model_type": "Automated approximate 2D flood-routing prototype", "validated_hydraulic_output": false}, "geometry": {"type": "Polygon", "coordinates": [[[75.13111642579999, 18.092504857099996], [75.13111642579999, 18.0922270791], [75.1313942038, 18.0922270791], [75.1313942038, 18.092504857099996], [75.13111642579999, 18.092504857099996]]]}}, {"type": "Feature", "properties": {"time_min": 35, "depth_min_m": 1.0, "depth_max_m": 3.0, "depth_class": "1.0\u20133.0 m", "class_area_km2": 0.03429503456579225, "flooded_area_km2": 0.9331859405533997, "frame_max_depth_m": 118.1801876114622, "class_mean_depth_m": 2.1418230002882708, "scenario_id": "baseline", "model_type": "Automated approximate 2D flood-routing prototype", "validated_hydraulic_output": false}, "geometry": {"type": "Polygon", "coordinates": [[[75.1319497598, 18.091671523099997], [75.1319497598, 18.0913937451], [75.13222753779999, 18.0913937451], [75.13222753779999, 18.091671523099997], [75.1319497598, 18.091671523099997]]]}}, {"type": "Feature", "properties": {"time_min": 35, "depth_min_m": 1.0, "depth_max_m": 3.0, "depth_class": "1.0\u20133.0 m", "class_area_km2": 0.03429503456579225, "flooded_area_km2": 0.9331859405533997, "frame_max_depth_m": 118.1801876114622, "class_mean_depth_m": 2.1418230002882708, "scenario_id": "baseline", "model_type": "Automated approximate 2D flood-routing prototype", "validated_hydraulic_output": false}, "geometry": {"type": "Polygon", "coordinates": [[[75.1327830938, 18.0902826331], [75.1327830938, 18.0900048551], [75.1330608718, 18.0900048551], [75.1330608718, 18.0902826331], [75.1327830938, 18.0902826331]]]}}, {"type": "Feature", "properties": {"time_min": 35, "depth_min_m": 1.0, "depth_max_m": 3.0, "depth_class": "1.0\u20133.0 m", "class_area_km2": 0.03429503456579225, "flooded_area_km2": 0.9331859405533997, "frame_max_depth_m": 118.1801876114622, "class_mean_depth_m": 2.1418230002882708, "scenario_id": "baseline", "model_type": "Automated approximate 2D flood-routing prototype", "validated_hydraulic_output": false}, "geometry": {"type": "Polygon", "coordinates": [[[75.1327830938, 18.089727077099997], [75.1327830938, 18.089449299099996], [75.1330608718, 18.089449299099996], [75.1330608718, 18.089727077099997], [75.1327830938, 18.089727077099997]]]}}, {"type": "Feature", "properties": {"time_min": 35, "depth_min_m": 1.0, "depth_max_m": 3.0, "depth_class": "1.0\u20133.0 m", "class_area_km2": 0.03429503456579225, "flooded_area_km2": 0.9331859405533997, "frame_max_depth_m": 118.1801876114622, "class_mean_depth_m": 2.1418230002882708, "scenario_id": "baseline", "model_type": "Automated approximate 2D flood-routing prototype", "validated_hydraulic_output": false}, "geometry": {"type": "Polygon", "coordinates": [[[75.1330608718, 18.0891715211], [75.1330608718, 18.088893743099998], [75.1333386498, 18.088893743099998], [75.1333386498, 18.0891715211], [75.1330608718, 18.0891715211]]]}}, {"type": "Feature", "properties": {"time_min": 35, "depth_min_m": 1.0, "depth_max_m": 3.0, "depth_class": "1.0\u20133.0 m", "class_area_km2": 0.03429503456579225, "flooded_area_km2": 0.9331859405533997, "frame_max_depth_m": 118.1801876114622, "class_mean_depth_m": 2.1418230002882708, "scenario_id": "baseline", "model_type": "Automated approximate 2D flood-routing prototype", "validated_hydraulic_output": false}, "geometry": {"type": "Polygon", "coordinates": [[[75.13389420579999, 18.088338187099996], [75.13389420579999, 18.0880604091], [75.1344497618, 18.0880604091], [75.1344497618, 18.088338187099996], [75.13389420579999, 18.088338187099996]]]}}, {"type": "Feature", "properties": {"time_min": 35, "depth_min_m": 1.0, "depth_max_m": 3.0, "depth_class": "1.0\u20133.0 m", "class_area_km2": 0.03429503456579225, "flooded_area_km2": 0.9331859405533997, "frame_max_depth_m": 118.1801876114622, "class_mean_depth_m": 2.1418230002882708, "scenario_id": "baseline", "model_type": "Automated approximate 2D flood-routing prototype", "validated_hydraulic_output": false}, "geometry": {"type": "Polygon", "coordinates": [[[75.1347275398, 18.087782631099998], [75.1347275398, 18.087504853099997], [75.1350053178, 18.087504853099997], [75.1350053178, 18.087782631099998], [75.1347275398, 18.087782631099998]]]}}, {"type": "Feature", "properties": {"time_min": 35, "depth_min_m": 1.0, "depth_max_m": 3.0, "depth_class": "1.0\u20133.0 m", "class_area_km2": 0.03429503456579225, "flooded_area_km2": 0.9331859405533997, "frame_max_depth_m": 118.1801876114622, "class_mean_depth_m": 2.1418230002882708, "scenario_id": "baseline", "model_type": "Automated approximate 2D flood-routing prototype", "validated_hydraulic_output": false}, "geometry": {"type": "Polygon", "coordinates": [[[75.1394497658, 18.0869492971], [75.1394497658, 18.086671519099998], [75.1391719878, 18.086671519099998], [75.1391719878, 18.086393741099997], [75.13972754379999, 18.086393741099997], [75.13972754379999, 18.0869492971], [75.1394497658, 18.0869492971]]]}}, {"type": "Feature", "properties": {"time_min": 35, "depth_min_m": 1.0, "depth_max_m": 3.0, "depth_class": "1.0\u20133.0 m", "class_area_km2": 0.03429503456579225, "flooded_area_km2": 0.9331859405533997, "frame_max_depth_m": 118.1801876114622, "class_mean_depth_m": 2.1418230002882708, "scenario_id": "baseline", "model_type": "Automated approximate 2D flood-routing prototype", "validated_hydraulic_output": false}, "geometry": {"type": "Polygon", "coordinates": [[[75.1350053178, 18.085560407099997], [75.1350053178, 18.085282629099996], [75.13528309579999, 18.085282629099996], [75.13528309579999, 18.085560407099997], [75.1350053178, 18.085560407099997]]]}}, {"type": "Feature", "properties": {"time_min": 35, "depth_min_m": 1.0, "depth_max_m": 3.0, "depth_class": "1.0\u20133.0 m", "class_area_km2": 0.03429503456579225, "flooded_area_km2": 0.9331859405533997, "frame_max_depth_m": 118.1801876114622, "class_mean_depth_m": 2.1418230002882708, "scenario_id": "baseline", "model_type": "Automated approximate 2D flood-routing prototype", "validated_hydraulic_output": false}, "geometry": {"type": "Polygon", "coordinates": [[[75.13667198579999, 18.085560407099997], [75.13667198579999, 18.085282629099996], [75.13694976379999, 18.085282629099996], [75.13694976379999, 18.085560407099997], [75.13667198579999, 18.085560407099997]]]}}, {"type": "Feature", "properties": {"time_min": 35, "depth_min_m": 1.0, "depth_max_m": 3.0, "depth_class": "1.0\u20133.0 m", "class_area_km2": 0.03429503456579225, "flooded_area_km2": 0.9331859405533997, "frame_max_depth_m": 118.1801876114622, "class_mean_depth_m": 2.1418230002882708, "scenario_id": "baseline", "model_type": "Automated approximate 2D flood-routing prototype", "validated_hydraulic_output": false}, "geometry": {"type": "Polygon", "coordinates": [[[75.1402830998, 18.085560407099997], [75.1402830998, 18.0850048511], [75.1408386558, 18.0850048511], [75.1408386558, 18.085282629099996], [75.1405608778, 18.085282629099996], [75.1405608778, 18.085560407099997], [75.1402830998, 18.085560407099997]]]}}, {"type": "Feature", "properties": {"time_min": 35, "depth_min_m": 1.0, "depth_max_m": 3.0, "depth_class": "1.0\u20133.0 m", "class_area_km2": 0.03429503456579225, "flooded_area_km2": 0.9331859405533997, "frame_max_depth_m": 118.1801876114622, "class_mean_depth_m": 2.1418230002882708, "scenario_id": "baseline", "model_type": "Automated approximate 2D flood-routing prototype", "validated_hydraulic_output": false}, "geometry": {"type": "Polygon", "coordinates": [[[75.1361164298, 18.085282629099996], [75.1361164298, 18.0850048511], [75.1363942078, 18.0850048511], [75.1363942078, 18.085282629099996], [75.1361164298, 18.085282629099996]]]}}, {"type": "Feature", "properties": {"time_min": 35, "depth_min_m": 1.0, "depth_max_m": 3.0, "depth_class": "1.0\u20133.0 m", "class_area_km2": 0.03429503456579225, "flooded_area_km2": 0.9331859405533997, "frame_max_depth_m": 118.1801876114622, "class_mean_depth_m": 2.1418230002882708, "scenario_id": "baseline", "model_type": "Automated approximate 2D flood-routing prototype", "validated_hydraulic_output": false}, "geometry": {"type": "Polygon", "coordinates": [[[75.1375053198, 18.085282629099996], [75.1375053198, 18.0850048511], [75.1377830978, 18.0850048511], [75.1377830978, 18.085282629099996], [75.1375053198, 18.085282629099996]]]}}, {"type": "Feature", "properties": {"time_min": 35, "depth_min_m": 1.0, "depth_max_m": 3.0, "depth_class": "1.0\u20133.0 m", "class_area_km2": 0.03429503456579225, "flooded_area_km2": 0.9331859405533997, "frame_max_depth_m": 118.1801876114622, "class_mean_depth_m": 2.1418230002882708, "scenario_id": "baseline", "model_type": "Automated approximate 2D flood-routing prototype", "validated_hydraulic_output": false}, "geometry": {"type": "Polygon", "coordinates": [[[75.13861643179999, 18.085282629099996], [75.13861643179999, 18.0850048511], [75.1388942098, 18.0850048511], [75.1388942098, 18.085282629099996], [75.13861643179999, 18.085282629099996]]]}}, {"type": "Feature", "properties": {"time_min": 35, "depth_min_m": 1.0, "depth_max_m": 3.0, "depth_class": "1.0\u20133.0 m", "class_area_km2": 0.03429503456579225, "flooded_area_km2": 0.9331859405533997, "frame_max_depth_m": 118.1801876114622, "class_mean_depth_m": 2.1418230002882708, "scenario_id": "baseline", "model_type": "Automated approximate 2D flood-routing prototype", "validated_hydraulic_output": false}, "geometry": {"type": "Polygon", "coordinates": [[[75.1391719878, 18.0850048511], [75.1391719878, 18.084727073099998], [75.1394497658, 18.084727073099998], [75.1394497658, 18.0850048511], [75.1391719878, 18.0850048511]]]}}, {"type": "Feature", "properties": {"time_min": 35, "depth_min_m": 1.0, "depth_max_m": 3.0, "depth_class": "1.0\u20133.0 m", "class_area_km2": 0.03429503456579225, "flooded_area_km2": 0.9331859405533997, "frame_max_depth_m": 118.1801876114622, "class_mean_depth_m": 2.1418230002882708, "scenario_id": "baseline", "model_type": "Automated approximate 2D flood-routing prototype", "validated_hydraulic_output": false}, "geometry": {"type": "Polygon", "coordinates": [[[75.14000532179999, 18.0850048511], [75.14000532179999, 18.084727073099998], [75.1402830998, 18.084727073099998], [75.1402830998, 18.0850048511], [75.14000532179999, 18.0850048511]]]}}, {"type": "Feature", "properties": {"time_min": 35, "depth_min_m": 1.0, "depth_max_m": 3.0, "depth_class": "1.0\u20133.0 m", "class_area_km2": 0.03429503456579225, "flooded_area_km2": 0.9331859405533997, "frame_max_depth_m": 118.1801876114622, "class_mean_depth_m": 2.1418230002882708, "scenario_id": "baseline", "model_type": "Automated approximate 2D flood-routing prototype", "validated_hydraulic_output": false}, "geometry": {"type": "Polygon", "coordinates": [[[75.1377830978, 18.0850048511], [75.1377830978, 18.084449295099997], [75.1380608758, 18.084449295099997], [75.1380608758, 18.084727073099998], [75.13861643179999, 18.084727073099998], [75.13861643179999, 18.0850048511], [75.1377830978, 18.0850048511]]]}}, {"type": "Feature", "properties": {"time_min": 35, "depth_min_m": 1.0, "depth_max_m": 3.0, "depth_class": "1.0\u20133.0 m", "class_area_km2": 0.03429503456579225, "flooded_area_km2": 0.9331859405533997, "frame_max_depth_m": 118.1801876114622, "class_mean_depth_m": 2.1418230002882708, "scenario_id": "baseline", "model_type": "Automated approximate 2D flood-routing prototype", "validated_hydraulic_output": false}, "geometry": {"type": "Polygon", "coordinates": [[[75.13694976379999, 18.084727073099998], [75.13694976379999, 18.084449295099997], [75.1372275418, 18.084449295099997], [75.1372275418, 18.084727073099998], [75.13694976379999, 18.084727073099998]]]}}, {"type": "Feature", "properties": {"time_min": 35, "depth_min_m": 1.0, "depth_max_m": 3.0, "depth_class": "1.0\u20133.0 m", "class_area_km2": 0.03429503456579225, "flooded_area_km2": 0.9331859405533997, "frame_max_depth_m": 118.1801876114622, "class_mean_depth_m": 2.1418230002882708, "scenario_id": "baseline", "model_type": "Automated approximate 2D flood-routing prototype", "validated_hydraulic_output": false}, "geometry": {"type": "Polygon", "coordinates": [[[75.13861643179999, 18.084727073099998], [75.13861643179999, 18.084449295099997], [75.1388942098, 18.084449295099997], [75.1388942098, 18.084727073099998], [75.13861643179999, 18.084727073099998]]]}}, {"type": "Feature", "properties": {"time_min": 35, "depth_min_m": 1.0, "depth_max_m": 3.0, "depth_class": "1.0\u20133.0 m", "class_area_km2": 0.03429503456579225, "flooded_area_km2": 0.9331859405533997, "frame_max_depth_m": 118.1801876114622, "class_mean_depth_m": 2.1418230002882708, "scenario_id": "baseline", "model_type": "Automated approximate 2D flood-routing prototype", "validated_hydraulic_output": false}, "geometry": {"type": "Polygon", "coordinates": [[[75.1405608778, 18.0841715171], [75.1405608778, 18.0838937391], [75.1422275458, 18.0838937391], [75.1422275458, 18.0841715171], [75.1405608778, 18.0841715171]]]}}, {"type": "Feature", "properties": {"time_min": 35, "depth_min_m": 1.0, "depth_max_m": 3.0, "depth_class": "1.0\u20133.0 m", "class_area_km2": 0.03429503456579225, "flooded_area_km2": 0.9331859405533997, "frame_max_depth_m": 118.1801876114622, "class_mean_depth_m": 2.1418230002882708, "scenario_id": "baseline", "model_type": "Automated approximate 2D flood-routing prototype", "validated_hydraulic_output": false}, "geometry": {"type": "Polygon", "coordinates": [[[75.1411164338, 18.083338183099997], [75.1411164338, 18.0830604051], [75.14139421179999, 18.0830604051], [75.14139421179999, 18.083338183099997], [75.1411164338, 18.083338183099997]]]}}, {"type": "Feature", "properties": {"time_min": 35, "depth_min_m": 3.0, "depth_max_m": 6.0, "depth_class": "3.0\u20136.0 m", "class_area_km2": 0.04963755002943615, "flooded_area_km2": 0.9331859405533997, "frame_max_depth_m": 118.1801876114622, "class_mean_depth_m": 4.564524880638338, "scenario_id": "baseline", "model_type": "Automated approximate 2D flood-routing prototype", "validated_hydraulic_output": false}, "geometry": {"type": "Polygon", "coordinates": [[[75.1316719818, 18.095004859099998], [75.1316719818, 18.0944493031], [75.1319497598, 18.0944493031], [75.1319497598, 18.095004859099998], [75.1316719818, 18.095004859099998]]]}}, {"type": "Feature", "properties": {"time_min": 35, "depth_min_m": 3.0, "depth_max_m": 6.0, "depth_class": "3.0\u20136.0 m", "class_area_km2": 0.04963755002943615, "flooded_area_km2": 0.9331859405533997, "frame_max_depth_m": 118.1801876114622, "class_mean_depth_m": 4.564524880638338, "scenario_id": "baseline", "model_type": "Automated approximate 2D flood-routing prototype", "validated_hydraulic_output": false}, "geometry": {"type": "Polygon", "coordinates": [[[75.1327830938, 18.0944493031], [75.1327830938, 18.093893747099997], [75.1330608718, 18.093893747099997], [75.1330608718, 18.0944493031], [75.1327830938, 18.0944493031]]]}}, {"type": "Feature", "properties": {"time_min": 35, "depth_min_m": 3.0, "depth_max_m": 6.0, "depth_class": "3.0\u20136.0 m", "class_area_km2": 0.04963755002943615, "flooded_area_km2": 0.9331859405533997, "frame_max_depth_m": 118.1801876114622, "class_mean_depth_m": 4.564524880638338, "scenario_id": "baseline", "model_type": "Automated approximate 2D flood-routing prototype", "validated_hydraulic_output": false}, "geometry": {"type": "Polygon", "coordinates": [[[75.1305608698, 18.093893747099997], [75.1305608698, 18.093615969099996], [75.13083864779999, 18.093615969099996], [75.13083864779999, 18.093893747099997], [75.1305608698, 18.093893747099997]]]}}, {"type": "Feature", "properties": {"time_min": 35, "depth_min_m": 3.0, "depth_max_m": 6.0, "depth_class": "3.0\u20136.0 m", "class_area_km2": 0.04963755002943615, "flooded_area_km2": 0.9331859405533997, "frame_max_depth_m": 118.1801876114622, "class_mean_depth_m": 4.564524880638338, "scenario_id": "baseline", "model_type": "Automated approximate 2D flood-routing prototype", "validated_hydraulic_output": false}, "geometry": {"type": "Polygon", "coordinates": [[[75.1302830918, 18.093615969099996], [75.1302830918, 18.0933381911], [75.1305608698, 18.0933381911], [75.1305608698, 18.093615969099996], [75.1302830918, 18.093615969099996]]]}}, {"type": "Feature", "properties": {"time_min": 35, "depth_min_m": 3.0, "depth_max_m": 6.0, "depth_class": "3.0\u20136.0 m", "class_area_km2": 0.04963755002943615, "flooded_area_km2": 0.9331859405533997, "frame_max_depth_m": 118.1801876114622, "class_mean_depth_m": 4.564524880638338, "scenario_id": "baseline", "model_type": "Automated approximate 2D flood-routing prototype", "validated_hydraulic_output": false}, "geometry": {"type": "Polygon", "coordinates": [[[75.1305608698, 18.092782635099997], [75.1305608698, 18.092504857099996], [75.13083864779999, 18.092504857099996], [75.13083864779999, 18.092782635099997], [75.1305608698, 18.092782635099997]]]}}, {"type": "Feature", "properties": {"time_min": 35, "depth_min_m": 3.0, "depth_max_m": 6.0, "depth_class": "3.0\u20136.0 m", "class_area_km2": 0.04963755002943615, "flooded_area_km2": 0.9331859405533997, "frame_max_depth_m": 118.1801876114622, "class_mean_depth_m": 4.564524880638338, "scenario_id": "baseline", "model_type": "Automated approximate 2D flood-routing prototype", "validated_hydraulic_output": false}, "geometry": {"type": "Polygon", "coordinates": [[[75.1316719818, 18.0922270791], [75.1316719818, 18.091949301099998], [75.1319497598, 18.091949301099998], [75.1319497598, 18.0922270791], [75.1316719818, 18.0922270791]]]}}, {"type": "Feature", "properties": {"time_min": 35, "depth_min_m": 3.0, "depth_max_m": 6.0, "depth_class": "3.0\u20136.0 m", "class_area_km2": 0.04963755002943615, "flooded_area_km2": 0.9331859405533997, "frame_max_depth_m": 118.1801876114622, "class_mean_depth_m": 4.564524880638338, "scenario_id": "baseline", "model_type": "Automated approximate 2D flood-routing prototype", "validated_hydraulic_output": false}, "geometry": {"type": "Polygon", "coordinates": [[[75.13222753779999, 18.091671523099997], [75.13222753779999, 18.0911159671], [75.13250531579999, 18.0911159671], [75.13250531579999, 18.091671523099997], [75.13222753779999, 18.091671523099997]]]}}, {"type": "Feature", "properties": {"time_min": 35, "depth_min_m": 3.0, "depth_max_m": 6.0, "depth_class": "3.0\u20136.0 m", "class_area_km2": 0.04963755002943615, "flooded_area_km2": 0.9331859405533997, "frame_max_depth_m": 118.1801876114622, "class_mean_depth_m": 4.564524880638338, "scenario_id": "baseline", "model_type": "Automated approximate 2D flood-routing prototype", "validated_hydraulic_output": false}, "geometry": {"type": "Polygon", "coordinates": [[[75.13250531579999, 18.0911159671], [75.13250531579999, 18.090560411099997], [75.1327830938, 18.090560411099997], [75.1327830938, 18.0911159671], [75.13250531579999, 18.0911159671]]]}}, {"type": "Feature", "properties": {"time_min": 35, "depth_min_m": 3.0, "depth_max_m": 6.0, "depth_class": "3.0\u20136.0 m", "class_area_km2": 0.04963755002943615, "flooded_area_km2": 0.9331859405533997, "frame_max_depth_m": 118.1801876114622, "class_mean_depth_m": 4.564524880638338, "scenario_id": "baseline", "model_type": "Automated approximate 2D flood-routing prototype", "validated_hydraulic_output": false}, "geometry": {"type": "Polygon", "coordinates": [[[75.1327830938, 18.090560411099997], [75.1327830938, 18.0902826331], [75.1330608718, 18.0902826331], [75.1330608718, 18.090560411099997], [75.1327830938, 18.090560411099997]]]}}, {"type": "Feature", "properties": {"time_min": 35, "depth_min_m": 3.0, "depth_max_m": 6.0, "depth_class": "3.0\u20136.0 m", "class_area_km2": 0.04963755002943615, "flooded_area_km2": 0.9331859405533997, "frame_max_depth_m": 118.1801876114622, "class_mean_depth_m": 4.564524880638338, "scenario_id": "baseline", "model_type": "Automated approximate 2D flood-routing prototype", "validated_hydraulic_output": false}, "geometry": {"type": "Polygon", "coordinates": [[[75.1330608718, 18.0900048551], [75.1330608718, 18.0891715211], [75.1333386498, 18.0891715211], [75.1333386498, 18.0900048551], [75.1330608718, 18.0900048551]]]}}, {"type": "Feature", "properties": {"time_min": 35, "depth_min_m": 3.0, "depth_max_m": 6.0, "depth_class": "3.0\u20136.0 m", "class_area_km2": 0.04963755002943615, "flooded_area_km2": 0.9331859405533997, "frame_max_depth_m": 118.1801876114622, "class_mean_depth_m": 4.564524880638338, "scenario_id": "baseline", "model_type": "Automated approximate 2D flood-routing prototype", "validated_hydraulic_output": false}, "geometry": {"type": "Polygon", "coordinates": [[[75.1333386498, 18.088893743099998], [75.1333386498, 18.088338187099996], [75.13361642779999, 18.088338187099996], [75.13361642779999, 18.087782631099998], [75.13417198379999, 18.087782631099998], [75.13417198379999, 18.0880604091], [75.13389420579999, 18.0880604091], [75.13389420579999, 18.088338187099996], [75.13417198379999, 18.088338187099996], [75.13417198379999, 18.088615965099997], [75.13389420579999, 18.088615965099997], [75.13389420579999, 18.088893743099998], [75.1333386498, 18.088893743099998]]]}}, {"type": "Feature", "properties": {"time_min": 35, "depth_min_m": 3.0, "depth_max_m": 6.0, "depth_class": "3.0\u20136.0 m", "class_area_km2": 0.04963755002943615, "flooded_area_km2": 0.9331859405533997, "frame_max_depth_m": 118.1801876114622, "class_mean_depth_m": 4.564524880638338, "scenario_id": "baseline", "model_type": "Automated approximate 2D flood-routing prototype", "validated_hydraulic_output": false}, "geometry": {"type": "Polygon", "coordinates": [[[75.1350053178, 18.087782631099998], [75.1350053178, 18.0869492971], [75.13528309579999, 18.0869492971], [75.13528309579999, 18.087782631099998], [75.1350053178, 18.087782631099998]]]}}, {"type": "Feature", "properties": {"time_min": 35, "depth_min_m": 3.0, "depth_max_m": 6.0, "depth_class": "3.0\u20136.0 m", "class_area_km2": 0.04963755002943615, "flooded_area_km2": 0.9331859405533997, "frame_max_depth_m": 118.1801876114622, "class_mean_depth_m": 4.564524880638338, "scenario_id": "baseline", "model_type": "Automated approximate 2D flood-routing prototype", "validated_hydraulic_output": false}, "geometry": {"type": "Polygon", "coordinates": [[[75.1347275398, 18.0869492971], [75.1347275398, 18.086671519099998], [75.1350053178, 18.086671519099998], [75.1350053178, 18.0869492971], [75.1347275398, 18.0869492971]]]}}, {"type": "Feature", "properties": {"time_min": 35, "depth_min_m": 3.0, "depth_max_m": 6.0, "depth_class": "3.0\u20136.0 m", "class_area_km2": 0.04963755002943615, "flooded_area_km2": 0.9331859405533997, "frame_max_depth_m": 118.1801876114622, "class_mean_depth_m": 4.564524880638338, "scenario_id": "baseline", "model_type": "Automated approximate 2D flood-routing prototype", "validated_hydraulic_output": false}, "geometry": {"type": "Polygon", "coordinates": [[[75.13417198379999, 18.0861159631], [75.13417198379999, 18.0858381851], [75.1344497618, 18.0858381851], [75.1344497618, 18.0861159631], [75.13417198379999, 18.0861159631]]]}}, {"type": "Feature", "properties": {"time_min": 35, "depth_min_m": 3.0, "depth_max_m": 6.0, "depth_class": "3.0\u20136.0 m", "class_area_km2": 0.04963755002943615, "flooded_area_km2": 0.9331859405533997, "frame_max_depth_m": 118.1801876114622, "class_mean_depth_m": 4.564524880638338, "scenario_id": "baseline", "model_type": "Automated approximate 2D flood-routing prototype", "validated_hydraulic_output": false}, "geometry": {"type": "Polygon", "coordinates": [[[75.1350053178, 18.0861159631], [75.1350053178, 18.0858381851], [75.13528309579999, 18.0858381851], [75.13528309579999, 18.0861159631], [75.1350053178, 18.0861159631]]]}}, {"type": "Feature", "properties": {"time_min": 35, "depth_min_m": 3.0, "depth_max_m": 6.0, "depth_class": "3.0\u20136.0 m", "class_area_km2": 0.04963755002943615, "flooded_area_km2": 0.9331859405533997, "frame_max_depth_m": 118.1801876114622, "class_mean_depth_m": 4.564524880638338, "scenario_id": "baseline", "model_type": "Automated approximate 2D flood-routing prototype", "validated_hydraulic_output": false}, "geometry": {"type": "Polygon", "coordinates": [[[75.13361642779999, 18.0858381851], [75.13361642779999, 18.085560407099997], [75.13417198379999, 18.085560407099997], [75.13417198379999, 18.0858381851], [75.13361642779999, 18.0858381851]]]}}, {"type": "Feature", "properties": {"time_min": 35, "depth_min_m": 3.0, "depth_max_m": 6.0, "depth_class": "3.0\u20136.0 m", "class_area_km2": 0.04963755002943615, "flooded_area_km2": 0.9331859405533997, "frame_max_depth_m": 118.1801876114622, "class_mean_depth_m": 4.564524880638338, "scenario_id": "baseline", "model_type": "Automated approximate 2D flood-routing prototype", "validated_hydraulic_output": false}, "geometry": {"type": "Polygon", "coordinates": [[[75.1361164298, 18.085560407099997], [75.1361164298, 18.085282629099996], [75.1363942078, 18.085282629099996], [75.1363942078, 18.085560407099997], [75.1361164298, 18.085560407099997]]]}}, {"type": "Feature", "properties": {"time_min": 35, "depth_min_m": 3.0, "depth_max_m": 6.0, "depth_class": "3.0\u20136.0 m", "class_area_km2": 0.04963755002943615, "flooded_area_km2": 0.9331859405533997, "frame_max_depth_m": 118.1801876114622, "class_mean_depth_m": 4.564524880638338, "scenario_id": "baseline", "model_type": "Automated approximate 2D flood-routing prototype", "validated_hydraulic_output": false}, "geometry": {"type": "Polygon", "coordinates": [[[75.13694976379999, 18.085560407099997], [75.13694976379999, 18.085282629099996], [75.1372275418, 18.085282629099996], [75.1372275418, 18.085560407099997], [75.13694976379999, 18.085560407099997]]]}}, {"type": "Feature", "properties": {"time_min": 35, "depth_min_m": 3.0, "depth_max_m": 6.0, "depth_class": "3.0\u20136.0 m", "class_area_km2": 0.04963755002943615, "flooded_area_km2": 0.9331859405533997, "frame_max_depth_m": 118.1801876114622, "class_mean_depth_m": 4.564524880638338, "scenario_id": "baseline", "model_type": "Automated approximate 2D flood-routing prototype", "validated_hydraulic_output": false}, "geometry": {"type": "Polygon", "coordinates": [[[75.1405608778, 18.085560407099997], [75.1405608778, 18.085282629099996], [75.1408386558, 18.085282629099996], [75.1408386558, 18.085560407099997], [75.1405608778, 18.085560407099997]]]}}, {"type": "Feature", "properties": {"time_min": 35, "depth_min_m": 3.0, "depth_max_m": 6.0, "depth_class": "3.0\u20136.0 m", "class_area_km2": 0.04963755002943615, "flooded_area_km2": 0.9331859405533997, "frame_max_depth_m": 118.1801876114622, "class_mean_depth_m": 4.564524880638338, "scenario_id": "baseline", "model_type": "Automated approximate 2D flood-routing prototype", "validated_hydraulic_output": false}, "geometry": {"type": "Polygon", "coordinates": [[[75.13556087379999, 18.085282629099996], [75.13556087379999, 18.0850048511], [75.1361164298, 18.0850048511], [75.1361164298, 18.085282629099996], [75.13556087379999, 18.085282629099996]]]}}, {"type": "Feature", "properties": {"time_min": 35, "depth_min_m": 3.0, "depth_max_m": 6.0, "depth_class": "3.0\u20136.0 m", "class_area_km2": 0.04963755002943615, "flooded_area_km2": 0.9331859405533997, "frame_max_depth_m": 118.1801876114622, "class_mean_depth_m": 4.564524880638338, "scenario_id": "baseline", "model_type": "Automated approximate 2D flood-routing prototype", "validated_hydraulic_output": false}, "geometry": {"type": "Polygon", "coordinates": [[[75.1372275418, 18.085282629099996], [75.1372275418, 18.0850048511], [75.1375053198, 18.0850048511], [75.1375053198, 18.085282629099996], [75.1372275418, 18.085282629099996]]]}}, {"type": "Feature", "properties": {"time_min": 35, "depth_min_m": 3.0, "depth_max_m": 6.0, "depth_class": "3.0\u20136.0 m", "class_area_km2": 0.04963755002943615, "flooded_area_km2": 0.9331859405533997, "frame_max_depth_m": 118.1801876114622, "class_mean_depth_m": 4.564524880638338, "scenario_id": "baseline", "model_type": "Automated approximate 2D flood-routing prototype", "validated_hydraulic_output": false}, "geometry": {"type": "Polygon", "coordinates": [[[75.1377830978, 18.085282629099996], [75.1377830978, 18.0850048511], [75.13861643179999, 18.0850048511], [75.13861643179999, 18.085282629099996], [75.1377830978, 18.085282629099996]]]}}, {"type": "Feature", "properties": {"time_min": 35, "depth_min_m": 3.0, "depth_max_m": 6.0, "depth_class": "3.0\u20136.0 m", "class_area_km2": 0.04963755002943615, "flooded_area_km2": 0.9331859405533997, "frame_max_depth_m": 118.1801876114622, "class_mean_depth_m": 4.564524880638338, "scenario_id": "baseline", "model_type": "Automated approximate 2D flood-routing prototype", "validated_hydraulic_output": false}, "geometry": {"type": "Polygon", "coordinates": [[[75.1388942098, 18.085282629099996], [75.1388942098, 18.0850048511], [75.1391719878, 18.0850048511], [75.1391719878, 18.085282629099996], [75.1388942098, 18.085282629099996]]]}}, {"type": "Feature", "properties": {"time_min": 35, "depth_min_m": 3.0, "depth_max_m": 6.0, "depth_class": "3.0\u20136.0 m", "class_area_km2": 0.04963755002943615, "flooded_area_km2": 0.9331859405533997, "frame_max_depth_m": 118.1801876114622, "class_mean_depth_m": 4.564524880638338, "scenario_id": "baseline", "model_type": "Automated approximate 2D flood-routing prototype", "validated_hydraulic_output": false}, "geometry": {"type": "Polygon", "coordinates": [[[75.14000532179999, 18.085282629099996], [75.14000532179999, 18.0850048511], [75.1402830998, 18.0850048511], [75.1402830998, 18.085282629099996], [75.14000532179999, 18.085282629099996]]]}}, {"type": "Feature", "properties": {"time_min": 35, "depth_min_m": 3.0, "depth_max_m": 6.0, "depth_class": "3.0\u20136.0 m", "class_area_km2": 0.04963755002943615, "flooded_area_km2": 0.9331859405533997, "frame_max_depth_m": 118.1801876114622, "class_mean_depth_m": 4.564524880638338, "scenario_id": "baseline", "model_type": "Automated approximate 2D flood-routing prototype", "validated_hydraulic_output": false}, "geometry": {"type": "Polygon", "coordinates": [[[75.13694976379999, 18.0850048511], [75.13694976379999, 18.084727073099998], [75.1372275418, 18.084727073099998], [75.1372275418, 18.0850048511], [75.13694976379999, 18.0850048511]]]}}, {"type": "Feature", "properties": {"time_min": 35, "depth_min_m": 3.0, "depth_max_m": 6.0, "depth_class": "3.0\u20136.0 m", "class_area_km2": 0.04963755002943615, "flooded_area_km2": 0.9331859405533997, "frame_max_depth_m": 118.1801876114622, "class_mean_depth_m": 4.564524880638338, "scenario_id": "baseline", "model_type": "Automated approximate 2D flood-routing prototype", "validated_hydraulic_output": false}, "geometry": {"type": "Polygon", "coordinates": [[[75.1375053198, 18.0850048511], [75.1375053198, 18.084727073099998], [75.1377830978, 18.084727073099998], [75.1377830978, 18.0850048511], [75.1375053198, 18.0850048511]]]}}, {"type": "Feature", "properties": {"time_min": 35, "depth_min_m": 3.0, "depth_max_m": 6.0, "depth_class": "3.0\u20136.0 m", "class_area_km2": 0.04963755002943615, "flooded_area_km2": 0.9331859405533997, "frame_max_depth_m": 118.1801876114622, "class_mean_depth_m": 4.564524880638338, "scenario_id": "baseline", "model_type": "Automated approximate 2D flood-routing prototype", "validated_hydraulic_output": false}, "geometry": {"type": "Polygon", "coordinates": [[[75.1394497658, 18.0850048511], [75.1394497658, 18.084727073099998], [75.13972754379999, 18.084727073099998], [75.13972754379999, 18.0850048511], [75.1394497658, 18.0850048511]]]}}, {"type": "Feature", "properties": {"time_min": 35, "depth_min_m": 3.0, "depth_max_m": 6.0, "depth_class": "3.0\u20136.0 m", "class_area_km2": 0.04963755002943615, "flooded_area_km2": 0.9331859405533997, "frame_max_depth_m": 118.1801876114622, "class_mean_depth_m": 4.564524880638338, "scenario_id": "baseline", "model_type": "Automated approximate 2D flood-routing prototype", "validated_hydraulic_output": false}, "geometry": {"type": "Polygon", "coordinates": [[[75.1380608758, 18.084727073099998], [75.1380608758, 18.084449295099997], [75.13861643179999, 18.084449295099997], [75.13861643179999, 18.084727073099998], [75.1380608758, 18.084727073099998]]]}}, {"type": "Feature", "properties": {"time_min": 35, "depth_min_m": 3.0, "depth_max_m": 6.0, "depth_class": "3.0\u20136.0 m", "class_area_km2": 0.04963755002943615, "flooded_area_km2": 0.9331859405533997, "frame_max_depth_m": 118.1801876114622, "class_mean_depth_m": 4.564524880638338, "scenario_id": "baseline", "model_type": "Automated approximate 2D flood-routing prototype", "validated_hydraulic_output": false}, "geometry": {"type": "Polygon", "coordinates": [[[75.1405608778, 18.084727073099998], [75.1405608778, 18.0841715171], [75.1408386558, 18.0841715171], [75.1408386558, 18.084449295099997], [75.1411164338, 18.084449295099997], [75.1411164338, 18.0841715171], [75.14139421179999, 18.0841715171], [75.14139421179999, 18.084727073099998], [75.1405608778, 18.084727073099998]]]}}, {"type": "Feature", "properties": {"time_min": 35, "depth_min_m": 3.0, "depth_max_m": 6.0, "depth_class": "3.0\u20136.0 m", "class_area_km2": 0.04963755002943615, "flooded_area_km2": 0.9331859405533997, "frame_max_depth_m": 118.1801876114622, "class_mean_depth_m": 4.564524880638338, "scenario_id": "baseline", "model_type": "Automated approximate 2D flood-routing prototype", "validated_hydraulic_output": false}, "geometry": {"type": "Polygon", "coordinates": [[[75.1422275458, 18.0838937391], [75.1422275458, 18.083615961099998], [75.14278310179999, 18.083615961099998], [75.14278310179999, 18.0838937391], [75.1422275458, 18.0838937391]]]}}, {"type": "Feature", "properties": {"time_min": 35, "depth_min_m": 6.0, "depth_max_m": null, "depth_class": "6.0+ m", "class_area_km2": 0.8339108404945274, "flooded_area_km2": 0.9331859405533997, "frame_max_depth_m": 118.1801876114622, "class_mean_depth_m": 41.74351422828614, "scenario_id": "baseline", "model_type": "Automated approximate 2D flood-routing prototype", "validated_hydraulic_output": false}, "geometry": {"type": "Polygon", "coordinates": [[[75.13389420579999, 18.0861159631], [75.13389420579999, 18.0858381851], [75.13417198379999, 18.0858381851], [75.13417198379999, 18.0861159631], [75.13389420579999, 18.0861159631]]]}}, {"type": "Feature", "properties": {"time_min": 35, "depth_min_m": 6.0, "depth_max_m": null, "depth_class": "6.0+ m", "class_area_km2": 0.8339108404945274, "flooded_area_km2": 0.9331859405533997, "frame_max_depth_m": 118.1801876114622, "class_mean_depth_m": 41.74351422828614, "scenario_id": "baseline", "model_type": "Automated approximate 2D flood-routing prototype", "validated_hydraulic_output": false}, "geometry": {"type": "Polygon", "coordinates": [[[75.13361642779999, 18.085560407099997], [75.13361642779999, 18.0850048511], [75.13389420579999, 18.0850048511], [75.13389420579999, 18.084727073099998], [75.1344497618, 18.084727073099998], [75.1344497618, 18.085560407099997], [75.13361642779999, 18.085560407099997]]]}}, {"type": "Feature", "properties": {"time_min": 35, "depth_min_m": 6.0, "depth_max_m": null, "depth_class": "6.0+ m", "class_area_km2": 0.8339108404945274, "flooded_area_km2": 0.9331859405533997, "frame_max_depth_m": 118.1801876114622, "class_mean_depth_m": 41.74351422828614, "scenario_id": "baseline", "model_type": "Automated approximate 2D flood-routing prototype", "validated_hydraulic_output": false}, "geometry": {"type": "Polygon", "coordinates": [[[75.1372275418, 18.0850048511], [75.1372275418, 18.084449295099997], [75.1377830978, 18.084449295099997], [75.1377830978, 18.084727073099998], [75.1375053198, 18.084727073099998], [75.1375053198, 18.0850048511], [75.1372275418, 18.0850048511]]]}}, {"type": "Feature", "properties": {"time_min": 35, "depth_min_m": 6.0, "depth_max_m": null, "depth_class": "6.0+ m", "class_area_km2": 0.8339108404945274, "flooded_area_km2": 0.9331859405533997, "frame_max_depth_m": 118.1801876114622, "class_mean_depth_m": 41.74351422828614, "scenario_id": "baseline", "model_type": "Automated approximate 2D flood-routing prototype", "validated_hydraulic_output": false}, "geometry": {"type": "Polygon", "coordinates": [[[75.1408386558, 18.084449295099997], [75.1408386558, 18.0841715171], [75.1411164338, 18.0841715171], [75.1411164338, 18.084449295099997], [75.1408386558, 18.084449295099997]]]}}, {"type": "Feature", "properties": {"time_min": 35, "depth_min_m": 6.0, "depth_max_m": null, "depth_class": "6.0+ m", "class_area_km2": 0.8339108404945274, "flooded_area_km2": 0.9331859405533997, "frame_max_depth_m": 118.1801876114622, "class_mean_depth_m": 41.74351422828614, "scenario_id": "baseline", "model_type": "Automated approximate 2D flood-routing prototype", "validated_hydraulic_output": false}, "geometry": {"type": "Polygon", "coordinates": [[[75.13222753779999, 18.095838193099997], [75.13222753779999, 18.0955604151], [75.1316719818, 18.0955604151], [75.1316719818, 18.095004859099998], [75.1319497598, 18.095004859099998], [75.1319497598, 18.0944493031], [75.1316719818, 18.0944493031], [75.1316719818, 18.094727081099997], [75.1305608698, 18.094727081099997], [75.1305608698, 18.093893747099997], [75.13083864779999, 18.093893747099997], [75.13083864779999, 18.093615969099996], [75.1305608698, 18.093615969099996], [75.1305608698, 18.0933381911], [75.1300053138, 18.0933381911], [75.1300053138, 18.092782635099997], [75.13083864779999, 18.092782635099997], [75.13083864779999, 18.092504857099996], [75.1313942038, 18.092504857099996], [75.1313942038, 18.0922270791], [75.1319497598, 18.0922270791], [75.1319497598, 18.091671523099997], [75.13250531579999, 18.091671523099997], [75.13250531579999, 18.0911159671], [75.1327830938, 18.0911159671], [75.1327830938, 18.090560411099997], [75.1330608718, 18.090560411099997], [75.1330608718, 18.0900048551], [75.1333386498, 18.0900048551], [75.1333386498, 18.088893743099998], [75.13389420579999, 18.088893743099998], [75.13389420579999, 18.088615965099997], [75.13417198379999, 18.088615965099997], [75.13417198379999, 18.088338187099996], [75.1344497618, 18.088338187099996], [75.1344497618, 18.087782631099998], [75.13528309579999, 18.087782631099998], [75.13528309579999, 18.0869492971], [75.1350053178, 18.0869492971], [75.1350053178, 18.0861159631], [75.13528309579999, 18.0861159631], [75.13528309579999, 18.085282629099996], [75.1361164298, 18.085282629099996], [75.1361164298, 18.085560407099997], [75.1372275418, 18.085560407099997], [75.1372275418, 18.085282629099996], [75.1391719878, 18.085282629099996], [75.1391719878, 18.0850048511], [75.14000532179999, 18.0850048511], [75.14000532179999, 18.085282629099996], [75.1402830998, 18.085282629099996], [75.1402830998, 18.085560407099997], [75.1408386558, 18.085560407099997], [75.1408386558, 18.0850048511], [75.1405608778, 18.0850048511], [75.1405608778, 18.084727073099998], [75.14139421179999, 18.084727073099998], [75.14139421179999, 18.0841715171], [75.1422275458, 18.0841715171], [75.1422275458, 18.0838937391], [75.14278310179999, 18.0838937391], [75.14278310179999, 18.084449295099997], [75.14306087979999, 18.084449295099997], [75.14306087979999, 18.0850048511], [75.14278310179999, 18.0850048511], [75.14278310179999, 18.085560407099997], [75.1422275458, 18.085560407099997], [75.1422275458, 18.0861159631], [75.1425053238, 18.0861159631], [75.1425053238, 18.086393741099997], [75.1422275458, 18.086393741099997], [75.1422275458, 18.086671519099998], [75.1419497678, 18.086671519099998], [75.1419497678, 18.087782631099998], [75.14167198979999, 18.087782631099998], [75.14167198979999, 18.088338187099996], [75.14139421179999, 18.088338187099996], [75.14139421179999, 18.088893743099998], [75.14167198979999, 18.088893743099998], [75.14167198979999, 18.089449299099996], [75.1419497678, 18.089449299099996], [75.1419497678, 18.089727077099997], [75.14167198979999, 18.089727077099997], [75.14167198979999, 18.0900048551], [75.14139421179999, 18.0900048551], [75.14139421179999, 18.090560411099997], [75.1402830998, 18.090560411099997], [75.1402830998, 18.090838189099998], [75.14000532179999, 18.090838189099998], [75.14000532179999, 18.0913937451], [75.13972754379999, 18.0913937451], [75.13972754379999, 18.091671523099997], [75.1388942098, 18.091671523099997], [75.1388942098, 18.091949301099998], [75.13861643179999, 18.091949301099998], [75.13861643179999, 18.0922270791], [75.13833865379999, 18.0922270791], [75.13833865379999, 18.092782635099997], [75.1380608758, 18.092782635099997], [75.1380608758, 18.093060413099998], [75.1377830978, 18.093060413099998], [75.1377830978, 18.0933381911], [75.1372275418, 18.0933381911], [75.1372275418, 18.093893747099997], [75.13694976379999, 18.093893747099997], [75.13694976379999, 18.093615969099996], [75.1361164298, 18.093615969099996], [75.1361164298, 18.093893747099997], [75.1350053178, 18.093893747099997], [75.1350053178, 18.0944493031], [75.1344497618, 18.0944493031], [75.1344497618, 18.094727081099997], [75.13417198379999, 18.094727081099997], [75.13417198379999, 18.0944493031], [75.13389420579999, 18.0944493031], [75.13389420579999, 18.094727081099997], [75.13361642779999, 18.094727081099997], [75.13361642779999, 18.0952826371], [75.1327830938, 18.0952826371], [75.1327830938, 18.0955604151], [75.13250531579999, 18.0955604151], [75.13250531579999, 18.095838193099997], [75.13222753779999, 18.095838193099997]], [[75.1327830938, 18.0944493031], [75.1330608718, 18.0944493031], [75.1330608718, 18.093893747099997], [75.1327830938, 18.093893747099997], [75.1327830938, 18.0944493031]], [[75.1394497658, 18.0869492971], [75.13972754379999, 18.0869492971], [75.13972754379999, 18.086393741099997], [75.1391719878, 18.086393741099997], [75.1391719878, 18.086671519099998], [75.1394497658, 18.086671519099998], [75.1394497658, 18.0869492971]]]}}, {"type": "Feature", "properties": {"time_min": 35, "depth_min_m": 6.0, "depth_max_m": null, "depth_class": "6.0+ m", "class_area_km2": 0.8339108404945274, "flooded_area_km2": 0.9331859405533997, "frame_max_depth_m": 118.1801876114622, "class_mean_depth_m": 41.74351422828614, "scenario_id": "baseline", "model_type": "Automated approximate 2D flood-routing prototype", "validated_hydraulic_output": false}, "geometry": {"type": "Polygon", "coordinates": [[[75.14278310179999, 18.0838937391], [75.14278310179999, 18.083615961099998], [75.14306087979999, 18.083615961099998], [75.14306087979999, 18.0838937391], [75.14278310179999, 18.0838937391]]]}}, {"type": "Feature", "properties": {"time_min": 35, "depth_min_m": 6.0, "depth_max_m": null, "depth_class": "6.0+ m", "class_area_km2": 0.8339108404945274, "flooded_area_km2": 0.9331859405533997, "frame_max_depth_m": 118.1801876114622, "class_mean_depth_m": 41.74351422828614, "scenario_id": "baseline", "model_type": "Automated approximate 2D flood-routing prototype", "validated_hydraulic_output": false}, "geometry": {"type": "Polygon", "coordinates": [[[75.1422275458, 18.083615961099998], [75.1422275458, 18.0827826271], [75.14278310179999, 18.0827826271], [75.14278310179999, 18.083615961099998], [75.1422275458, 18.083615961099998]]]}}]}