{
  "type": "FeatureCollection",
  "features": [
    {
      "type": "Feature",
      "properties": {
        "osm_id": 41846707,
        "osm_type": "way",
        "source": "OpenStreetMap",
        "name": "Bhima",
        "name:en": "Bhima River",
        "waterway": "river"
      },
      "geometry": {
        "type": "LineString",
        "coordinates": [
          [
            75.1202332,
            18.0737611
          ],
          [
            75.1164405,
            18.0742532
          ],
          [
            75.1124923,
            18.0734373
          ],
          [
            75.1032226,
            18.0716422
          ],
          [
            75.1001327,
            18.0711526
          ],
          [
            75.0937812,
            18.0672359
          ],
          [
            75.0886314,
            18.0625031
          ],
          [
            75.0857131,
            18.0585862
          ],
          [
            75.0846832,
            18.054506
          ],
          [
            75.0846832,
            18.046835
          ],
          [
            75.0824516,
            18.0414488
          ],
          [
            75.0793617,
            18.0376947
          ],
          [
            75.067517,
            18.032145
          ],
          [
            75.0572173,
            18.027248
          ],
          [
            75.0530975,
            18.0247995
          ],
          [
            75.0489776,
            18.021045
          ],
          [
            75.047776,
            18.0158212
          ],
          [
            75.0393646,
            18.0024346
          ],
          [
            75.1109474,
            18.0004755
          ],
          [
            75.1154105,
            18.0016183
          ]
        ]
      }
    }
  ]
}