{
  "type": "FeatureCollection",
  "features": [
    {
      "type": "Feature",
      "properties": {
        "osm_id": 41846707,
        "osm_type": "way",
        "source": "OpenStreetMap",
        "name": "Bhima",
        "name:en": "Bhima River",
        "waterway": "river"
      },
      "geometry": {
        "type": "LineString",
        "coordinates": [
          [
            75.1202332,
            18.0737611
          ],
          [
            75.1164405,
            18.0742532
          ],
          [
            75.1124923,
            18.0734373
          ],
          [
            75.1032226,
            18.0716422
          ],
          [
            75.1001327,
            18.0711526
          ],
          [
            75.0937812,
            18.0672359
          ],
          [
            75.0886314,
            18.0625031
          ],
          [
            75.0857131,
            18.0585862
          ],
          [
            75.0846832,
            18.054506
          ],
          [
            75.0846832,
            18.046835
          ],
          [
            75.0824516,
            18.0414488
          ],
          [
            75.0793617,
            18.0376947
          ],
          [
            75.067517,
            18.032145
          ],
          [
            75.0572173,
            18.027248
          ],
          [
            75.0530975,
            18.0247995
          ],
          [
            75.0489776,
            18.021045
          ],
          [
            75.047776,
            18.0158212
          ],
          [
            75.0393646,
            18.0024346
          ],
          [
            75.035073,
            17.9965572
          ],
          [
            75.0278632,
            17.9903532
          ],
          [
            75.02443,
            17.9800669
          ],
          [
            75.0208251,
            17.9709231
          ],
          [
            75.0203009,
            17.9665391
          ],
          [
            75.0216849,
            17.9637274
          ],
          [
            75.024945,
            17.9617788
          ],
          [
            75.0280186,
            17.9597449
          ],
          [
            75.0328414,
            17.9565533
          ],
          [
            75.0352447,
            17.9539405
          ],
          [
            75.0374188,
            17.9507584
          ],
          [
            75.0392287,
            17.9498949
          ],
          [
            75.0465533,
            17.9507135
          ],
          [
            75.0530711,
            17.9518852
          ],
          [
            75.056874,
            17.9536139
          ],
          [
            75.0592773,
            17.9570432
          ],
          [
            75.0639121,
            17.9647181
          ],
          [
            75.0659112,
            17.9722217
          ],
          [
            75.0669746,
            17.9762128
          ],
          [
            75.0685356,
            17.9785538
          ],
          [
            75.0713283,
            17.9802345
          ],
          [
            75.075739,
            17.9816918
          ],
          [
            75.078743,
            17.9820796
          ],
          [
            75.0817649,
            17.9813732
          ],
          [
            75.0965278,
            17.9758216
          ],
          [
            75.0997894,
            17.9756584
          ],
          [
            75.1027076,
            17.9769646
          ],
          [
            75.1044242,
            17.9795771
          ],
          [
            75.105534,
            17.9816734
          ],
          [
            75.1055834,
            17.9885962
          ],
          [
            75.1078574,
            17.997047
          ],
          [
            75.1109474,
            18.0004755
          ],
          [
            75.1154105,
            18.0016183
          ],
          [
            75.1205604,
            17.999496
          ],
          [
            75.1234786,
            17.9980266
          ],
          [
            75.1248519,
            17.9955777
          ],
          [
            75.1267402,
            17.9918226
          ],
          [
            75.1284568,
            17.9861081
          ],
          [
            75.1294868,
            17.9774545
          ],
          [
            75.1323417,
            17.972756
          ],
          [
            75.1355113,
            17.9711664
          ]
        ]
      }
    },
    {
      "type": "Feature",
      "properties": {
        "osm_id": 147256201,
        "osm_type": "way",
        "source": "OpenStreetMap",
        "name": "Bhima",
        "name:en": null,
        "waterway": "river"
      },
      "geometry": {
        "type": "LineString",
        "coordinates": [
          [
            75.1355113,
            17.9711664
          ],
          [
            75.1467164,
            17.9755449
          ],
          [
            75.1530046,
            17.9772763
          ],
          [
            75.1596239,
            17.9752301
          ],
          [
            75.1616924,
            17.970744
          ],
          [
            75.1622151,
            17.9600734
          ],
          [
            75.163186,
            17.9540007
          ],
          [
            75.1709177,
            17.9469564
          ],
          [
            75.1771914,
            17.9464537
          ],
          [
            75.1810339,
            17.9468247
          ],
          [
            75.1911335,
            17.9492386
          ],
          [
            75.1940304,
            17.9490716
          ],
          [
            75.1971105,
            17.9489707
          ],
          [
            75.1989913,
            17.9472177
          ],
          [
            75.1996651,
            17.9452248
          ],
          [
            75.1978074,
            17.9404101
          ],
          [
            75.1964571,
            17.9376542
          ],
          [
            75.1948752,
            17.9355433
          ],
          [
            75.1931425,
            17.9341535
          ],
          [
            75.1881873,
            17.9310724
          ],
          [
            75.182508,
            17.9279641
          ],
          [
            75.180749,
            17.9271413
          ],
          [
            75.1788543,
            17.9255137
          ],
          [
            75.1770755,
            17.9237084
          ],
          [
            75.1745043,
            17.9200472
          ],
          [
            75.1725967,
            17.9176058
          ],
          [
            75.1698223,
            17.9144866
          ],
          [
            75.1659347,
            17.9105496
          ],
          [
            75.1632133,
            17.9085961
          ],
          [
            75.1586321,
            17.9056528
          ],
          [
            75.1444126,
            17.9007212
          ],
          [
            75.142645,
            17.899345
          ],
          [
            75.1394715,
            17.896885
          ],
          [
            75.1330183,
            17.8902853
          ],
          [
            75.1311121,
            17.8877864
          ],
          [
            75.1284642,
            17.8829099
          ],
          [
            75.1284991,
            17.8811808
          ],
          [
            75.128756,
            17.8783121
          ],
          [
            75.1290135,
            17.8772379
          ],
          [
            75.1291605,
            17.8763404
          ],
          [
            75.1293982,
            17.87371
          ],
          [
            75.1301186,
            17.870758
          ],
          [
            75.1318797,
            17.8689476
          ],
          [
            75.1368193,
            17.866794
          ],
          [
            75.1407085,
            17.8664769
          ],
          [
            75.1437549,
            17.8660613
          ],
          [
            75.1475894,
            17.8666577
          ],
          [
            75.1569959,
            17.8680183
          ],
          [
            75.1675691,
            17.8744192
          ],
          [
            75.1723649,
            17.8771144
          ],
          [
            75.177736,
            17.8787925
          ],
          [
            75.187011,
            17.8808508
          ],
          [
            75.189512,
            17.8807039
          ],
          [
            75.1958301,
            17.8802478
          ],
          [
            75.1996649,
            17.8787457
          ],
          [
            75.2026584,
            17.875814
          ],
          [
            75.2056957,
            17.8703368
          ],
          [
            75.2094695,
            17.8599849
          ],
          [
            75.2132548,
            17.8506
          ],
          [
            75.2135517,
            17.847948
          ],
          [
            75.2128399,
            17.8460739
          ],
          [
            75.2120216,
            17.8440351
          ],
          [
            75.2105018,
            17.8421227
          ],
          [
            75.2071801,
            17.8401438
          ],
          [
            75.2007401,
            17.8387742
          ],
          [
            75.1935464,
            17.8381655
          ],
          [
            75.1893779,
            17.8367616
          ],
          [
            75.1855077,
            17.8347959
          ],
          [
            75.1824374,
            17.8324809
          ],
          [
            75.1781769,
            17.8276652
          ],
          [
            75.1741152,
            17.8219991
          ],
          [
            75.1703666,
            17.8160336
          ],
          [
            75.1684255,
            17.812794
          ],
          [
            75.1668535,
            17.8094047
          ],
          [
            75.1628375,
            17.7990945
          ],
          [
            75.1612389,
            17.793441
          ],
          [
            75.1608844,
            17.7890004
          ],
          [
            75.161513,
            17.7850038
          ],
          [
            75.1630447,
            17.7820119
          ],
          [
            75.1650788,
            17.7813108
          ],
          [
            75.1674523,
            17.7813813
          ],
          [
            75.1689361,
            17.7816924
          ],
          [
            75.1699415,
            17.7819032
          ],
          [
            75.1712784,
            17.781568
          ],
          [
            75.1740979,
            17.7775322
          ],
          [
            75.176749,
            17.7742285
          ],
          [
            75.1820951,
            17.7699824
          ],
          [
            75.1980089,
            17.7617364
          ],
          [
            75.2051092,
            17.7579324
          ],
          [
            75.2125184,
            17.7561646
          ],
          [
            75.2182556,
            17.7561823
          ],
          [
            75.220291,
            17.7565061
          ],
          [
            75.2279499,
            17.7577247
          ],
          [
            75.2387292,
            17.759062
          ],
          [
            75.2497144,
            17.7592647
          ],
          [
            75.2555813,
            17.7602801
          ],
          [
            75.2628801,
            17.7624094
          ],
          [
            75.2684368,
            17.7635863
          ],
          [
            75.2717127,
            17.762524
          ],
          [
            75.2753801,
            17.7602147
          ],
          [
            75.2784394,
            17.7560573
          ],
          [
            75.2809196,
            17.7532394
          ],
          [
            75.2848671,
            17.7493464
          ],
          [
            75.2884866,
            17.746447
          ],
          [
            75.2955153,
            17.7412888
          ]
        ]
      }
    },
    {
      "type": "Feature",
      "properties": {
        "osm_id": 206508227,
        "osm_type": "way",
        "source": "OpenStreetMap",
        "name": "Bhima",
        "name:en": "Bhima River",
        "waterway": "river"
      },
      "geometry": {
        "type": "LineString",
        "coordinates": [
          [
            74.8064232,
            18.3440571
          ],
          [
            74.8086333,
            18.3434562
          ],
          [
            74.8155105,
            18.341837
          ],
          [
            74.8173129,
            18.3414297
          ],
          [
            74.8184824,
            18.3408899
          ],
          [
            74.8198235,
            18.3399021
          ],
          [
            74.8219263,
            18.3371626
          ],
          [
            74.8238683,
            18.3337306
          ],
          [
            74.8276126,
            18.3287402
          ],
          [
            74.8314857,
            18.3230368
          ],
          [
            74.8348975,
            18.3195128
          ],
          [
            74.8395775,
            18.3136966
          ],
          [
            74.8436308,
            18.3075958
          ],
          [
            74.844296,
            18.305029
          ],
          [
            74.8442101,
            18.3023195
          ],
          [
            74.8438024,
            18.3004453
          ],
          [
            74.8427081,
            18.2989377
          ],
          [
            74.8413563,
            18.2977561
          ],
          [
            74.839468,
            18.2966967
          ],
          [
            74.8361635,
            18.2952706
          ],
          [
            74.8319793,
            18.2940686
          ],
          [
            74.8287391,
            18.2947409
          ],
          [
            74.8249841,
            18.2959633
          ],
          [
            74.8207354,
            18.2975116
          ],
          [
            74.8158431,
            18.2987543
          ],
          [
            74.8113155,
            18.3003434
          ],
          [
            74.8079681,
            18.3015454
          ],
          [
            74.8059726,
            18.3020547
          ],
          [
            74.8038912,
            18.3020547
          ],
          [
            74.8025393,
            18.3018306
          ],
          [
            74.8003721,
            18.3006694
          ],
          [
            74.7988915,
            18.2993044
          ],
          [
            74.7980761,
            18.2980617
          ],
          [
            74.7969389,
            18.2959225
          ],
          [
            74.7956729,
            18.2932536
          ],
          [
            74.7950291,
            18.2889548
          ],
          [
            74.795587,
            18.2849004
          ],
          [
            74.7961449,
            18.2814775
          ],
          [
            74.7976255,
            18.2787269
          ],
          [
            74.7996855,
            18.2767709
          ],
          [
            74.8024964,
            18.2744889
          ],
          [
            74.8069596,
            18.2719012
          ],
          [
            74.8109078,
            18.2705156
          ],
          [
            74.8145771,
            18.2688855
          ],
          [
            74.8173022,
            18.2672962
          ],
          [
            74.8222804,
            18.2627522
          ],
          [
            74.8281383,
            18.2549273
          ],
          [
            74.8311209,
            18.2513408
          ],
          [
            74.8330307,
            18.2495068
          ],
          [
            74.8345327,
            18.248549
          ],
          [
            74.8366141,
            18.2481006
          ],
          [
            74.8390388,
            18.2478561
          ],
          [
            74.8449826,
            18.2477134
          ],
          [
            74.8509478,
            18.2476727
          ],
          [
            74.8626852,
            18.2484878
          ],
          [
            74.8732638,
            18.2505257
          ],
          [
            74.878006,
            18.2526042
          ],
          [
            74.8813748,
            18.2547235
          ],
          [
            74.8878336,
            18.2563945
          ],
          [
            74.8906874,
            18.2570262
          ],
          [
            74.9106002,
            18.259227
          ],
          [
            74.9205994,
            18.2601643
          ],
          [
            74.9331736,
            18.2623243
          ],
          [
            74.9385381,
            18.2637099
          ],
          [
            74.9434089,
            18.2649325
          ],
          [
            74.9462628,
            18.2651974
          ],
          [
            74.9485159,
            18.2652789
          ],
          [
            74.9503612,
            18.2646676
          ],
          [
            74.9529791,
            18.2625077
          ],
          [
            74.9551248,
            18.2593085
          ],
          [
            74.9574423,
            18.2564353
          ],
          [
            74.961884,
            18.252645
          ],
          [
            74.9695873,
            18.2479784
          ],
          [
            74.9790649,
            18.2435448
          ],
          [
            74.9827409,
            18.2426799
          ],
          [
            74.9867105,
            18.2424557
          ],
          [
            74.9899721,
            18.2425983
          ],
          [
            74.9951434,
            18.2432709
          ],
          [
            75.0007868,
            18.2452272
          ],
          [
            75.0072026,
            18.2479784
          ],
          [
            75.01791,
            18.2537862
          ],
          [
            75.0247764,
            18.2588602
          ],
          [
            75.0281453,
            18.2604496
          ],
          [
            75.0306558,
            18.2611832
          ],
          [
            75.0325227,
            18.2612851
          ],
          [
            75.0349045,
            18.2612851
          ],
          [
            75.0369429,
            18.2608979
          ],
          [
            75.0387025,
            18.2600624
          ],
          [
            75.039711,
            18.2588194
          ],
          [
            75.040226,
            18.257393
          ],
          [
            75.0403332,
            18.2545809
          ],
          [
            75.0402259,
            18.2526246
          ],
          [
            75.0398826,
            18.2519318
          ],
          [
            75.0385952,
            18.2502608
          ],
          [
            75.0334024,
            18.244514
          ],
          [
            75.028038,
            18.2379518
          ],
          [
            75.0228452,
            18.2311041
          ],
          [
            75.0213003,
            18.2288622
          ],
          [
            75.0196266,
            18.2258051
          ],
          [
            75.0179958,
            18.2226256
          ],
          [
            75.0166654,
            18.2181824
          ],
          [
            75.0159359,
            18.2139836
          ],
          [
            75.0161504,
            18.2110077
          ],
          [
            75.0162792,
            18.2086433
          ],
          [
            75.0169658,
            18.2061565
          ],
          [
            75.0182962,
            18.2027321
          ],
          [
            75.019412,
            18.200816
          ],
          [
            75.0217294,
            18.1988999
          ],
          [
            75.0254201,
            18.196943
          ],
          [
            75.0269651,
            18.1964945
          ],
          [
            75.0291109,
            18.1962499
          ],
          [
            75.0332307,
            18.1963722
          ],
          [
            75.037651,
            18.1968207
          ],
          [
            75.0414705,
            18.197473
          ],
          [
            75.0495815,
            18.200286
          ],
          [
            75.0532722,
            18.202039
          ],
          [
            75.0614261,
            18.2077057
          ],
          [
            75.0684642,
            18.2122715
          ],
          [
            75.0720262,
            18.2134537
          ],
          [
            75.0779914,
            18.2143505
          ],
          [
            75.0864887,
            18.2136983
          ],
          [
            75.0941276,
            18.2120676
          ],
          [
            75.09799,
            18.2101312
          ],
          [
            75.1006508,
            18.208684
          ],
          [
            75.1029897,
            18.2071757
          ],
          [
            75.1040625,
            18.2058508
          ],
          [
            75.1043415,
            18.2041182
          ],
          [
            75.1047277,
            18.2009383
          ],
          [
            75.104556,
            18.1965353
          ],
          [
            75.1037406,
            18.1913167
          ],
          [
            75.1021099,
            18.1857311
          ],
          [
            75.095973,
            18.1710119
          ],
          [
            75.093956,
            18.1650586
          ],
          [
            75.0923252,
            18.1606139
          ],
          [
            75.0911235,
            18.1544157
          ],
          [
            75.0904369,
            18.1457703
          ],
          [
            75.0902652,
            18.1411619
          ],
          [
            75.090394,
            18.138144
          ],
          [
            75.090866,
            18.135697
          ],
          [
            75.0920677,
            18.1327198
          ],
          [
            75.0933981,
            18.1309661
          ],
          [
            75.0955867,
            18.128152
          ],
          [
            75.0972175,
            18.1269284
          ],
          [
            75.0991487,
            18.1260719
          ],
          [
            75.1033115,
            18.1245629
          ],
          [
            75.1067876,
            18.1239918
          ],
          [
            75.1102637,
            18.1239103
          ],
          [
            75.1257133,
            18.125297
          ],
          [
            75.1359057,
            18.126337
          ],
          [
            75.139017,
            18.1265206
          ],
          [
            75.1424074,
            18.126337
          ],
          [
            75.1468491,
            18.1254193
          ],
          [
            75.1488017,
            18.1245629
          ],
          [
            75.150733,
            18.1239306
          ],
          [
            75.1530719,
            18.1226255
          ],
          [
            75.1545524,
            18.1214631
          ],
          [
            75.1557112,
            18.119852
          ],
          [
            75.1563548,
            18.118037
          ],
          [
            75.156548,
            18.115814
          ],
          [
            75.156269,
            18.113224
          ],
          [
            75.1549816,
            18.1100832
          ],
          [
            75.1489734,
            18.0989066
          ],
          [
            75.1418066,
            18.0866277
          ],
          [
            75.1397681,
            18.0838741
          ],
          [
            75.1373648,
            18.0810591
          ],
          [
            75.1320433,
            18.0771019
          ],
          [
            75.1287603,
            18.0756026
          ],
          [
            75.1274836,
            18.0749192
          ],
          [
            75.1255739,
            18.0742154
          ],
          [
            75.1241684,
            18.0738279
          ],
          [
            75.1217651,
            18.0735933
          ],
          [
            75.1202332,
            18.0737611
          ]
        ]
      }
    }
  ]
}