{"type": "FeatureCollection", "features": [{"type": "Feature", "properties": {"time_min": 5, "depth_min_m": 0.05, "depth_max_m": 1.0, "depth_class": "0.05\u20131.0 m", "class_area_km2": 0.027075027288783356, "flooded_area_km2": 0.18591518738297902, "frame_max_depth_m": 4.002671114010695, "class_mean_depth_m": 0.5903959268362162, "scenario_id": "partial_breach", "model_type": "Automated approximate 2D flood-routing prototype", "validated_hydraulic_output": false}, "geometry": {"type": "Polygon", "coordinates": [[[75.1163941918, 18.077227067099997], [75.1163941918, 18.076949289099996], [75.1166719698, 18.076949289099996], [75.1166719698, 18.077227067099997], [75.1163941918, 18.077227067099997]]]}}, {"type": "Feature", "properties": {"time_min": 5, "depth_min_m": 0.05, "depth_max_m": 1.0, "depth_class": "0.05\u20131.0 m", "class_area_km2": 0.027075027288783356, "flooded_area_km2": 0.18591518738297902, "frame_max_depth_m": 4.002671114010695, "class_mean_depth_m": 0.5903959268362162, "scenario_id": "partial_breach", "model_type": "Automated approximate 2D flood-routing prototype", "validated_hydraulic_output": false}, "geometry": {"type": "Polygon", "coordinates": [[[75.11722752579999, 18.076949289099996], [75.11722752579999, 18.0766715111], [75.1180608598, 18.0766715111], [75.1180608598, 18.076949289099996], [75.11722752579999, 18.076949289099996]]]}}, {"type": "Feature", "properties": {"time_min": 5, "depth_min_m": 0.05, "depth_max_m": 1.0, "depth_class": "0.05\u20131.0 m", "class_area_km2": 0.027075027288783356, "flooded_area_km2": 0.18591518738297902, "frame_max_depth_m": 4.002671114010695, "class_mean_depth_m": 0.5903959268362162, "scenario_id": "partial_breach", "model_type": "Automated approximate 2D flood-routing prototype", "validated_hydraulic_output": false}, "geometry": {"type": "Polygon", "coordinates": [[[75.1191719718, 18.076949289099996], [75.1191719718, 18.0766715111], [75.1180608598, 18.0766715111], [75.1180608598, 18.076393733099998], [75.1191719718, 18.076393733099998], [75.1191719718, 18.076115955099997], [75.1197275278, 18.076115955099997], [75.1197275278, 18.0766715111], [75.1194497498, 18.0766715111], [75.1194497498, 18.076949289099996], [75.1191719718, 18.076949289099996]]]}}, {"type": "Feature", "properties": {"time_min": 5, "depth_min_m": 0.05, "depth_max_m": 1.0, "depth_class": "0.05\u20131.0 m", "class_area_km2": 0.027075027288783356, "flooded_area_km2": 0.18591518738297902, "frame_max_depth_m": 4.002671114010695, "class_mean_depth_m": 0.5903959268362162, "scenario_id": "partial_breach", "model_type": "Automated approximate 2D flood-routing prototype", "validated_hydraulic_output": false}, "geometry": {"type": "Polygon", "coordinates": [[[75.1197275278, 18.076115955099997], [75.1197275278, 18.0758381771], [75.12000530579999, 18.0758381771], [75.12000530579999, 18.076115955099997], [75.1197275278, 18.076115955099997]]]}}, {"type": "Feature", "properties": {"time_min": 5, "depth_min_m": 0.05, "depth_max_m": 1.0, "depth_class": "0.05\u20131.0 m", "class_area_km2": 0.027075027288783356, "flooded_area_km2": 0.18591518738297902, "frame_max_depth_m": 4.002671114010695, "class_mean_depth_m": 0.5903959268362162, "scenario_id": "partial_breach", "model_type": "Automated approximate 2D flood-routing prototype", "validated_hydraulic_output": false}, "geometry": {"type": "Polygon", "coordinates": [[[75.1194497498, 18.0758381771], [75.1194497498, 18.0755603991], [75.1197275278, 18.0755603991], [75.1197275278, 18.0758381771], [75.1194497498, 18.0758381771]]]}}, {"type": "Feature", "properties": {"time_min": 5, "depth_min_m": 0.05, "depth_max_m": 1.0, "depth_class": "0.05\u20131.0 m", "class_area_km2": 0.027075027288783356, "flooded_area_km2": 0.18591518738297902, "frame_max_depth_m": 4.002671114010695, "class_mean_depth_m": 0.5903959268362162, "scenario_id": "partial_breach", "model_type": "Automated approximate 2D flood-routing prototype", "validated_hydraulic_output": false}, "geometry": {"type": "Polygon", "coordinates": [[[75.11861641579999, 18.0755603991], [75.11861641579999, 18.075282621099998], [75.1183386378, 18.075282621099998], [75.1183386378, 18.075004843099997], [75.1177830818, 18.075004843099997], [75.1177830818, 18.0747270651], [75.1180608598, 18.0747270651], [75.1180608598, 18.0736159531], [75.1183386378, 18.0736159531], [75.1183386378, 18.074171509099997], [75.11861641579999, 18.074171509099997], [75.11861641579999, 18.075004843099997], [75.11889419379999, 18.075004843099997], [75.11889419379999, 18.075282621099998], [75.1194497498, 18.075282621099998], [75.1194497498, 18.0755603991], [75.11861641579999, 18.0755603991]]]}}, {"type": "Feature", "properties": {"time_min": 5, "depth_min_m": 0.05, "depth_max_m": 1.0, "depth_class": "0.05\u20131.0 m", "class_area_km2": 0.027075027288783356, "flooded_area_km2": 0.18591518738297902, "frame_max_depth_m": 4.002671114010695, "class_mean_depth_m": 0.5903959268362162, "scenario_id": "partial_breach", "model_type": "Automated approximate 2D flood-routing prototype", "validated_hydraulic_output": false}, "geometry": {"type": "Polygon", "coordinates": [[[75.1175053038, 18.072782619099996], [75.1175053038, 18.0725048411], [75.1177830818, 18.0725048411], [75.1177830818, 18.072782619099996], [75.1175053038, 18.072782619099996]]]}}, {"type": "Feature", "properties": {"time_min": 5, "depth_min_m": 1.0, "depth_max_m": 3.0, "depth_class": "1.0\u20133.0 m", "class_area_km2": 0.13176513280541233, "flooded_area_km2": 0.18591518738297902, "frame_max_depth_m": 4.002671114010695, "class_mean_depth_m": 2.2332654877398266, "scenario_id": "partial_breach", "model_type": "Automated approximate 2D flood-routing prototype", "validated_hydraulic_output": false}, "geometry": {"type": "Polygon", "coordinates": [[[75.1161164138, 18.076949289099996], [75.1161164138, 18.0766715111], [75.11583863579999, 18.0766715111], [75.11583863579999, 18.076115955099997], [75.11556085779999, 18.076115955099997], [75.11556085779999, 18.0758381771], [75.1152830798, 18.0758381771], [75.1152830798, 18.0747270651], [75.1150053018, 18.0747270651], [75.1150053018, 18.0744492871], [75.1147275238, 18.0744492871], [75.1147275238, 18.074171509099997], [75.11444974579999, 18.074171509099997], [75.11444974579999, 18.073893731099997], [75.1147275238, 18.073893731099997], [75.1147275238, 18.0736159531], [75.11556085779999, 18.0736159531], [75.11556085779999, 18.073338175099998], [75.11583863579999, 18.073338175099998], [75.11583863579999, 18.073893731099997], [75.1161164138, 18.073893731099997], [75.1161164138, 18.0736159531], [75.1163941918, 18.0736159531], [75.1163941918, 18.073893731099997], [75.11694974779999, 18.073893731099997], [75.11694974779999, 18.074171509099997], [75.11722752579999, 18.074171509099997], [75.11722752579999, 18.0744492871], [75.1175053038, 18.0744492871], [75.1175053038, 18.073060397099997], [75.11583863579999, 18.073060397099997], [75.11583863579999, 18.072782619099996], [75.1177830818, 18.072782619099996], [75.1177830818, 18.0725048411], [75.11889419379999, 18.0725048411], [75.11889419379999, 18.073338175099998], [75.1183386378, 18.073338175099998], [75.1183386378, 18.0736159531], [75.1180608598, 18.0736159531], [75.1180608598, 18.0747270651], [75.1177830818, 18.0747270651], [75.1177830818, 18.075004843099997], [75.1183386378, 18.075004843099997], [75.1183386378, 18.075282621099998], [75.11861641579999, 18.075282621099998], [75.11861641579999, 18.0755603991], [75.1194497498, 18.0755603991], [75.1194497498, 18.0758381771], [75.1197275278, 18.0758381771], [75.1197275278, 18.076115955099997], [75.1191719718, 18.076115955099997], [75.1191719718, 18.076393733099998], [75.1180608598, 18.076393733099998], [75.1180608598, 18.0766715111], [75.11722752579999, 18.0766715111], [75.11722752579999, 18.076949289099996], [75.1161164138, 18.076949289099996]], [[75.11583863579999, 18.0758381771], [75.1161164138, 18.0758381771], [75.1161164138, 18.0755603991], [75.11583863579999, 18.0755603991], [75.11583863579999, 18.0758381771]], [[75.11556085779999, 18.075004843099997], [75.1161164138, 18.075004843099997], [75.1161164138, 18.0747270651], [75.11556085779999, 18.0747270651], [75.11556085779999, 18.075004843099997]], [[75.1166719698, 18.075004843099997], [75.11694974779999, 18.075004843099997], [75.11694974779999, 18.0747270651], [75.1166719698, 18.0747270651], [75.1166719698, 18.075004843099997]]]}}, {"type": "Feature", "properties": {"time_min": 5, "depth_min_m": 3.0, "depth_max_m": 6.0, "depth_class": "3.0\u20136.0 m", "class_area_km2": 0.027075027288783356, "flooded_area_km2": 0.18591518738297902, "frame_max_depth_m": 4.002671114010695, "class_mean_depth_m": 3.322865612708612, "scenario_id": "partial_breach", "model_type": "Automated approximate 2D flood-routing prototype", "validated_hydraulic_output": false}, "geometry": {"type": "Polygon", "coordinates": [[[75.11556085779999, 18.076393733099998], [75.11556085779999, 18.076115955099997], [75.11583863579999, 18.076115955099997], [75.11583863579999, 18.076393733099998], [75.11556085779999, 18.076393733099998]]]}}, {"type": "Feature", "properties": {"time_min": 5, "depth_min_m": 3.0, "depth_max_m": 6.0, "depth_class": "3.0\u20136.0 m", "class_area_km2": 0.027075027288783356, "flooded_area_km2": 0.18591518738297902, "frame_max_depth_m": 4.002671114010695, "class_mean_depth_m": 3.322865612708612, "scenario_id": "partial_breach", "model_type": "Automated approximate 2D flood-routing prototype", "validated_hydraulic_output": false}, "geometry": {"type": "Polygon", "coordinates": [[[75.11583863579999, 18.0758381771], [75.11583863579999, 18.0755603991], [75.1161164138, 18.0755603991], [75.1161164138, 18.0758381771], [75.11583863579999, 18.0758381771]]]}}, {"type": "Feature", "properties": {"time_min": 5, "depth_min_m": 3.0, "depth_max_m": 6.0, "depth_class": "3.0\u20136.0 m", "class_area_km2": 0.027075027288783356, "flooded_area_km2": 0.18591518738297902, "frame_max_depth_m": 4.002671114010695, "class_mean_depth_m": 3.322865612708612, "scenario_id": "partial_breach", "model_type": "Automated approximate 2D flood-routing prototype", "validated_hydraulic_output": false}, "geometry": {"type": "Polygon", "coordinates": [[[75.11556085779999, 18.075004843099997], [75.11556085779999, 18.0747270651], [75.1161164138, 18.0747270651], [75.1161164138, 18.075004843099997], [75.11556085779999, 18.075004843099997]]]}}, {"type": "Feature", "properties": {"time_min": 5, "depth_min_m": 3.0, "depth_max_m": 6.0, "depth_class": "3.0\u20136.0 m", "class_area_km2": 0.027075027288783356, "flooded_area_km2": 0.18591518738297902, "frame_max_depth_m": 4.002671114010695, "class_mean_depth_m": 3.322865612708612, "scenario_id": "partial_breach", "model_type": "Automated approximate 2D flood-routing prototype", "validated_hydraulic_output": false}, "geometry": {"type": "Polygon", "coordinates": [[[75.1166719698, 18.075004843099997], [75.1166719698, 18.0747270651], [75.11694974779999, 18.0747270651], [75.11694974779999, 18.075004843099997], [75.1166719698, 18.075004843099997]]]}}, {"type": "Feature", "properties": {"time_min": 5, "depth_min_m": 3.0, "depth_max_m": 6.0, "depth_class": "3.0\u20136.0 m", "class_area_km2": 0.027075027288783356, "flooded_area_km2": 0.18591518738297902, "frame_max_depth_m": 4.002671114010695, "class_mean_depth_m": 3.322865612708612, "scenario_id": "partial_breach", "model_type": "Automated approximate 2D flood-routing prototype", "validated_hydraulic_output": false}, "geometry": {"type": "Polygon", "coordinates": [[[75.11722752579999, 18.0744492871], [75.11722752579999, 18.074171509099997], [75.11694974779999, 18.074171509099997], [75.11694974779999, 18.073893731099997], [75.1163941918, 18.073893731099997], [75.1163941918, 18.0736159531], [75.1161164138, 18.0736159531], [75.1161164138, 18.073893731099997], [75.11583863579999, 18.073893731099997], [75.11583863579999, 18.073338175099998], [75.11556085779999, 18.073338175099998], [75.11556085779999, 18.0736159531], [75.1150053018, 18.0736159531], [75.1150053018, 18.073338175099998], [75.1152830798, 18.073338175099998], [75.1152830798, 18.073060397099997], [75.11556085779999, 18.073060397099997], [75.11556085779999, 18.072782619099996], [75.11583863579999, 18.072782619099996], [75.11583863579999, 18.073060397099997], [75.1175053038, 18.073060397099997], [75.1175053038, 18.0744492871], [75.11722752579999, 18.0744492871]]]}}]}