{"type": "FeatureCollection", "features": [{"type": "Feature", "properties": {"time_min": 20, "depth_min_m": 0.05, "depth_max_m": 1.0, "depth_class": "0.05\u20131.0 m", "class_area_km2": 0.14440014554017788, "flooded_area_km2": 1.3375063480658977, "frame_max_depth_m": 9.471043044910743, "class_mean_depth_m": 0.5083147352793957, "scenario_id": "partial_breach", "model_type": "Automated approximate 2D flood-routing prototype", "validated_hydraulic_output": false}, "geometry": {"type": "Polygon", "coordinates": [[[75.1119497438, 18.0797270691], [75.1119497438, 18.079449291099998], [75.1122275218, 18.079449291099998], [75.1122275218, 18.0797270691], [75.1119497438, 18.0797270691]]]}}, {"type": "Feature", "properties": {"time_min": 20, "depth_min_m": 0.05, "depth_max_m": 1.0, "depth_class": "0.05\u20131.0 m", "class_area_km2": 0.14440014554017788, "flooded_area_km2": 1.3375063480658977, "frame_max_depth_m": 9.471043044910743, "class_mean_depth_m": 0.5083147352793957, "scenario_id": "partial_breach", "model_type": "Automated approximate 2D flood-routing prototype", "validated_hydraulic_output": false}, "geometry": {"type": "Polygon", "coordinates": [[[75.1166719698, 18.0788937351], [75.1166719698, 18.0786159571], [75.1163941918, 18.0786159571], [75.1163941918, 18.078060401099997], [75.1161164138, 18.078060401099997], [75.1161164138, 18.0777826231], [75.11583863579999, 18.0777826231], [75.11583863579999, 18.078060401099997], [75.11556085779999, 18.078060401099997], [75.11556085779999, 18.078338179099998], [75.1150053018, 18.078338179099998], [75.1150053018, 18.078060401099997], [75.1152830798, 18.078060401099997], [75.1152830798, 18.0777826231], [75.11556085779999, 18.0777826231], [75.11556085779999, 18.077504845099998], [75.1166719698, 18.077504845099998], [75.1166719698, 18.077227067099997], [75.11722752579999, 18.077227067099997], [75.11722752579999, 18.077504845099998], [75.11694974779999, 18.077504845099998], [75.11694974779999, 18.0788937351], [75.1166719698, 18.0788937351]]]}}, {"type": "Feature", "properties": {"time_min": 20, "depth_min_m": 0.05, "depth_max_m": 1.0, "depth_class": "0.05\u20131.0 m", "class_area_km2": 0.14440014554017788, "flooded_area_km2": 1.3375063480658977, "frame_max_depth_m": 9.471043044910743, "class_mean_depth_m": 0.5083147352793957, "scenario_id": "partial_breach", "model_type": "Automated approximate 2D flood-routing prototype", "validated_hydraulic_output": false}, "geometry": {"type": "Polygon", "coordinates": [[[75.1122275218, 18.079449291099998], [75.1122275218, 18.0788937351], [75.1116719658, 18.0788937351], [75.1116719658, 18.078338179099998], [75.11139418779999, 18.078338179099998], [75.11139418779999, 18.078060401099997], [75.11111640979999, 18.078060401099997], [75.11111640979999, 18.077504845099998], [75.1108386318, 18.077504845099998], [75.1108386318, 18.077227067099997], [75.11139418779999, 18.077227067099997], [75.11139418779999, 18.0777826231], [75.1130608558, 18.0777826231], [75.1130608558, 18.079449291099998], [75.1122275218, 18.079449291099998]], [[75.11250529979999, 18.079171513099997], [75.11278307779999, 18.079171513099997], [75.11278307779999, 18.078338179099998], [75.11250529979999, 18.078338179099998], [75.11250529979999, 18.0786159571], [75.1122275218, 18.0786159571], [75.1122275218, 18.0788937351], [75.11250529979999, 18.0788937351], [75.11250529979999, 18.079171513099997]]]}}, {"type": "Feature", "properties": {"time_min": 20, "depth_min_m": 0.05, "depth_max_m": 1.0, "depth_class": "0.05\u20131.0 m", "class_area_km2": 0.14440014554017788, "flooded_area_km2": 1.3375063480658977, "frame_max_depth_m": 9.471043044910743, "class_mean_depth_m": 0.5083147352793957, "scenario_id": "partial_breach", "model_type": "Automated approximate 2D flood-routing prototype", "validated_hydraulic_output": false}, "geometry": {"type": "Polygon", "coordinates": [[[75.1102830758, 18.077227067099997], [75.1102830758, 18.076949289099996], [75.1105608538, 18.076949289099996], [75.1105608538, 18.077227067099997], [75.1102830758, 18.077227067099997]]]}}, {"type": "Feature", "properties": {"time_min": 20, "depth_min_m": 0.05, "depth_max_m": 1.0, "depth_class": "0.05\u20131.0 m", "class_area_km2": 0.14440014554017788, "flooded_area_km2": 1.3375063480658977, "frame_max_depth_m": 9.471043044910743, "class_mean_depth_m": 0.5083147352793957, "scenario_id": "partial_breach", "model_type": "Automated approximate 2D flood-routing prototype", "validated_hydraulic_output": false}, "geometry": {"type": "Polygon", "coordinates": [[[75.11722752579999, 18.077227067099997], [75.11722752579999, 18.076949289099996], [75.1177830818, 18.076949289099996], [75.1177830818, 18.077227067099997], [75.11722752579999, 18.077227067099997]]]}}, {"type": "Feature", "properties": {"time_min": 20, "depth_min_m": 0.05, "depth_max_m": 1.0, "depth_class": "0.05\u20131.0 m", "class_area_km2": 0.14440014554017788, "flooded_area_km2": 1.3375063480658977, "frame_max_depth_m": 9.471043044910743, "class_mean_depth_m": 0.5083147352793957, "scenario_id": "partial_breach", "model_type": "Automated approximate 2D flood-routing prototype", "validated_hydraulic_output": false}, "geometry": {"type": "Polygon", "coordinates": [[[75.11861641579999, 18.077227067099997], [75.11861641579999, 18.076949289099996], [75.1197275278, 18.076949289099996], [75.1197275278, 18.0766715111], [75.12000530579999, 18.0766715111], [75.12000530579999, 18.077227067099997], [75.11861641579999, 18.077227067099997]]]}}, {"type": "Feature", "properties": {"time_min": 20, "depth_min_m": 0.05, "depth_max_m": 1.0, "depth_class": "0.05\u20131.0 m", "class_area_km2": 0.14440014554017788, "flooded_area_km2": 1.3375063480658977, "frame_max_depth_m": 9.471043044910743, "class_mean_depth_m": 0.5083147352793957, "scenario_id": "partial_breach", "model_type": "Automated approximate 2D flood-routing prototype", "validated_hydraulic_output": false}, "geometry": {"type": "Polygon", "coordinates": [[[75.10944974179999, 18.076949289099996], [75.10944974179999, 18.0766715111], [75.1100052978, 18.0766715111], [75.1100052978, 18.076949289099996], [75.10944974179999, 18.076949289099996]]]}}, {"type": "Feature", "properties": {"time_min": 20, "depth_min_m": 0.05, "depth_max_m": 1.0, "depth_class": "0.05\u20131.0 m", "class_area_km2": 0.14440014554017788, "flooded_area_km2": 1.3375063480658977, "frame_max_depth_m": 9.471043044910743, "class_mean_depth_m": 0.5083147352793957, "scenario_id": "partial_breach", "model_type": "Automated approximate 2D flood-routing prototype", "validated_hydraulic_output": false}, "geometry": {"type": "Polygon", "coordinates": [[[75.1088941858, 18.0766715111], [75.1088941858, 18.076393733099998], [75.10944974179999, 18.076393733099998], [75.10944974179999, 18.0766715111], [75.1088941858, 18.0766715111]]]}}, {"type": "Feature", "properties": {"time_min": 20, "depth_min_m": 0.05, "depth_max_m": 1.0, "depth_class": "0.05\u20131.0 m", "class_area_km2": 0.14440014554017788, "flooded_area_km2": 1.3375063480658977, "frame_max_depth_m": 9.471043044910743, "class_mean_depth_m": 0.5083147352793957, "scenario_id": "partial_breach", "model_type": "Automated approximate 2D flood-routing prototype", "validated_hydraulic_output": false}, "geometry": {"type": "Polygon", "coordinates": [[[75.12000530579999, 18.0766715111], [75.12000530579999, 18.076393733099998], [75.12028308379999, 18.076393733099998], [75.12028308379999, 18.0766715111], [75.12000530579999, 18.0766715111]]]}}, {"type": "Feature", "properties": {"time_min": 20, "depth_min_m": 0.05, "depth_max_m": 1.0, "depth_class": "0.05\u20131.0 m", "class_area_km2": 0.14440014554017788, "flooded_area_km2": 1.3375063480658977, "frame_max_depth_m": 9.471043044910743, "class_mean_depth_m": 0.5083147352793957, "scenario_id": "partial_breach", "model_type": "Automated approximate 2D flood-routing prototype", "validated_hydraulic_output": false}, "geometry": {"type": "Polygon", "coordinates": [[[75.13111642579999, 18.0766715111], [75.13111642579999, 18.076115955099997], [75.1313942038, 18.076115955099997], [75.1313942038, 18.0766715111], [75.13111642579999, 18.0766715111]]]}}, {"type": "Feature", "properties": {"time_min": 20, "depth_min_m": 0.05, "depth_max_m": 1.0, "depth_class": "0.05\u20131.0 m", "class_area_km2": 0.14440014554017788, "flooded_area_km2": 1.3375063480658977, "frame_max_depth_m": 9.471043044910743, "class_mean_depth_m": 0.5083147352793957, "scenario_id": "partial_breach", "model_type": "Automated approximate 2D flood-routing prototype", "validated_hydraulic_output": false}, "geometry": {"type": "Polygon", "coordinates": [[[75.1197275278, 18.0758381771], [75.1197275278, 18.0755603991], [75.12000530579999, 18.0755603991], [75.12000530579999, 18.0758381771], [75.1197275278, 18.0758381771]]]}}, {"type": "Feature", "properties": {"time_min": 20, "depth_min_m": 0.05, "depth_max_m": 1.0, "depth_class": "0.05\u20131.0 m", "class_area_km2": 0.14440014554017788, "flooded_area_km2": 1.3375063480658977, "frame_max_depth_m": 9.471043044910743, "class_mean_depth_m": 0.5083147352793957, "scenario_id": "partial_breach", "model_type": "Automated approximate 2D flood-routing prototype", "validated_hydraulic_output": false}, "geometry": {"type": "Polygon", "coordinates": [[[75.1297275358, 18.0758381771], [75.1297275358, 18.0755603991], [75.1300053138, 18.0755603991], [75.1300053138, 18.0758381771], [75.1297275358, 18.0758381771]]]}}, {"type": "Feature", "properties": {"time_min": 20, "depth_min_m": 0.05, "depth_max_m": 1.0, "depth_class": "0.05\u20131.0 m", "class_area_km2": 0.14440014554017788, "flooded_area_km2": 1.3375063480658977, "frame_max_depth_m": 9.471043044910743, "class_mean_depth_m": 0.5083147352793957, "scenario_id": "partial_breach", "model_type": "Automated approximate 2D flood-routing prototype", "validated_hydraulic_output": false}, "geometry": {"type": "Polygon", "coordinates": [[[75.1075052958, 18.0766715111], [75.1075052958, 18.076115955099997], [75.1069497398, 18.076115955099997], [75.1069497398, 18.0758381771], [75.10528307179999, 18.0758381771], [75.10528307179999, 18.0755603991], [75.10667196179999, 18.0755603991], [75.10667196179999, 18.075282621099998], [75.1072275178, 18.075282621099998], [75.1072275178, 18.0755603991], [75.1075052958, 18.0755603991], [75.1075052958, 18.0758381771], [75.10833862979999, 18.0758381771], [75.10833862979999, 18.0755603991], [75.1088941858, 18.0755603991], [75.1088941858, 18.076393733099998], [75.10833862979999, 18.076393733099998], [75.10833862979999, 18.076115955099997], [75.10806085179999, 18.076115955099997], [75.10806085179999, 18.076393733099998], [75.1077830738, 18.076393733099998], [75.1077830738, 18.0766715111], [75.1075052958, 18.0766715111]]]}}, {"type": "Feature", "properties": {"time_min": 20, "depth_min_m": 0.05, "depth_max_m": 1.0, "depth_class": "0.05\u20131.0 m", "class_area_km2": 0.14440014554017788, "flooded_area_km2": 1.3375063480658977, "frame_max_depth_m": 9.471043044910743, "class_mean_depth_m": 0.5083147352793957, "scenario_id": "partial_breach", "model_type": "Automated approximate 2D flood-routing prototype", "validated_hydraulic_output": false}, "geometry": {"type": "Polygon", "coordinates": [[[75.1047275158, 18.0755603991], [75.1047275158, 18.075282621099998], [75.10528307179999, 18.075282621099998], [75.10528307179999, 18.0755603991], [75.1047275158, 18.0755603991]]]}}, {"type": "Feature", "properties": {"time_min": 20, "depth_min_m": 0.05, "depth_max_m": 1.0, "depth_class": "0.05\u20131.0 m", "class_area_km2": 0.14440014554017788, "flooded_area_km2": 1.3375063480658977, "frame_max_depth_m": 9.471043044910743, "class_mean_depth_m": 0.5083147352793957, "scenario_id": "partial_breach", "model_type": "Automated approximate 2D flood-routing prototype", "validated_hydraulic_output": false}, "geometry": {"type": "Polygon", "coordinates": [[[75.1194497498, 18.0755603991], [75.1194497498, 18.075004843099997], [75.1197275278, 18.075004843099997], [75.1197275278, 18.0755603991], [75.1194497498, 18.0755603991]]]}}, {"type": "Feature", "properties": {"time_min": 20, "depth_min_m": 0.05, "depth_max_m": 1.0, "depth_class": "0.05\u20131.0 m", "class_area_km2": 0.14440014554017788, "flooded_area_km2": 1.3375063480658977, "frame_max_depth_m": 9.471043044910743, "class_mean_depth_m": 0.5083147352793957, "scenario_id": "partial_breach", "model_type": "Automated approximate 2D flood-routing prototype", "validated_hydraulic_output": false}, "geometry": {"type": "Polygon", "coordinates": [[[75.10361640379999, 18.075282621099998], [75.10361640379999, 18.075004843099997], [75.1047275158, 18.075004843099997], [75.1047275158, 18.075282621099998], [75.10361640379999, 18.075282621099998]]]}}, {"type": "Feature", "properties": {"time_min": 20, "depth_min_m": 0.05, "depth_max_m": 1.0, "depth_class": "0.05\u20131.0 m", "class_area_km2": 0.14440014554017788, "flooded_area_km2": 1.3375063480658977, "frame_max_depth_m": 9.471043044910743, "class_mean_depth_m": 0.5083147352793957, "scenario_id": "partial_breach", "model_type": "Automated approximate 2D flood-routing prototype", "validated_hydraulic_output": false}, "geometry": {"type": "Polygon", "coordinates": [[[75.10333862579999, 18.075004843099997], [75.10333862579999, 18.0747270651], [75.10361640379999, 18.0747270651], [75.10361640379999, 18.075004843099997], [75.10333862579999, 18.075004843099997]]]}}, {"type": "Feature", "properties": {"time_min": 20, "depth_min_m": 0.05, "depth_max_m": 1.0, "depth_class": "0.05\u20131.0 m", "class_area_km2": 0.14440014554017788, "flooded_area_km2": 1.3375063480658977, "frame_max_depth_m": 9.471043044910743, "class_mean_depth_m": 0.5083147352793957, "scenario_id": "partial_breach", "model_type": "Automated approximate 2D flood-routing prototype", "validated_hydraulic_output": false}, "geometry": {"type": "Polygon", "coordinates": [[[75.11889419379999, 18.075004843099997], [75.11889419379999, 18.0747270651], [75.1191719718, 18.0747270651], [75.1191719718, 18.075004843099997], [75.11889419379999, 18.075004843099997]]]}}, {"type": "Feature", "properties": {"time_min": 20, "depth_min_m": 0.05, "depth_max_m": 1.0, "depth_class": "0.05\u20131.0 m", "class_area_km2": 0.14440014554017788, "flooded_area_km2": 1.3375063480658977, "frame_max_depth_m": 9.471043044910743, "class_mean_depth_m": 0.5083147352793957, "scenario_id": "partial_breach", "model_type": "Automated approximate 2D flood-routing prototype", "validated_hydraulic_output": false}, "geometry": {"type": "Polygon", "coordinates": [[[75.1013941798, 18.0747270651], [75.1013941798, 18.0744492871], [75.1025052918, 18.0744492871], [75.1025052918, 18.0747270651], [75.1013941798, 18.0747270651]]]}}, {"type": "Feature", "properties": {"time_min": 20, "depth_min_m": 0.05, "depth_max_m": 1.0, "depth_class": "0.05\u20131.0 m", "class_area_km2": 0.14440014554017788, "flooded_area_km2": 1.3375063480658977, "frame_max_depth_m": 9.471043044910743, "class_mean_depth_m": 0.5083147352793957, "scenario_id": "partial_breach", "model_type": "Automated approximate 2D flood-routing prototype", "validated_hydraulic_output": false}, "geometry": {"type": "Polygon", "coordinates": [[[75.11861641579999, 18.0747270651], [75.11861641579999, 18.0744492871], [75.11889419379999, 18.0744492871], [75.11889419379999, 18.0747270651], [75.11861641579999, 18.0747270651]]]}}, {"type": "Feature", "properties": {"time_min": 20, "depth_min_m": 0.05, "depth_max_m": 1.0, "depth_class": "0.05\u20131.0 m", "class_area_km2": 0.14440014554017788, "flooded_area_km2": 1.3375063480658977, "frame_max_depth_m": 9.471043044910743, "class_mean_depth_m": 0.5083147352793957, "scenario_id": "partial_breach", "model_type": "Automated approximate 2D flood-routing prototype", "validated_hydraulic_output": false}, "geometry": {"type": "Polygon", "coordinates": [[[75.1183386378, 18.074171509099997], [75.1183386378, 18.073893731099997], [75.11861641579999, 18.073893731099997], [75.11861641579999, 18.074171509099997], [75.1183386378, 18.074171509099997]]]}}, {"type": "Feature", "properties": {"time_min": 20, "depth_min_m": 0.05, "depth_max_m": 1.0, "depth_class": "0.05\u20131.0 m", "class_area_km2": 0.14440014554017788, "flooded_area_km2": 1.3375063480658977, "frame_max_depth_m": 9.471043044910743, "class_mean_depth_m": 0.5083147352793957, "scenario_id": "partial_breach", "model_type": "Automated approximate 2D flood-routing prototype", "validated_hydraulic_output": false}, "geometry": {"type": "Polygon", "coordinates": [[[75.1183386378, 18.0736159531], [75.1183386378, 18.073338175099998], [75.11861641579999, 18.073338175099998], [75.11861641579999, 18.0736159531], [75.1183386378, 18.0736159531]]]}}, {"type": "Feature", "properties": {"time_min": 20, "depth_min_m": 0.05, "depth_max_m": 1.0, "depth_class": "0.05\u20131.0 m", "class_area_km2": 0.14440014554017788, "flooded_area_km2": 1.3375063480658977, "frame_max_depth_m": 9.471043044910743, "class_mean_depth_m": 0.5083147352793957, "scenario_id": "partial_breach", "model_type": "Automated approximate 2D flood-routing prototype", "validated_hydraulic_output": false}, "geometry": {"type": "Polygon", "coordinates": [[[75.11583863579999, 18.072782619099996], [75.11583863579999, 18.0725048411], [75.1161164138, 18.0725048411], [75.1161164138, 18.072782619099996], [75.11583863579999, 18.072782619099996]]]}}, {"type": "Feature", "properties": {"time_min": 20, "depth_min_m": 0.05, "depth_max_m": 1.0, "depth_class": "0.05\u20131.0 m", "class_area_km2": 0.14440014554017788, "flooded_area_km2": 1.3375063480658977, "frame_max_depth_m": 9.471043044910743, "class_mean_depth_m": 0.5083147352793957, "scenario_id": "partial_breach", "model_type": "Automated approximate 2D flood-routing prototype", "validated_hydraulic_output": false}, "geometry": {"type": "Polygon", "coordinates": [[[75.11417196779999, 18.0725048411], [75.11417196779999, 18.072227063099998], [75.11444974579999, 18.072227063099998], [75.11444974579999, 18.0725048411], [75.11417196779999, 18.0725048411]]]}}, {"type": "Feature", "properties": {"time_min": 20, "depth_min_m": 0.05, "depth_max_m": 1.0, "depth_class": "0.05\u20131.0 m", "class_area_km2": 0.14440014554017788, "flooded_area_km2": 1.3375063480658977, "frame_max_depth_m": 9.471043044910743, "class_mean_depth_m": 0.5083147352793957, "scenario_id": "partial_breach", "model_type": "Automated approximate 2D flood-routing prototype", "validated_hydraulic_output": false}, "geometry": {"type": "Polygon", "coordinates": [[[75.1130608558, 18.072227063099998], [75.1130608558, 18.071949285099997], [75.1133386338, 18.071949285099997], [75.1133386338, 18.072227063099998], [75.1130608558, 18.072227063099998]]]}}, {"type": "Feature", "properties": {"time_min": 20, "depth_min_m": 0.05, "depth_max_m": 1.0, "depth_class": "0.05\u20131.0 m", "class_area_km2": 0.14440014554017788, "flooded_area_km2": 1.3375063480658977, "frame_max_depth_m": 9.471043044910743, "class_mean_depth_m": 0.5083147352793957, "scenario_id": "partial_breach", "model_type": "Automated approximate 2D flood-routing prototype", "validated_hydraulic_output": false}, "geometry": {"type": "Polygon", "coordinates": [[[75.1116719658, 18.071949285099997], [75.1116719658, 18.0716715071], [75.1119497438, 18.0716715071], [75.1119497438, 18.071949285099997], [75.1116719658, 18.071949285099997]]]}}, {"type": "Feature", "properties": {"time_min": 20, "depth_min_m": 0.05, "depth_max_m": 1.0, "depth_class": "0.05\u20131.0 m", "class_area_km2": 0.14440014554017788, "flooded_area_km2": 1.3375063480658977, "frame_max_depth_m": 9.471043044910743, "class_mean_depth_m": 0.5083147352793957, "scenario_id": "partial_breach", "model_type": "Automated approximate 2D flood-routing prototype", "validated_hydraulic_output": false}, "geometry": {"type": "Polygon", "coordinates": [[[75.1100052978, 18.0716715071], [75.1100052978, 18.0713937291], [75.11111640979999, 18.0713937291], [75.11111640979999, 18.0716715071], [75.1100052978, 18.0716715071]]]}}, {"type": "Feature", "properties": {"time_min": 20, "depth_min_m": 0.05, "depth_max_m": 1.0, "depth_class": "0.05\u20131.0 m", "class_area_km2": 0.14440014554017788, "flooded_area_km2": 1.3375063480658977, "frame_max_depth_m": 9.471043044910743, "class_mean_depth_m": 0.5083147352793957, "scenario_id": "partial_breach", "model_type": "Automated approximate 2D flood-routing prototype", "validated_hydraulic_output": false}, "geometry": {"type": "Polygon", "coordinates": [[[75.1086164078, 18.0713937291], [75.1086164078, 18.071115951099998], [75.1088941858, 18.071115951099998], [75.1088941858, 18.0713937291], [75.1086164078, 18.0713937291]]]}}, {"type": "Feature", "properties": {"time_min": 20, "depth_min_m": 0.05, "depth_max_m": 1.0, "depth_class": "0.05\u20131.0 m", "class_area_km2": 0.14440014554017788, "flooded_area_km2": 1.3375063480658977, "frame_max_depth_m": 9.471043044910743, "class_mean_depth_m": 0.5083147352793957, "scenario_id": "partial_breach", "model_type": "Automated approximate 2D flood-routing prototype", "validated_hydraulic_output": false}, "geometry": {"type": "Polygon", "coordinates": [[[75.1091719638, 18.0713937291], [75.1091719638, 18.071115951099998], [75.10944974179999, 18.071115951099998], [75.10944974179999, 18.0713937291], [75.1091719638, 18.0713937291]]]}}, {"type": "Feature", "properties": {"time_min": 20, "depth_min_m": 0.05, "depth_max_m": 1.0, "depth_class": "0.05\u20131.0 m", "class_area_km2": 0.14440014554017788, "flooded_area_km2": 1.3375063480658977, "frame_max_depth_m": 9.471043044910743, "class_mean_depth_m": 0.5083147352793957, "scenario_id": "partial_breach", "model_type": "Automated approximate 2D flood-routing prototype", "validated_hydraulic_output": false}, "geometry": {"type": "Polygon", "coordinates": [[[75.1047275158, 18.0705603951], [75.1047275158, 18.0702826171], [75.10500529379999, 18.0702826171], [75.10500529379999, 18.0705603951], [75.1047275158, 18.0705603951]]]}}, {"type": "Feature", "properties": {"time_min": 20, "depth_min_m": 0.05, "depth_max_m": 1.0, "depth_class": "0.05\u20131.0 m", "class_area_km2": 0.14440014554017788, "flooded_area_km2": 1.3375063480658977, "frame_max_depth_m": 9.471043044910743, "class_mean_depth_m": 0.5083147352793957, "scenario_id": "partial_breach", "model_type": "Automated approximate 2D flood-routing prototype", "validated_hydraulic_output": false}, "geometry": {"type": "Polygon", "coordinates": [[[75.1075052958, 18.071115951099998], [75.1075052958, 18.0705603951], [75.10528307179999, 18.0705603951], [75.10528307179999, 18.0702826171], [75.10667196179999, 18.0702826171], [75.10667196179999, 18.070004839099997], [75.1077830738, 18.070004839099997], [75.1077830738, 18.0702826171], [75.10806085179999, 18.0702826171], [75.10806085179999, 18.070838173099997], [75.1086164078, 18.070838173099997], [75.1086164078, 18.071115951099998], [75.1075052958, 18.071115951099998]]]}}, {"type": "Feature", "properties": {"time_min": 20, "depth_min_m": 0.05, "depth_max_m": 1.0, "depth_class": "0.05\u20131.0 m", "class_area_km2": 0.14440014554017788, "flooded_area_km2": 1.3375063480658977, "frame_max_depth_m": 9.471043044910743, "class_mean_depth_m": 0.5083147352793957, "scenario_id": "partial_breach", "model_type": "Automated approximate 2D flood-routing prototype", "validated_hydraulic_output": false}, "geometry": {"type": "Polygon", "coordinates": [[[75.1041719598, 18.0702826171], [75.1041719598, 18.070004839099997], [75.1044497378, 18.070004839099997], [75.1044497378, 18.0702826171], [75.1041719598, 18.0702826171]]]}}, {"type": "Feature", "properties": {"time_min": 20, "depth_min_m": 0.05, "depth_max_m": 1.0, "depth_class": "0.05\u20131.0 m", "class_area_km2": 0.14440014554017788, "flooded_area_km2": 1.3375063480658977, "frame_max_depth_m": 9.471043044910743, "class_mean_depth_m": 0.5083147352793957, "scenario_id": "partial_breach", "model_type": "Automated approximate 2D flood-routing prototype", "validated_hydraulic_output": false}, "geometry": {"type": "Polygon", "coordinates": [[[75.10500529379999, 18.0702826171], [75.10500529379999, 18.070004839099997], [75.10528307179999, 18.070004839099997], [75.10528307179999, 18.0702826171], [75.10500529379999, 18.0702826171]]]}}, {"type": "Feature", "properties": {"time_min": 20, "depth_min_m": 0.05, "depth_max_m": 1.0, "depth_class": "0.05\u20131.0 m", "class_area_km2": 0.14440014554017788, "flooded_area_km2": 1.3375063480658977, "frame_max_depth_m": 9.471043044910743, "class_mean_depth_m": 0.5083147352793957, "scenario_id": "partial_breach", "model_type": "Automated approximate 2D flood-routing prototype", "validated_hydraulic_output": false}, "geometry": {"type": "Polygon", "coordinates": [[[75.10333862579999, 18.070004839099997], [75.10333862579999, 18.069727061099996], [75.1041719598, 18.069727061099996], [75.1041719598, 18.070004839099997], [75.10333862579999, 18.070004839099997]]]}}, {"type": "Feature", "properties": {"time_min": 20, "depth_min_m": 0.05, "depth_max_m": 1.0, "depth_class": "0.05\u20131.0 m", "class_area_km2": 0.14440014554017788, "flooded_area_km2": 1.3375063480658977, "frame_max_depth_m": 9.471043044910743, "class_mean_depth_m": 0.5083147352793957, "scenario_id": "partial_breach", "model_type": "Automated approximate 2D flood-routing prototype", "validated_hydraulic_output": false}, "geometry": {"type": "Polygon", "coordinates": [[[75.1016719578, 18.0702826171], [75.1016719578, 18.069727061099996], [75.1013941798, 18.069727061099996], [75.1013941798, 18.069171505099998], [75.1011164018, 18.069171505099998], [75.1011164018, 18.068893727099997], [75.1016719578, 18.068893727099997], [75.1016719578, 18.069171505099998], [75.10194973579999, 18.069171505099998], [75.10194973579999, 18.0694492831], [75.10222751379999, 18.0694492831], [75.10222751379999, 18.069727061099996], [75.1030608478, 18.069727061099996], [75.1030608478, 18.070004839099997], [75.10194973579999, 18.070004839099997], [75.10194973579999, 18.0702826171], [75.1016719578, 18.0702826171]]]}}, {"type": "Feature", "properties": {"time_min": 20, "depth_min_m": 0.05, "depth_max_m": 1.0, "depth_class": "0.05\u20131.0 m", "class_area_km2": 0.14440014554017788, "flooded_area_km2": 1.3375063480658977, "frame_max_depth_m": 9.471043044910743, "class_mean_depth_m": 0.5083147352793957, "scenario_id": "partial_breach", "model_type": "Automated approximate 2D flood-routing prototype", "validated_hydraulic_output": false}, "geometry": {"type": "Polygon", "coordinates": [[[75.1030608478, 18.0683381711], [75.1030608478, 18.067782615099997], [75.10361640379999, 18.067782615099997], [75.10361640379999, 18.0683381711], [75.1030608478, 18.0683381711]]]}}, {"type": "Feature", "properties": {"time_min": 20, "depth_min_m": 1.0, "depth_max_m": 3.0, "depth_class": "1.0\u20133.0 m", "class_area_km2": 0.22833273013540628, "flooded_area_km2": 1.3375063480658977, "frame_max_depth_m": 9.471043044910743, "class_mean_depth_m": 2.0386433403884485, "scenario_id": "partial_breach", "model_type": "Automated approximate 2D flood-routing prototype", "validated_hydraulic_output": false}, "geometry": {"type": "Polygon", "coordinates": [[[75.13250531579999, 18.0808381811], [75.13250531579999, 18.080560403099998], [75.1327830938, 18.080560403099998], [75.1327830938, 18.0808381811], [75.13250531579999, 18.0808381811]]]}}, {"type": "Feature", "properties": {"time_min": 20, "depth_min_m": 1.0, "depth_max_m": 3.0, "depth_class": "1.0\u20133.0 m", "class_area_km2": 0.22833273013540628, "flooded_area_km2": 1.3375063480658977, "frame_max_depth_m": 9.471043044910743, "class_mean_depth_m": 2.0386433403884485, "scenario_id": "partial_breach", "model_type": "Automated approximate 2D flood-routing prototype", "validated_hydraulic_output": false}, "geometry": {"type": "Polygon", "coordinates": [[[75.11250529979999, 18.079171513099997], [75.11250529979999, 18.0788937351], [75.1122275218, 18.0788937351], [75.1122275218, 18.0786159571], [75.11250529979999, 18.0786159571], [75.11250529979999, 18.078338179099998], [75.11278307779999, 18.078338179099998], [75.11278307779999, 18.079171513099997], [75.11250529979999, 18.079171513099997]]]}}, {"type": "Feature", "properties": {"time_min": 20, "depth_min_m": 1.0, "depth_max_m": 3.0, "depth_class": "1.0\u20133.0 m", "class_area_km2": 0.22833273013540628, "flooded_area_km2": 1.3375063480658977, "frame_max_depth_m": 9.471043044910743, "class_mean_depth_m": 2.0386433403884485, "scenario_id": "partial_breach", "model_type": "Automated approximate 2D flood-routing prototype", "validated_hydraulic_output": false}, "geometry": {"type": "Polygon", "coordinates": [[[75.1130608558, 18.078060401099997], [75.1130608558, 18.0777826231], [75.11139418779999, 18.0777826231], [75.11139418779999, 18.077227067099997], [75.1105608538, 18.077227067099997], [75.1105608538, 18.076949289099996], [75.11250529979999, 18.076949289099996], [75.11250529979999, 18.077227067099997], [75.1133386338, 18.077227067099997], [75.1133386338, 18.077504845099998], [75.1147275238, 18.077504845099998], [75.1147275238, 18.077227067099997], [75.11556085779999, 18.077227067099997], [75.11556085779999, 18.076949289099996], [75.1163941918, 18.076949289099996], [75.1163941918, 18.0766715111], [75.1175053038, 18.0766715111], [75.1175053038, 18.076393733099998], [75.1180608598, 18.076393733099998], [75.1180608598, 18.076115955099997], [75.1197275278, 18.076115955099997], [75.1197275278, 18.0758381771], [75.12000530579999, 18.0758381771], [75.12000530579999, 18.0766715111], [75.1197275278, 18.0766715111], [75.1197275278, 18.076949289099996], [75.11722752579999, 18.076949289099996], [75.11722752579999, 18.077227067099997], [75.1166719698, 18.077227067099997], [75.1166719698, 18.077504845099998], [75.11556085779999, 18.077504845099998], [75.11556085779999, 18.0777826231], [75.1152830798, 18.0777826231], [75.1152830798, 18.078060401099997], [75.1130608558, 18.078060401099997]]]}}, {"type": "Feature", "properties": {"time_min": 20, "depth_min_m": 1.0, "depth_max_m": 3.0, "depth_class": "1.0\u20133.0 m", "class_area_km2": 0.22833273013540628, "flooded_area_km2": 1.3375063480658977, "frame_max_depth_m": 9.471043044910743, "class_mean_depth_m": 2.0386433403884485, "scenario_id": "partial_breach", "model_type": "Automated approximate 2D flood-routing prototype", "validated_hydraulic_output": false}, "geometry": {"type": "Polygon", "coordinates": [[[75.1100052978, 18.076949289099996], [75.1100052978, 18.0766715111], [75.10944974179999, 18.0766715111], [75.10944974179999, 18.076393733099998], [75.1088941858, 18.076393733099998], [75.1088941858, 18.0755603991], [75.1091719638, 18.0755603991], [75.1091719638, 18.0758381771], [75.10944974179999, 18.0758381771], [75.10944974179999, 18.076115955099997], [75.10972751979999, 18.076115955099997], [75.10972751979999, 18.076393733099998], [75.1102830758, 18.076393733099998], [75.1102830758, 18.0766715111], [75.1105608538, 18.0766715111], [75.1105608538, 18.076949289099996], [75.1100052978, 18.076949289099996]]]}}, {"type": "Feature", "properties": {"time_min": 20, "depth_min_m": 1.0, "depth_max_m": 3.0, "depth_class": "1.0\u20133.0 m", "class_area_km2": 0.22833273013540628, "flooded_area_km2": 1.3375063480658977, "frame_max_depth_m": 9.471043044910743, "class_mean_depth_m": 2.0386433403884485, "scenario_id": "partial_breach", "model_type": "Automated approximate 2D flood-routing prototype", "validated_hydraulic_output": false}, "geometry": {"type": "Polygon", "coordinates": [[[75.1075052958, 18.0758381771], [75.1075052958, 18.0755603991], [75.1072275178, 18.0755603991], [75.1072275178, 18.075282621099998], [75.10667196179999, 18.075282621099998], [75.10667196179999, 18.0755603991], [75.10528307179999, 18.0755603991], [75.10528307179999, 18.075282621099998], [75.1047275158, 18.075282621099998], [75.1047275158, 18.075004843099997], [75.10361640379999, 18.075004843099997], [75.10361640379999, 18.0747270651], [75.10333862579999, 18.0747270651], [75.10333862579999, 18.0744492871], [75.10500529379999, 18.0744492871], [75.10500529379999, 18.0747270651], [75.10528307179999, 18.0747270651], [75.10528307179999, 18.075004843099997], [75.10806085179999, 18.075004843099997], [75.10806085179999, 18.075282621099998], [75.1086164078, 18.075282621099998], [75.1086164078, 18.0755603991], [75.10833862979999, 18.0755603991], [75.10833862979999, 18.0758381771], [75.1075052958, 18.0758381771]]]}}, {"type": "Feature", "properties": {"time_min": 20, "depth_min_m": 1.0, "depth_max_m": 3.0, "depth_class": "1.0\u20133.0 m", "class_area_km2": 0.22833273013540628, "flooded_area_km2": 1.3375063480658977, "frame_max_depth_m": 9.471043044910743, "class_mean_depth_m": 2.0386433403884485, "scenario_id": "partial_breach", "model_type": "Automated approximate 2D flood-routing prototype", "validated_hydraulic_output": false}, "geometry": {"type": "Polygon", "coordinates": [[[75.1008386238, 18.0744492871], [75.1008386238, 18.073893731099997], [75.1013941798, 18.073893731099997], [75.1013941798, 18.074171509099997], [75.10333862579999, 18.074171509099997], [75.10333862579999, 18.0744492871], [75.1008386238, 18.0744492871]]]}}, {"type": "Feature", "properties": {"time_min": 20, "depth_min_m": 1.0, "depth_max_m": 3.0, "depth_class": "1.0\u20133.0 m", "class_area_km2": 0.22833273013540628, "flooded_area_km2": 1.3375063480658977, "frame_max_depth_m": 9.471043044910743, "class_mean_depth_m": 2.0386433403884485, "scenario_id": "partial_breach", "model_type": "Automated approximate 2D flood-routing prototype", "validated_hydraulic_output": false}, "geometry": {"type": "Polygon", "coordinates": [[[75.1180608598, 18.0758381771], [75.1180608598, 18.0755603991], [75.1177830818, 18.0755603991], [75.1177830818, 18.0744492871], [75.1180608598, 18.0744492871], [75.1180608598, 18.0736159531], [75.1183386378, 18.0736159531], [75.1183386378, 18.074171509099997], [75.11861641579999, 18.074171509099997], [75.11861641579999, 18.0747270651], [75.11889419379999, 18.0747270651], [75.11889419379999, 18.075004843099997], [75.1194497498, 18.075004843099997], [75.1194497498, 18.0755603991], [75.1197275278, 18.0755603991], [75.1197275278, 18.0758381771], [75.1191719718, 18.0758381771], [75.1191719718, 18.0755603991], [75.1183386378, 18.0755603991], [75.1183386378, 18.0758381771], [75.1180608598, 18.0758381771]]]}}, {"type": "Feature", "properties": {"time_min": 20, "depth_min_m": 1.0, "depth_max_m": 3.0, "depth_class": "1.0\u20133.0 m", "class_area_km2": 0.22833273013540628, "flooded_area_km2": 1.3375063480658977, "frame_max_depth_m": 9.471043044910743, "class_mean_depth_m": 2.0386433403884485, "scenario_id": "partial_breach", "model_type": "Automated approximate 2D flood-routing prototype", "validated_hydraulic_output": false}, "geometry": {"type": "Polygon", "coordinates": [[[75.1183386378, 18.073338175099998], [75.1183386378, 18.073060397099997], [75.11889419379999, 18.073060397099997], [75.11889419379999, 18.073338175099998], [75.1183386378, 18.073338175099998]]]}}, {"type": "Feature", "properties": {"time_min": 20, "depth_min_m": 1.0, "depth_max_m": 3.0, "depth_class": "1.0\u20133.0 m", "class_area_km2": 0.22833273013540628, "flooded_area_km2": 1.3375063480658977, "frame_max_depth_m": 9.471043044910743, "class_mean_depth_m": 2.0386433403884485, "scenario_id": "partial_breach", "model_type": "Automated approximate 2D flood-routing prototype", "validated_hydraulic_output": false}, "geometry": {"type": "Polygon", "coordinates": [[[75.11417196779999, 18.072782619099996], [75.11417196779999, 18.0725048411], [75.11583863579999, 18.0725048411], [75.11583863579999, 18.072782619099996], [75.11417196779999, 18.072782619099996]]]}}, {"type": "Feature", "properties": {"time_min": 20, "depth_min_m": 1.0, "depth_max_m": 3.0, "depth_class": "1.0\u20133.0 m", "class_area_km2": 0.22833273013540628, "flooded_area_km2": 1.3375063480658977, "frame_max_depth_m": 9.471043044910743, "class_mean_depth_m": 2.0386433403884485, "scenario_id": "partial_breach", "model_type": "Automated approximate 2D flood-routing prototype", "validated_hydraulic_output": false}, "geometry": {"type": "Polygon", "coordinates": [[[75.11722752579999, 18.072782619099996], [75.11722752579999, 18.0725048411], [75.1180608598, 18.0725048411], [75.1180608598, 18.072782619099996], [75.11722752579999, 18.072782619099996]]]}}, {"type": "Feature", "properties": {"time_min": 20, "depth_min_m": 1.0, "depth_max_m": 3.0, "depth_class": "1.0\u20133.0 m", "class_area_km2": 0.22833273013540628, "flooded_area_km2": 1.3375063480658977, "frame_max_depth_m": 9.471043044910743, "class_mean_depth_m": 2.0386433403884485, "scenario_id": "partial_breach", "model_type": "Automated approximate 2D flood-routing prototype", "validated_hydraulic_output": false}, "geometry": {"type": "Polygon", "coordinates": [[[75.11889419379999, 18.073060397099997], [75.11889419379999, 18.072782619099996], [75.1183386378, 18.072782619099996], [75.1183386378, 18.0725048411], [75.1191719718, 18.0725048411], [75.1191719718, 18.073060397099997], [75.11889419379999, 18.073060397099997]]]}}, {"type": "Feature", "properties": {"time_min": 20, "depth_min_m": 1.0, "depth_max_m": 3.0, "depth_class": "1.0\u20133.0 m", "class_area_km2": 0.22833273013540628, "flooded_area_km2": 1.3375063480658977, "frame_max_depth_m": 9.471043044910743, "class_mean_depth_m": 2.0386433403884485, "scenario_id": "partial_breach", "model_type": "Automated approximate 2D flood-routing prototype", "validated_hydraulic_output": false}, "geometry": {"type": "Polygon", "coordinates": [[[75.11250529979999, 18.0725048411], [75.11250529979999, 18.072227063099998], [75.1116719658, 18.072227063099998], [75.1116719658, 18.071949285099997], [75.1130608558, 18.071949285099997], [75.1130608558, 18.072227063099998], [75.11417196779999, 18.072227063099998], [75.11417196779999, 18.0725048411], [75.11250529979999, 18.0725048411]]]}}, {"type": "Feature", "properties": {"time_min": 20, "depth_min_m": 1.0, "depth_max_m": 3.0, "depth_class": "1.0\u20133.0 m", "class_area_km2": 0.22833273013540628, "flooded_area_km2": 1.3375063480658977, "frame_max_depth_m": 9.471043044910743, "class_mean_depth_m": 2.0386433403884485, "scenario_id": "partial_breach", "model_type": "Automated approximate 2D flood-routing prototype", "validated_hydraulic_output": false}, "geometry": {"type": "Polygon", "coordinates": [[[75.1100052978, 18.071949285099997], [75.1100052978, 18.0716715071], [75.1116719658, 18.0716715071], [75.1116719658, 18.071949285099997], [75.1100052978, 18.071949285099997]]]}}, {"type": "Feature", "properties": {"time_min": 20, "depth_min_m": 1.0, "depth_max_m": 3.0, "depth_class": "1.0\u20133.0 m", "class_area_km2": 0.22833273013540628, "flooded_area_km2": 1.3375063480658977, "frame_max_depth_m": 9.471043044910743, "class_mean_depth_m": 2.0386433403884485, "scenario_id": "partial_breach", "model_type": "Automated approximate 2D flood-routing prototype", "validated_hydraulic_output": false}, "geometry": {"type": "Polygon", "coordinates": [[[75.1088941858, 18.0716715071], [75.1088941858, 18.0713937291], [75.1100052978, 18.0713937291], [75.1100052978, 18.0716715071], [75.1088941858, 18.0716715071]]]}}, {"type": "Feature", "properties": {"time_min": 20, "depth_min_m": 1.0, "depth_max_m": 3.0, "depth_class": "1.0\u20133.0 m", "class_area_km2": 0.22833273013540628, "flooded_area_km2": 1.3375063480658977, "frame_max_depth_m": 9.471043044910743, "class_mean_depth_m": 2.0386433403884485, "scenario_id": "partial_breach", "model_type": "Automated approximate 2D flood-routing prototype", "validated_hydraulic_output": false}, "geometry": {"type": "Polygon", "coordinates": [[[75.1069497398, 18.0713937291], [75.1069497398, 18.071115951099998], [75.10528307179999, 18.071115951099998], [75.10528307179999, 18.070838173099997], [75.1047275158, 18.070838173099997], [75.1047275158, 18.0705603951], [75.10500529379999, 18.0705603951], [75.10500529379999, 18.0702826171], [75.10528307179999, 18.0702826171], [75.10528307179999, 18.0705603951], [75.1075052958, 18.0705603951], [75.1075052958, 18.071115951099998], [75.1086164078, 18.071115951099998], [75.1086164078, 18.0713937291], [75.1069497398, 18.0713937291]]]}}, {"type": "Feature", "properties": {"time_min": 20, "depth_min_m": 1.0, "depth_max_m": 3.0, "depth_class": "1.0\u20133.0 m", "class_area_km2": 0.22833273013540628, "flooded_area_km2": 1.3375063480658977, "frame_max_depth_m": 9.471043044910743, "class_mean_depth_m": 2.0386433403884485, "scenario_id": "partial_breach", "model_type": "Automated approximate 2D flood-routing prototype", "validated_hydraulic_output": false}, "geometry": {"type": "Polygon", "coordinates": [[[75.1041719598, 18.0705603951], [75.1041719598, 18.0702826171], [75.1047275158, 18.0702826171], [75.1047275158, 18.0705603951], [75.1041719598, 18.0705603951]]]}}, {"type": "Feature", "properties": {"time_min": 20, "depth_min_m": 1.0, "depth_max_m": 3.0, "depth_class": "1.0\u20133.0 m", "class_area_km2": 0.22833273013540628, "flooded_area_km2": 1.3375063480658977, "frame_max_depth_m": 9.471043044910743, "class_mean_depth_m": 2.0386433403884485, "scenario_id": "partial_breach", "model_type": "Automated approximate 2D flood-routing prototype", "validated_hydraulic_output": false}, "geometry": {"type": "Polygon", "coordinates": [[[75.1025052918, 18.0705603951], [75.1025052918, 18.0702826171], [75.10194973579999, 18.0702826171], [75.10194973579999, 18.070004839099997], [75.1041719598, 18.070004839099997], [75.1041719598, 18.0702826171], [75.1030608478, 18.0702826171], [75.1030608478, 18.0705603951], [75.1025052918, 18.0705603951]]]}}, {"type": "Feature", "properties": {"time_min": 20, "depth_min_m": 1.0, "depth_max_m": 3.0, "depth_class": "1.0\u20133.0 m", "class_area_km2": 0.22833273013540628, "flooded_area_km2": 1.3375063480658977, "frame_max_depth_m": 9.471043044910743, "class_mean_depth_m": 2.0386433403884485, "scenario_id": "partial_breach", "model_type": "Automated approximate 2D flood-routing prototype", "validated_hydraulic_output": false}, "geometry": {"type": "Polygon", "coordinates": [[[75.1011164018, 18.0702826171], [75.1011164018, 18.070004839099997], [75.1008386238, 18.070004839099997], [75.1008386238, 18.069727061099996], [75.10056084579999, 18.069727061099996], [75.10056084579999, 18.069171505099998], [75.1013941798, 18.069171505099998], [75.1013941798, 18.069727061099996], [75.1016719578, 18.069727061099996], [75.1016719578, 18.0702826171], [75.1011164018, 18.0702826171]]]}}, {"type": "Feature", "properties": {"time_min": 20, "depth_min_m": 3.0, "depth_max_m": 6.0, "depth_class": "3.0\u20136.0 m", "class_area_km2": 0.48644799028847424, "flooded_area_km2": 1.3375063480658977, "frame_max_depth_m": 9.471043044910743, "class_mean_depth_m": 4.46756228581911, "scenario_id": "partial_breach", "model_type": "Automated approximate 2D flood-routing prototype", "validated_hydraulic_output": false}, "geometry": {"type": "Polygon", "coordinates": [[[75.13250531579999, 18.080560403099998], [75.13250531579999, 18.080282625099997], [75.1327830938, 18.080282625099997], [75.1327830938, 18.080560403099998], [75.13250531579999, 18.080560403099998]]]}}, {"type": "Feature", "properties": {"time_min": 20, "depth_min_m": 3.0, "depth_max_m": 6.0, "depth_class": "3.0\u20136.0 m", "class_area_km2": 0.48644799028847424, "flooded_area_km2": 1.3375063480658977, "frame_max_depth_m": 9.471043044910743, "class_mean_depth_m": 4.46756228581911, "scenario_id": "partial_breach", "model_type": "Automated approximate 2D flood-routing prototype", "validated_hydraulic_output": false}, "geometry": {"type": "Polygon", "coordinates": [[[75.10972751979999, 18.076393733099998], [75.10972751979999, 18.076115955099997], [75.10944974179999, 18.076115955099997], [75.10944974179999, 18.0758381771], [75.1091719638, 18.0758381771], [75.1091719638, 18.0755603991], [75.10972751979999, 18.0755603991], [75.10972751979999, 18.0758381771], [75.1100052978, 18.0758381771], [75.1100052978, 18.076115955099997], [75.1102830758, 18.076115955099997], [75.1102830758, 18.076393733099998], [75.10972751979999, 18.076393733099998]]]}}, {"type": "Feature", "properties": {"time_min": 20, "depth_min_m": 3.0, "depth_max_m": 6.0, "depth_class": "3.0\u20136.0 m", "class_area_km2": 0.48644799028847424, "flooded_area_km2": 1.3375063480658977, "frame_max_depth_m": 9.471043044910743, "class_mean_depth_m": 4.46756228581911, "scenario_id": "partial_breach", "model_type": "Automated approximate 2D flood-routing prototype", "validated_hydraulic_output": false}, "geometry": {"type": "Polygon", "coordinates": [[[75.1086164078, 18.0755603991], [75.1086164078, 18.075282621099998], [75.1091719638, 18.075282621099998], [75.1091719638, 18.0755603991], [75.1086164078, 18.0755603991]]]}}, {"type": "Feature", "properties": {"time_min": 20, "depth_min_m": 3.0, "depth_max_m": 6.0, "depth_class": "3.0\u20136.0 m", "class_area_km2": 0.48644799028847424, "flooded_area_km2": 1.3375063480658977, "frame_max_depth_m": 9.471043044910743, "class_mean_depth_m": 4.46756228581911, "scenario_id": "partial_breach", "model_type": "Automated approximate 2D flood-routing prototype", "validated_hydraulic_output": false}, "geometry": {"type": "Polygon", "coordinates": [[[75.10806085179999, 18.075282621099998], [75.10806085179999, 18.075004843099997], [75.1086164078, 18.075004843099997], [75.1086164078, 18.075282621099998], [75.10806085179999, 18.075282621099998]]]}}, {"type": "Feature", "properties": {"time_min": 20, "depth_min_m": 3.0, "depth_max_m": 6.0, "depth_class": "3.0\u20136.0 m", "class_area_km2": 0.48644799028847424, "flooded_area_km2": 1.3375063480658977, "frame_max_depth_m": 9.471043044910743, "class_mean_depth_m": 4.46756228581911, "scenario_id": "partial_breach", "model_type": "Automated approximate 2D flood-routing prototype", "validated_hydraulic_output": false}, "geometry": {"type": "Polygon", "coordinates": [[[75.10528307179999, 18.075004843099997], [75.10528307179999, 18.0747270651], [75.10500529379999, 18.0747270651], [75.10500529379999, 18.0744492871], [75.10333862579999, 18.0744492871], [75.10333862579999, 18.074171509099997], [75.1013941798, 18.074171509099997], [75.1013941798, 18.073893731099997], [75.1008386238, 18.073893731099997], [75.1008386238, 18.074171509099997], [75.10056084579999, 18.074171509099997], [75.10056084579999, 18.073893731099997], [75.10028306779999, 18.073893731099997], [75.10028306779999, 18.0736159531], [75.1000052898, 18.0736159531], [75.1000052898, 18.073338175099998], [75.10194973579999, 18.073338175099998], [75.10194973579999, 18.0736159531], [75.1027830698, 18.0736159531], [75.1027830698, 18.073893731099997], [75.10528307179999, 18.073893731099997], [75.10528307179999, 18.0744492871], [75.1072275178, 18.0744492871], [75.1072275178, 18.0747270651], [75.10806085179999, 18.0747270651], [75.10806085179999, 18.075004843099997], [75.10528307179999, 18.075004843099997]]]}}, {"type": "Feature", "properties": {"time_min": 20, "depth_min_m": 3.0, "depth_max_m": 6.0, "depth_class": "3.0\u20136.0 m", "class_area_km2": 0.48644799028847424, "flooded_area_km2": 1.3375063480658977, "frame_max_depth_m": 9.471043044910743, "class_mean_depth_m": 4.46756228581911, "scenario_id": "partial_breach", "model_type": "Automated approximate 2D flood-routing prototype", "validated_hydraulic_output": false}, "geometry": {"type": "Polygon", "coordinates": [[[75.0994497338, 18.073338175099998], [75.0994497338, 18.073060397099997], [75.0997275118, 18.073060397099997], [75.0997275118, 18.073338175099998], [75.0994497338, 18.073338175099998]]]}}, {"type": "Feature", "properties": {"time_min": 20, "depth_min_m": 3.0, "depth_max_m": 6.0, "depth_class": "3.0\u20136.0 m", "class_area_km2": 0.48644799028847424, "flooded_area_km2": 1.3375063480658977, "frame_max_depth_m": 9.471043044910743, "class_mean_depth_m": 4.46756228581911, "scenario_id": "partial_breach", "model_type": "Automated approximate 2D flood-routing prototype", "validated_hydraulic_output": false}, "geometry": {"type": "Polygon", "coordinates": [[[75.1133386338, 18.077504845099998], [75.1133386338, 18.077227067099997], [75.11250529979999, 18.077227067099997], [75.11250529979999, 18.076949289099996], [75.1105608538, 18.076949289099996], [75.1105608538, 18.0766715111], [75.1102830758, 18.0766715111], [75.1102830758, 18.076393733099998], [75.1108386318, 18.076393733099998], [75.1108386318, 18.0766715111], [75.11111640979999, 18.0766715111], [75.11111640979999, 18.076393733099998], [75.11139418779999, 18.076393733099998], [75.11139418779999, 18.0758381771], [75.1116719658, 18.0758381771], [75.1116719658, 18.075282621099998], [75.1119497438, 18.075282621099998], [75.1119497438, 18.0744492871], [75.1122275218, 18.0744492871], [75.1122275218, 18.073893731099997], [75.1119497438, 18.073893731099997], [75.1119497438, 18.073060397099997], [75.1122275218, 18.073060397099997], [75.1122275218, 18.072782619099996], [75.1119497438, 18.072782619099996], [75.1119497438, 18.0725048411], [75.1108386318, 18.0725048411], [75.1108386318, 18.072227063099998], [75.10833862979999, 18.072227063099998], [75.10833862979999, 18.0725048411], [75.1077830738, 18.0725048411], [75.1077830738, 18.072227063099998], [75.1075052958, 18.072227063099998], [75.1075052958, 18.071949285099997], [75.1058386278, 18.071949285099997], [75.1058386278, 18.0716715071], [75.10500529379999, 18.0716715071], [75.10500529379999, 18.0713937291], [75.1047275158, 18.0713937291], [75.1047275158, 18.070838173099997], [75.10528307179999, 18.070838173099997], [75.10528307179999, 18.071115951099998], [75.1069497398, 18.071115951099998], [75.1069497398, 18.0713937291], [75.1088941858, 18.0713937291], [75.1088941858, 18.0716715071], [75.1100052978, 18.0716715071], [75.1100052978, 18.071949285099997], [75.1116719658, 18.071949285099997], [75.1116719658, 18.072227063099998], [75.11250529979999, 18.072227063099998], [75.11250529979999, 18.0725048411], [75.11417196779999, 18.0725048411], [75.11417196779999, 18.072782619099996], [75.1180608598, 18.072782619099996], [75.1180608598, 18.0725048411], [75.1183386378, 18.0725048411], [75.1183386378, 18.072782619099996], [75.11889419379999, 18.072782619099996], [75.11889419379999, 18.073060397099997], [75.1183386378, 18.073060397099997], [75.1183386378, 18.0736159531], [75.1180608598, 18.0736159531], [75.1180608598, 18.0744492871], [75.1177830818, 18.0744492871], [75.1177830818, 18.0755603991], [75.1180608598, 18.0755603991], [75.1180608598, 18.0758381771], [75.1183386378, 18.0758381771], [75.1183386378, 18.0755603991], [75.1191719718, 18.0755603991], [75.1191719718, 18.0758381771], [75.1197275278, 18.0758381771], [75.1197275278, 18.076115955099997], [75.1180608598, 18.076115955099997], [75.1180608598, 18.076393733099998], [75.1175053038, 18.076393733099998], [75.1175053038, 18.0766715111], [75.1163941918, 18.0766715111], [75.1163941918, 18.076949289099996], [75.11556085779999, 18.076949289099996], [75.11556085779999, 18.077227067099997], [75.1147275238, 18.077227067099997], [75.1147275238, 18.077504845099998], [75.1133386338, 18.077504845099998]]]}}, {"type": "Feature", "properties": {"time_min": 20, "depth_min_m": 3.0, "depth_max_m": 6.0, "depth_class": "3.0\u20136.0 m", "class_area_km2": 0.48644799028847424, "flooded_area_km2": 1.3375063480658977, "frame_max_depth_m": 9.471043044910743, "class_mean_depth_m": 4.46756228581911, "scenario_id": "partial_breach", "model_type": "Automated approximate 2D flood-routing prototype", "validated_hydraulic_output": false}, "geometry": {"type": "Polygon", "coordinates": [[[75.10361640379999, 18.071115951099998], [75.10361640379999, 18.070838173099997], [75.10222751379999, 18.070838173099997], [75.10222751379999, 18.0705603951], [75.1011164018, 18.0705603951], [75.1011164018, 18.0702826171], [75.1025052918, 18.0702826171], [75.1025052918, 18.0705603951], [75.1030608478, 18.0705603951], [75.1030608478, 18.0702826171], [75.1041719598, 18.0702826171], [75.1041719598, 18.0705603951], [75.1047275158, 18.0705603951], [75.1047275158, 18.070838173099997], [75.1041719598, 18.070838173099997], [75.1041719598, 18.071115951099998], [75.10361640379999, 18.071115951099998]]]}}, {"type": "Feature", "properties": {"time_min": 20, "depth_min_m": 3.0, "depth_max_m": 6.0, "depth_class": "3.0\u20136.0 m", "class_area_km2": 0.48644799028847424, "flooded_area_km2": 1.3375063480658977, "frame_max_depth_m": 9.471043044910743, "class_mean_depth_m": 4.46756228581911, "scenario_id": "partial_breach", "model_type": "Automated approximate 2D flood-routing prototype", "validated_hydraulic_output": false}, "geometry": {"type": "Polygon", "coordinates": [[[75.09889417779999, 18.0702826171], [75.09889417779999, 18.070004839099997], [75.0983386218, 18.070004839099997], [75.0983386218, 18.069727061099996], [75.1000052898, 18.069727061099996], [75.1000052898, 18.0694492831], [75.10028306779999, 18.0694492831], [75.10028306779999, 18.069171505099998], [75.10056084579999, 18.069171505099998], [75.10056084579999, 18.069727061099996], [75.1008386238, 18.069727061099996], [75.1008386238, 18.070004839099997], [75.1011164018, 18.070004839099997], [75.1011164018, 18.0702826171], [75.1000052898, 18.0702826171], [75.1000052898, 18.070004839099997], [75.0997275118, 18.070004839099997], [75.0997275118, 18.0702826171], [75.09889417779999, 18.0702826171]]]}}, {"type": "Feature", "properties": {"time_min": 20, "depth_min_m": 6.0, "depth_max_m": null, "depth_class": "6.0+ m", "class_area_km2": 0.4783254821018393, "flooded_area_km2": 1.3375063480658977, "frame_max_depth_m": 9.471043044910743, "class_mean_depth_m": 7.716878950165755, "scenario_id": "partial_breach", "model_type": "Automated approximate 2D flood-routing prototype", "validated_hydraulic_output": false}, "geometry": {"type": "Polygon", "coordinates": [[[75.1327830938, 18.080560403099998], [75.1327830938, 18.080282625099997], [75.1330608718, 18.080282625099997], [75.1330608718, 18.080560403099998], [75.1327830938, 18.080560403099998]]]}}, {"type": "Feature", "properties": {"time_min": 20, "depth_min_m": 6.0, "depth_max_m": null, "depth_class": "6.0+ m", "class_area_km2": 0.4783254821018393, "flooded_area_km2": 1.3375063480658977, "frame_max_depth_m": 9.471043044910743, "class_mean_depth_m": 7.716878950165755, "scenario_id": "partial_breach", "model_type": "Automated approximate 2D flood-routing prototype", "validated_hydraulic_output": false}, "geometry": {"type": "Polygon", "coordinates": [[[75.1108386318, 18.0766715111], [75.1108386318, 18.076393733099998], [75.1102830758, 18.076393733099998], [75.1102830758, 18.076115955099997], [75.1100052978, 18.076115955099997], [75.1100052978, 18.0758381771], [75.10972751979999, 18.0758381771], [75.10972751979999, 18.0755603991], [75.1091719638, 18.0755603991], [75.1091719638, 18.075282621099998], [75.1086164078, 18.075282621099998], [75.1086164078, 18.075004843099997], [75.10806085179999, 18.075004843099997], [75.10806085179999, 18.0747270651], [75.1072275178, 18.0747270651], [75.1072275178, 18.0744492871], [75.10528307179999, 18.0744492871], [75.10528307179999, 18.073893731099997], [75.1027830698, 18.073893731099997], [75.1027830698, 18.0736159531], [75.10194973579999, 18.0736159531], [75.10194973579999, 18.073338175099998], [75.0997275118, 18.073338175099998], [75.0997275118, 18.073060397099997], [75.09917195579999, 18.073060397099997], [75.09917195579999, 18.072782619099996], [75.09889417779999, 18.072782619099996], [75.09889417779999, 18.0725048411], [75.0986163998, 18.0725048411], [75.0986163998, 18.072227063099998], [75.0983386218, 18.072227063099998], [75.0983386218, 18.0716715071], [75.0980608438, 18.0716715071], [75.0980608438, 18.070004839099997], [75.09889417779999, 18.070004839099997], [75.09889417779999, 18.0702826171], [75.0997275118, 18.0702826171], [75.0997275118, 18.070004839099997], [75.1000052898, 18.070004839099997], [75.1000052898, 18.0702826171], [75.1011164018, 18.0702826171], [75.1011164018, 18.0705603951], [75.10222751379999, 18.0705603951], [75.10222751379999, 18.070838173099997], [75.10361640379999, 18.070838173099997], [75.10361640379999, 18.071115951099998], [75.1041719598, 18.071115951099998], [75.1041719598, 18.070838173099997], [75.1047275158, 18.070838173099997], [75.1047275158, 18.0713937291], [75.10500529379999, 18.0713937291], [75.10500529379999, 18.0716715071], [75.1058386278, 18.0716715071], [75.1058386278, 18.071949285099997], [75.1075052958, 18.071949285099997], [75.1075052958, 18.072227063099998], [75.1077830738, 18.072227063099998], [75.1077830738, 18.0725048411], [75.10833862979999, 18.0725048411], [75.10833862979999, 18.072227063099998], [75.1108386318, 18.072227063099998], [75.1108386318, 18.0725048411], [75.1119497438, 18.0725048411], [75.1119497438, 18.072782619099996], [75.1122275218, 18.072782619099996], [75.1122275218, 18.073060397099997], [75.1119497438, 18.073060397099997], [75.1119497438, 18.073893731099997], [75.1122275218, 18.073893731099997], [75.1122275218, 18.0744492871], [75.1119497438, 18.0744492871], [75.1119497438, 18.075282621099998], [75.1116719658, 18.075282621099998], [75.1116719658, 18.0758381771], [75.11139418779999, 18.0758381771], [75.11139418779999, 18.076393733099998], [75.11111640979999, 18.076393733099998], [75.11111640979999, 18.0766715111], [75.1108386318, 18.0766715111]]]}}]}