{"type": "FeatureCollection", "features": [{"type": "Feature", "properties": {"time_min": 40, "depth_min_m": 0.05, "depth_max_m": 1.0, "depth_class": "0.05\u20131.0 m", "class_area_km2": 0.026172526379157242, "flooded_area_km2": 0.8176658241212573, "frame_max_depth_m": 95.82394780707034, "class_mean_depth_m": 0.5687745514130123, "scenario_id": "partial_breach", "model_type": "Automated approximate 2D flood-routing prototype", "validated_hydraulic_output": false}, "geometry": {"type": "Polygon", "coordinates": [[[75.13250531579999, 18.0955604151], [75.13250531579999, 18.0952826371], [75.1327830938, 18.0952826371], [75.1327830938, 18.0955604151], [75.13250531579999, 18.0955604151]]]}}, {"type": "Feature", "properties": {"time_min": 40, "depth_min_m": 0.05, "depth_max_m": 1.0, "depth_class": "0.05\u20131.0 m", "class_area_km2": 0.026172526379157242, "flooded_area_km2": 0.8176658241212573, "frame_max_depth_m": 95.82394780707034, "class_mean_depth_m": 0.5687745514130123, "scenario_id": "partial_breach", "model_type": "Automated approximate 2D flood-routing prototype", "validated_hydraulic_output": false}, "geometry": {"type": "Polygon", "coordinates": [[[75.1363942078, 18.0952826371], [75.1363942078, 18.094727081099997], [75.13667198579999, 18.094727081099997], [75.13667198579999, 18.0952826371], [75.1363942078, 18.0952826371]]]}}, {"type": "Feature", "properties": {"time_min": 40, "depth_min_m": 0.05, "depth_max_m": 1.0, "depth_class": "0.05\u20131.0 m", "class_area_km2": 0.026172526379157242, "flooded_area_km2": 0.8176658241212573, "frame_max_depth_m": 95.82394780707034, "class_mean_depth_m": 0.5687745514130123, "scenario_id": "partial_breach", "model_type": "Automated approximate 2D flood-routing prototype", "validated_hydraulic_output": false}, "geometry": {"type": "Polygon", "coordinates": [[[75.13417198379999, 18.095004859099998], [75.13417198379999, 18.094727081099997], [75.1344497618, 18.094727081099997], [75.1344497618, 18.095004859099998], [75.13417198379999, 18.095004859099998]]]}}, {"type": "Feature", "properties": {"time_min": 40, "depth_min_m": 0.05, "depth_max_m": 1.0, "depth_class": "0.05\u20131.0 m", "class_area_km2": 0.026172526379157242, "flooded_area_km2": 0.8176658241212573, "frame_max_depth_m": 95.82394780707034, "class_mean_depth_m": 0.5687745514130123, "scenario_id": "partial_breach", "model_type": "Automated approximate 2D flood-routing prototype", "validated_hydraulic_output": false}, "geometry": {"type": "Polygon", "coordinates": [[[75.13528309579999, 18.094727081099997], [75.13528309579999, 18.0944493031], [75.13556087379999, 18.0944493031], [75.13556087379999, 18.094727081099997], [75.13528309579999, 18.094727081099997]]]}}, {"type": "Feature", "properties": {"time_min": 40, "depth_min_m": 0.05, "depth_max_m": 1.0, "depth_class": "0.05\u20131.0 m", "class_area_km2": 0.026172526379157242, "flooded_area_km2": 0.8176658241212573, "frame_max_depth_m": 95.82394780707034, "class_mean_depth_m": 0.5687745514130123, "scenario_id": "partial_breach", "model_type": "Automated approximate 2D flood-routing prototype", "validated_hydraulic_output": false}, "geometry": {"type": "Polygon", "coordinates": [[[75.1330608718, 18.093893747099997], [75.1330608718, 18.093615969099996], [75.1333386498, 18.093615969099996], [75.1333386498, 18.093893747099997], [75.1330608718, 18.093893747099997]]]}}, {"type": "Feature", "properties": {"time_min": 40, "depth_min_m": 0.05, "depth_max_m": 1.0, "depth_class": "0.05\u20131.0 m", "class_area_km2": 0.026172526379157242, "flooded_area_km2": 0.8176658241212573, "frame_max_depth_m": 95.82394780707034, "class_mean_depth_m": 0.5687745514130123, "scenario_id": "partial_breach", "model_type": "Automated approximate 2D flood-routing prototype", "validated_hydraulic_output": false}, "geometry": {"type": "Polygon", "coordinates": [[[75.1333386498, 18.093615969099996], [75.1333386498, 18.0933381911], [75.13361642779999, 18.0933381911], [75.13361642779999, 18.093615969099996], [75.1333386498, 18.093615969099996]]]}}, {"type": "Feature", "properties": {"time_min": 40, "depth_min_m": 0.05, "depth_max_m": 1.0, "depth_class": "0.05\u20131.0 m", "class_area_km2": 0.026172526379157242, "flooded_area_km2": 0.8176658241212573, "frame_max_depth_m": 95.82394780707034, "class_mean_depth_m": 0.5687745514130123, "scenario_id": "partial_breach", "model_type": "Automated approximate 2D flood-routing prototype", "validated_hydraulic_output": false}, "geometry": {"type": "Polygon", "coordinates": [[[75.13833865379999, 18.093615969099996], [75.13833865379999, 18.0933381911], [75.13861643179999, 18.0933381911], [75.13861643179999, 18.093615969099996], [75.13833865379999, 18.093615969099996]]]}}, {"type": "Feature", "properties": {"time_min": 40, "depth_min_m": 0.05, "depth_max_m": 1.0, "depth_class": "0.05\u20131.0 m", "class_area_km2": 0.026172526379157242, "flooded_area_km2": 0.8176658241212573, "frame_max_depth_m": 95.82394780707034, "class_mean_depth_m": 0.5687745514130123, "scenario_id": "partial_breach", "model_type": "Automated approximate 2D flood-routing prototype", "validated_hydraulic_output": false}, "geometry": {"type": "Polygon", "coordinates": [[[75.1347275398, 18.089727077099997], [75.1347275398, 18.0891715211], [75.13528309579999, 18.0891715211], [75.13528309579999, 18.089449299099996], [75.1350053178, 18.089449299099996], [75.1350053178, 18.089727077099997], [75.1347275398, 18.089727077099997]]]}}, {"type": "Feature", "properties": {"time_min": 40, "depth_min_m": 0.05, "depth_max_m": 1.0, "depth_class": "0.05\u20131.0 m", "class_area_km2": 0.026172526379157242, "flooded_area_km2": 0.8176658241212573, "frame_max_depth_m": 95.82394780707034, "class_mean_depth_m": 0.5687745514130123, "scenario_id": "partial_breach", "model_type": "Automated approximate 2D flood-routing prototype", "validated_hydraulic_output": false}, "geometry": {"type": "Polygon", "coordinates": [[[75.1361164298, 18.0880604091], [75.1361164298, 18.087782631099998], [75.1363942078, 18.087782631099998], [75.1363942078, 18.0880604091], [75.1361164298, 18.0880604091]]]}}, {"type": "Feature", "properties": {"time_min": 40, "depth_min_m": 0.05, "depth_max_m": 1.0, "depth_class": "0.05\u20131.0 m", "class_area_km2": 0.026172526379157242, "flooded_area_km2": 0.8176658241212573, "frame_max_depth_m": 95.82394780707034, "class_mean_depth_m": 0.5687745514130123, "scenario_id": "partial_breach", "model_type": "Automated approximate 2D flood-routing prototype", "validated_hydraulic_output": false}, "geometry": {"type": "Polygon", "coordinates": [[[75.1358386518, 18.087782631099998], [75.1358386518, 18.087504853099997], [75.1361164298, 18.087504853099997], [75.1361164298, 18.087782631099998], [75.1358386518, 18.087782631099998]]]}}, {"type": "Feature", "properties": {"time_min": 40, "depth_min_m": 0.05, "depth_max_m": 1.0, "depth_class": "0.05\u20131.0 m", "class_area_km2": 0.026172526379157242, "flooded_area_km2": 0.8176658241212573, "frame_max_depth_m": 95.82394780707034, "class_mean_depth_m": 0.5687745514130123, "scenario_id": "partial_breach", "model_type": "Automated approximate 2D flood-routing prototype", "validated_hydraulic_output": false}, "geometry": {"type": "Polygon", "coordinates": [[[75.1425053238, 18.087782631099998], [75.1425053238, 18.087504853099997], [75.14278310179999, 18.087504853099997], [75.14278310179999, 18.087782631099998], [75.1425053238, 18.087782631099998]]]}}, {"type": "Feature", "properties": {"time_min": 40, "depth_min_m": 0.05, "depth_max_m": 1.0, "depth_class": "0.05\u20131.0 m", "class_area_km2": 0.026172526379157242, "flooded_area_km2": 0.8176658241212573, "frame_max_depth_m": 95.82394780707034, "class_mean_depth_m": 0.5687745514130123, "scenario_id": "partial_breach", "model_type": "Automated approximate 2D flood-routing prototype", "validated_hydraulic_output": false}, "geometry": {"type": "Polygon", "coordinates": [[[75.13833865379999, 18.0872270751], [75.13833865379999, 18.0869492971], [75.13861643179999, 18.0869492971], [75.13861643179999, 18.0872270751], [75.13833865379999, 18.0872270751]]]}}, {"type": "Feature", "properties": {"time_min": 40, "depth_min_m": 0.05, "depth_max_m": 1.0, "depth_class": "0.05\u20131.0 m", "class_area_km2": 0.026172526379157242, "flooded_area_km2": 0.8176658241212573, "frame_max_depth_m": 95.82394780707034, "class_mean_depth_m": 0.5687745514130123, "scenario_id": "partial_breach", "model_type": "Automated approximate 2D flood-routing prototype", "validated_hydraulic_output": false}, "geometry": {"type": "Polygon", "coordinates": [[[75.14278310179999, 18.0872270751], [75.14278310179999, 18.0869492971], [75.14306087979999, 18.0869492971], [75.14306087979999, 18.0872270751], [75.14278310179999, 18.0872270751]]]}}, {"type": "Feature", "properties": {"time_min": 40, "depth_min_m": 0.05, "depth_max_m": 1.0, "depth_class": "0.05\u20131.0 m", "class_area_km2": 0.026172526379157242, "flooded_area_km2": 0.8176658241212573, "frame_max_depth_m": 95.82394780707034, "class_mean_depth_m": 0.5687745514130123, "scenario_id": "partial_breach", "model_type": "Automated approximate 2D flood-routing prototype", "validated_hydraulic_output": false}, "geometry": {"type": "Polygon", "coordinates": [[[75.1438942138, 18.0872270751], [75.1438942138, 18.0869492971], [75.1441719918, 18.0869492971], [75.1441719918, 18.0872270751], [75.1438942138, 18.0872270751]]]}}, {"type": "Feature", "properties": {"time_min": 40, "depth_min_m": 0.05, "depth_max_m": 1.0, "depth_class": "0.05\u20131.0 m", "class_area_km2": 0.026172526379157242, "flooded_area_km2": 0.8176658241212573, "frame_max_depth_m": 95.82394780707034, "class_mean_depth_m": 0.5687745514130123, "scenario_id": "partial_breach", "model_type": "Automated approximate 2D flood-routing prototype", "validated_hydraulic_output": false}, "geometry": {"type": "Polygon", "coordinates": [[[75.1433386578, 18.0869492971], [75.1433386578, 18.086671519099998], [75.1436164358, 18.086671519099998], [75.1436164358, 18.0869492971], [75.1433386578, 18.0869492971]]]}}, {"type": "Feature", "properties": {"time_min": 40, "depth_min_m": 0.05, "depth_max_m": 1.0, "depth_class": "0.05\u20131.0 m", "class_area_km2": 0.026172526379157242, "flooded_area_km2": 0.8176658241212573, "frame_max_depth_m": 95.82394780707034, "class_mean_depth_m": 0.5687745514130123, "scenario_id": "partial_breach", "model_type": "Automated approximate 2D flood-routing prototype", "validated_hydraulic_output": false}, "geometry": {"type": "Polygon", "coordinates": [[[75.1419497678, 18.0872270751], [75.1419497678, 18.0869492971], [75.14167198979999, 18.0869492971], [75.14167198979999, 18.086393741099997], [75.1419497678, 18.086393741099997], [75.1419497678, 18.086671519099998], [75.1422275458, 18.086671519099998], [75.1422275458, 18.0869492971], [75.1425053238, 18.0869492971], [75.1425053238, 18.0872270751], [75.1419497678, 18.0872270751]]]}}, {"type": "Feature", "properties": {"time_min": 40, "depth_min_m": 0.05, "depth_max_m": 1.0, "depth_class": "0.05\u20131.0 m", "class_area_km2": 0.026172526379157242, "flooded_area_km2": 0.8176658241212573, "frame_max_depth_m": 95.82394780707034, "class_mean_depth_m": 0.5687745514130123, "scenario_id": "partial_breach", "model_type": "Automated approximate 2D flood-routing prototype", "validated_hydraulic_output": false}, "geometry": {"type": "Polygon", "coordinates": [[[75.1358386518, 18.086671519099998], [75.1358386518, 18.086393741099997], [75.1361164298, 18.086393741099997], [75.1361164298, 18.086671519099998], [75.1358386518, 18.086671519099998]]]}}, {"type": "Feature", "properties": {"time_min": 40, "depth_min_m": 0.05, "depth_max_m": 1.0, "depth_class": "0.05\u20131.0 m", "class_area_km2": 0.026172526379157242, "flooded_area_km2": 0.8176658241212573, "frame_max_depth_m": 95.82394780707034, "class_mean_depth_m": 0.5687745514130123, "scenario_id": "partial_breach", "model_type": "Automated approximate 2D flood-routing prototype", "validated_hydraulic_output": false}, "geometry": {"type": "Polygon", "coordinates": [[[75.14306087979999, 18.086671519099998], [75.14306087979999, 18.086393741099997], [75.1433386578, 18.086393741099997], [75.1433386578, 18.086671519099998], [75.14306087979999, 18.086671519099998]]]}}, {"type": "Feature", "properties": {"time_min": 40, "depth_min_m": 0.05, "depth_max_m": 1.0, "depth_class": "0.05\u20131.0 m", "class_area_km2": 0.026172526379157242, "flooded_area_km2": 0.8176658241212573, "frame_max_depth_m": 95.82394780707034, "class_mean_depth_m": 0.5687745514130123, "scenario_id": "partial_breach", "model_type": "Automated approximate 2D flood-routing prototype", "validated_hydraulic_output": false}, "geometry": {"type": "Polygon", "coordinates": [[[75.14306087979999, 18.0861159631], [75.14306087979999, 18.085560407099997], [75.1433386578, 18.085560407099997], [75.1433386578, 18.0861159631], [75.14306087979999, 18.0861159631]]]}}, {"type": "Feature", "properties": {"time_min": 40, "depth_min_m": 0.05, "depth_max_m": 1.0, "depth_class": "0.05\u20131.0 m", "class_area_km2": 0.026172526379157242, "flooded_area_km2": 0.8176658241212573, "frame_max_depth_m": 95.82394780707034, "class_mean_depth_m": 0.5687745514130123, "scenario_id": "partial_breach", "model_type": "Automated approximate 2D flood-routing prototype", "validated_hydraulic_output": false}, "geometry": {"type": "Polygon", "coordinates": [[[75.13389420579999, 18.085560407099997], [75.13389420579999, 18.085282629099996], [75.13417198379999, 18.085282629099996], [75.13417198379999, 18.085560407099997], [75.13389420579999, 18.085560407099997]]]}}, {"type": "Feature", "properties": {"time_min": 40, "depth_min_m": 0.05, "depth_max_m": 1.0, "depth_class": "0.05\u20131.0 m", "class_area_km2": 0.026172526379157242, "flooded_area_km2": 0.8176658241212573, "frame_max_depth_m": 95.82394780707034, "class_mean_depth_m": 0.5687745514130123, "scenario_id": "partial_breach", "model_type": "Automated approximate 2D flood-routing prototype", "validated_hydraulic_output": false}, "geometry": {"type": "Polygon", "coordinates": [[[75.14278310179999, 18.085560407099997], [75.14278310179999, 18.085282629099996], [75.14306087979999, 18.085282629099996], [75.14306087979999, 18.085560407099997], [75.14278310179999, 18.085560407099997]]]}}, {"type": "Feature", "properties": {"time_min": 40, "depth_min_m": 1.0, "depth_max_m": 3.0, "depth_class": "1.0\u20133.0 m", "class_area_km2": 0.042417542752427255, "flooded_area_km2": 0.8176658241212573, "frame_max_depth_m": 95.82394780707034, "class_mean_depth_m": 2.0056884258369623, "scenario_id": "partial_breach", "model_type": "Automated approximate 2D flood-routing prototype", "validated_hydraulic_output": false}, "geometry": {"type": "Polygon", "coordinates": [[[75.13417198379999, 18.096115971099998], [75.13417198379999, 18.095838193099997], [75.1344497618, 18.095838193099997], [75.1344497618, 18.096115971099998], [75.13417198379999, 18.096115971099998]]]}}, {"type": "Feature", "properties": {"time_min": 40, "depth_min_m": 1.0, "depth_max_m": 3.0, "depth_class": "1.0\u20133.0 m", "class_area_km2": 0.042417542752427255, "flooded_area_km2": 0.8176658241212573, "frame_max_depth_m": 95.82394780707034, "class_mean_depth_m": 2.0056884258369623, "scenario_id": "partial_breach", "model_type": "Automated approximate 2D flood-routing prototype", "validated_hydraulic_output": false}, "geometry": {"type": "Polygon", "coordinates": [[[75.13361642779999, 18.095838193099997], [75.13361642779999, 18.0955604151], [75.13389420579999, 18.0955604151], [75.13389420579999, 18.095838193099997], [75.13361642779999, 18.095838193099997]]]}}, {"type": "Feature", "properties": {"time_min": 40, "depth_min_m": 1.0, "depth_max_m": 3.0, "depth_class": "1.0\u20133.0 m", "class_area_km2": 0.042417542752427255, "flooded_area_km2": 0.8176658241212573, "frame_max_depth_m": 95.82394780707034, "class_mean_depth_m": 2.0056884258369623, "scenario_id": "partial_breach", "model_type": "Automated approximate 2D flood-routing prototype", "validated_hydraulic_output": false}, "geometry": {"type": "Polygon", "coordinates": [[[75.13417198379999, 18.0955604151], [75.13417198379999, 18.0952826371], [75.1347275398, 18.0952826371], [75.1347275398, 18.0955604151], [75.13417198379999, 18.0955604151]]]}}, {"type": "Feature", "properties": {"time_min": 40, "depth_min_m": 1.0, "depth_max_m": 3.0, "depth_class": "1.0\u20133.0 m", "class_area_km2": 0.042417542752427255, "flooded_area_km2": 0.8176658241212573, "frame_max_depth_m": 95.82394780707034, "class_mean_depth_m": 2.0056884258369623, "scenario_id": "partial_breach", "model_type": "Automated approximate 2D flood-routing prototype", "validated_hydraulic_output": false}, "geometry": {"type": "Polygon", "coordinates": [[[75.1363942078, 18.0955604151], [75.1363942078, 18.0952826371], [75.13667198579999, 18.0952826371], [75.13667198579999, 18.0955604151], [75.1363942078, 18.0955604151]]]}}, {"type": "Feature", "properties": {"time_min": 40, "depth_min_m": 1.0, "depth_max_m": 3.0, "depth_class": "1.0\u20133.0 m", "class_area_km2": 0.042417542752427255, "flooded_area_km2": 0.8176658241212573, "frame_max_depth_m": 95.82394780707034, "class_mean_depth_m": 2.0056884258369623, "scenario_id": "partial_breach", "model_type": "Automated approximate 2D flood-routing prototype", "validated_hydraulic_output": false}, "geometry": {"type": "Polygon", "coordinates": [[[75.1330608718, 18.0952826371], [75.1330608718, 18.095004859099998], [75.13361642779999, 18.095004859099998], [75.13361642779999, 18.0952826371], [75.1330608718, 18.0952826371]]]}}, {"type": "Feature", "properties": {"time_min": 40, "depth_min_m": 1.0, "depth_max_m": 3.0, "depth_class": "1.0\u20133.0 m", "class_area_km2": 0.042417542752427255, "flooded_area_km2": 0.8176658241212573, "frame_max_depth_m": 95.82394780707034, "class_mean_depth_m": 2.0056884258369623, "scenario_id": "partial_breach", "model_type": "Automated approximate 2D flood-routing prototype", "validated_hydraulic_output": false}, "geometry": {"type": "Polygon", "coordinates": [[[75.1361164298, 18.095004859099998], [75.1361164298, 18.094727081099997], [75.1363942078, 18.094727081099997], [75.1363942078, 18.095004859099998], [75.1361164298, 18.095004859099998]]]}}, {"type": "Feature", "properties": {"time_min": 40, "depth_min_m": 1.0, "depth_max_m": 3.0, "depth_class": "1.0\u20133.0 m", "class_area_km2": 0.042417542752427255, "flooded_area_km2": 0.8176658241212573, "frame_max_depth_m": 95.82394780707034, "class_mean_depth_m": 2.0056884258369623, "scenario_id": "partial_breach", "model_type": "Automated approximate 2D flood-routing prototype", "validated_hydraulic_output": false}, "geometry": {"type": "Polygon", "coordinates": [[[75.1372275418, 18.095004859099998], [75.1372275418, 18.094727081099997], [75.1377830978, 18.094727081099997], [75.1377830978, 18.095004859099998], [75.1372275418, 18.095004859099998]]]}}, {"type": "Feature", "properties": {"time_min": 40, "depth_min_m": 1.0, "depth_max_m": 3.0, "depth_class": "1.0\u20133.0 m", "class_area_km2": 0.042417542752427255, "flooded_area_km2": 0.8176658241212573, "frame_max_depth_m": 95.82394780707034, "class_mean_depth_m": 2.0056884258369623, "scenario_id": "partial_breach", "model_type": "Automated approximate 2D flood-routing prototype", "validated_hydraulic_output": false}, "geometry": {"type": "Polygon", "coordinates": [[[75.1344497618, 18.095004859099998], [75.1344497618, 18.0944493031], [75.13528309579999, 18.0944493031], [75.13528309579999, 18.094727081099997], [75.1347275398, 18.094727081099997], [75.1347275398, 18.095004859099998], [75.1344497618, 18.095004859099998]]]}}, {"type": "Feature", "properties": {"time_min": 40, "depth_min_m": 1.0, "depth_max_m": 3.0, "depth_class": "1.0\u20133.0 m", "class_area_km2": 0.042417542752427255, "flooded_area_km2": 0.8176658241212573, "frame_max_depth_m": 95.82394780707034, "class_mean_depth_m": 2.0056884258369623, "scenario_id": "partial_breach", "model_type": "Automated approximate 2D flood-routing prototype", "validated_hydraulic_output": false}, "geometry": {"type": "Polygon", "coordinates": [[[75.13389420579999, 18.094727081099997], [75.13389420579999, 18.0944493031], [75.13417198379999, 18.0944493031], [75.13417198379999, 18.094727081099997], [75.13389420579999, 18.094727081099997]]]}}, {"type": "Feature", "properties": {"time_min": 40, "depth_min_m": 1.0, "depth_max_m": 3.0, "depth_class": "1.0\u20133.0 m", "class_area_km2": 0.042417542752427255, "flooded_area_km2": 0.8176658241212573, "frame_max_depth_m": 95.82394780707034, "class_mean_depth_m": 2.0056884258369623, "scenario_id": "partial_breach", "model_type": "Automated approximate 2D flood-routing prototype", "validated_hydraulic_output": false}, "geometry": {"type": "Polygon", "coordinates": [[[75.13556087379999, 18.094727081099997], [75.13556087379999, 18.0944493031], [75.1358386518, 18.0944493031], [75.1358386518, 18.094727081099997], [75.13556087379999, 18.094727081099997]]]}}, {"type": "Feature", "properties": {"time_min": 40, "depth_min_m": 1.0, "depth_max_m": 3.0, "depth_class": "1.0\u20133.0 m", "class_area_km2": 0.042417542752427255, "flooded_area_km2": 0.8176658241212573, "frame_max_depth_m": 95.82394780707034, "class_mean_depth_m": 2.0056884258369623, "scenario_id": "partial_breach", "model_type": "Automated approximate 2D flood-routing prototype", "validated_hydraulic_output": false}, "geometry": {"type": "Polygon", "coordinates": [[[75.1330608718, 18.093615969099996], [75.1330608718, 18.0933381911], [75.1333386498, 18.0933381911], [75.1333386498, 18.093615969099996], [75.1330608718, 18.093615969099996]]]}}, {"type": "Feature", "properties": {"time_min": 40, "depth_min_m": 1.0, "depth_max_m": 3.0, "depth_class": "1.0\u20133.0 m", "class_area_km2": 0.042417542752427255, "flooded_area_km2": 0.8176658241212573, "frame_max_depth_m": 95.82394780707034, "class_mean_depth_m": 2.0056884258369623, "scenario_id": "partial_breach", "model_type": "Automated approximate 2D flood-routing prototype", "validated_hydraulic_output": false}, "geometry": {"type": "Polygon", "coordinates": [[[75.13111642579999, 18.092782635099997], [75.13111642579999, 18.092504857099996], [75.1313942038, 18.092504857099996], [75.1313942038, 18.092782635099997], [75.13111642579999, 18.092782635099997]]]}}, {"type": "Feature", "properties": {"time_min": 40, "depth_min_m": 1.0, "depth_max_m": 3.0, "depth_class": "1.0\u20133.0 m", "class_area_km2": 0.042417542752427255, "flooded_area_km2": 0.8176658241212573, "frame_max_depth_m": 95.82394780707034, "class_mean_depth_m": 2.0056884258369623, "scenario_id": "partial_breach", "model_type": "Automated approximate 2D flood-routing prototype", "validated_hydraulic_output": false}, "geometry": {"type": "Polygon", "coordinates": [[[75.1316719818, 18.092504857099996], [75.1316719818, 18.0922270791], [75.1319497598, 18.0922270791], [75.1319497598, 18.092504857099996], [75.1316719818, 18.092504857099996]]]}}, {"type": "Feature", "properties": {"time_min": 40, "depth_min_m": 1.0, "depth_max_m": 3.0, "depth_class": "1.0\u20133.0 m", "class_area_km2": 0.042417542752427255, "flooded_area_km2": 0.8176658241212573, "frame_max_depth_m": 95.82394780707034, "class_mean_depth_m": 2.0056884258369623, "scenario_id": "partial_breach", "model_type": "Automated approximate 2D flood-routing prototype", "validated_hydraulic_output": false}, "geometry": {"type": "Polygon", "coordinates": [[[75.13389420579999, 18.090560411099997], [75.13389420579999, 18.0902826331], [75.13417198379999, 18.0902826331], [75.13417198379999, 18.090560411099997], [75.13389420579999, 18.090560411099997]]]}}, {"type": "Feature", "properties": {"time_min": 40, "depth_min_m": 1.0, "depth_max_m": 3.0, "depth_class": "1.0\u20133.0 m", "class_area_km2": 0.042417542752427255, "flooded_area_km2": 0.8176658241212573, "frame_max_depth_m": 95.82394780707034, "class_mean_depth_m": 2.0056884258369623, "scenario_id": "partial_breach", "model_type": "Automated approximate 2D flood-routing prototype", "validated_hydraulic_output": false}, "geometry": {"type": "Polygon", "coordinates": [[[75.1350053178, 18.089727077099997], [75.1350053178, 18.089449299099996], [75.13528309579999, 18.089449299099996], [75.13528309579999, 18.089727077099997], [75.1350053178, 18.089727077099997]]]}}, {"type": "Feature", "properties": {"time_min": 40, "depth_min_m": 1.0, "depth_max_m": 3.0, "depth_class": "1.0\u20133.0 m", "class_area_km2": 0.042417542752427255, "flooded_area_km2": 0.8176658241212573, "frame_max_depth_m": 95.82394780707034, "class_mean_depth_m": 2.0056884258369623, "scenario_id": "partial_breach", "model_type": "Automated approximate 2D flood-routing prototype", "validated_hydraulic_output": false}, "geometry": {"type": "Polygon", "coordinates": [[[75.13556087379999, 18.0891715211], [75.13556087379999, 18.088893743099998], [75.1358386518, 18.088893743099998], [75.1358386518, 18.0891715211], [75.13556087379999, 18.0891715211]]]}}, {"type": "Feature", "properties": {"time_min": 40, "depth_min_m": 1.0, "depth_max_m": 3.0, "depth_class": "1.0\u20133.0 m", "class_area_km2": 0.042417542752427255, "flooded_area_km2": 0.8176658241212573, "frame_max_depth_m": 95.82394780707034, "class_mean_depth_m": 2.0056884258369623, "scenario_id": "partial_breach", "model_type": "Automated approximate 2D flood-routing prototype", "validated_hydraulic_output": false}, "geometry": {"type": "Polygon", "coordinates": [[[75.13556087379999, 18.088615965099997], [75.13556087379999, 18.088338187099996], [75.1358386518, 18.088338187099996], [75.1358386518, 18.088615965099997], [75.13556087379999, 18.088615965099997]]]}}, {"type": "Feature", "properties": {"time_min": 40, "depth_min_m": 1.0, "depth_max_m": 3.0, "depth_class": "1.0\u20133.0 m", "class_area_km2": 0.042417542752427255, "flooded_area_km2": 0.8176658241212573, "frame_max_depth_m": 95.82394780707034, "class_mean_depth_m": 2.0056884258369623, "scenario_id": "partial_breach", "model_type": "Automated approximate 2D flood-routing prototype", "validated_hydraulic_output": false}, "geometry": {"type": "Polygon", "coordinates": [[[75.1375053198, 18.087782631099998], [75.1375053198, 18.087504853099997], [75.1377830978, 18.087504853099997], [75.1377830978, 18.087782631099998], [75.1375053198, 18.087782631099998]]]}}, {"type": "Feature", "properties": {"time_min": 40, "depth_min_m": 1.0, "depth_max_m": 3.0, "depth_class": "1.0\u20133.0 m", "class_area_km2": 0.042417542752427255, "flooded_area_km2": 0.8176658241212573, "frame_max_depth_m": 95.82394780707034, "class_mean_depth_m": 2.0056884258369623, "scenario_id": "partial_breach", "model_type": "Automated approximate 2D flood-routing prototype", "validated_hydraulic_output": false}, "geometry": {"type": "Polygon", "coordinates": [[[75.1422275458, 18.087782631099998], [75.1422275458, 18.087504853099997], [75.1425053238, 18.087504853099997], [75.1425053238, 18.087782631099998], [75.1422275458, 18.087782631099998]]]}}, {"type": "Feature", "properties": {"time_min": 40, "depth_min_m": 1.0, "depth_max_m": 3.0, "depth_class": "1.0\u20133.0 m", "class_area_km2": 0.042417542752427255, "flooded_area_km2": 0.8176658241212573, "frame_max_depth_m": 95.82394780707034, "class_mean_depth_m": 2.0056884258369623, "scenario_id": "partial_breach", "model_type": "Automated approximate 2D flood-routing prototype", "validated_hydraulic_output": false}, "geometry": {"type": "Polygon", "coordinates": [[[75.1438942138, 18.087504853099997], [75.1438942138, 18.0872270751], [75.1441719918, 18.0872270751], [75.1441719918, 18.087504853099997], [75.1438942138, 18.087504853099997]]]}}, {"type": "Feature", "properties": {"time_min": 40, "depth_min_m": 1.0, "depth_max_m": 3.0, "depth_class": "1.0\u20133.0 m", "class_area_km2": 0.042417542752427255, "flooded_area_km2": 0.8176658241212573, "frame_max_depth_m": 95.82394780707034, "class_mean_depth_m": 2.0056884258369623, "scenario_id": "partial_breach", "model_type": "Automated approximate 2D flood-routing prototype", "validated_hydraulic_output": false}, "geometry": {"type": "Polygon", "coordinates": [[[75.1361164298, 18.0872270751], [75.1361164298, 18.0869492971], [75.1363942078, 18.0869492971], [75.1363942078, 18.0872270751], [75.1361164298, 18.0872270751]]]}}, {"type": "Feature", "properties": {"time_min": 40, "depth_min_m": 1.0, "depth_max_m": 3.0, "depth_class": "1.0\u20133.0 m", "class_area_km2": 0.042417542752427255, "flooded_area_km2": 0.8176658241212573, "frame_max_depth_m": 95.82394780707034, "class_mean_depth_m": 2.0056884258369623, "scenario_id": "partial_breach", "model_type": "Automated approximate 2D flood-routing prototype", "validated_hydraulic_output": false}, "geometry": {"type": "Polygon", "coordinates": [[[75.1388942098, 18.0872270751], [75.1388942098, 18.0869492971], [75.1391719878, 18.0869492971], [75.1391719878, 18.0872270751], [75.1388942098, 18.0872270751]]]}}, {"type": "Feature", "properties": {"time_min": 40, "depth_min_m": 1.0, "depth_max_m": 3.0, "depth_class": "1.0\u20133.0 m", "class_area_km2": 0.042417542752427255, "flooded_area_km2": 0.8176658241212573, "frame_max_depth_m": 95.82394780707034, "class_mean_depth_m": 2.0056884258369623, "scenario_id": "partial_breach", "model_type": "Automated approximate 2D flood-routing prototype", "validated_hydraulic_output": false}, "geometry": {"type": "Polygon", "coordinates": [[[75.1436164358, 18.0872270751], [75.1436164358, 18.0869492971], [75.1438942138, 18.0869492971], [75.1438942138, 18.0872270751], [75.1436164358, 18.0872270751]]]}}, {"type": "Feature", "properties": {"time_min": 40, "depth_min_m": 1.0, "depth_max_m": 3.0, "depth_class": "1.0\u20133.0 m", "class_area_km2": 0.042417542752427255, "flooded_area_km2": 0.8176658241212573, "frame_max_depth_m": 95.82394780707034, "class_mean_depth_m": 2.0056884258369623, "scenario_id": "partial_breach", "model_type": "Automated approximate 2D flood-routing prototype", "validated_hydraulic_output": false}, "geometry": {"type": "Polygon", "coordinates": [[[75.1402830998, 18.0869492971], [75.1402830998, 18.086671519099998], [75.1405608778, 18.086671519099998], [75.1405608778, 18.0869492971], [75.1402830998, 18.0869492971]]]}}, {"type": "Feature", "properties": {"time_min": 40, "depth_min_m": 1.0, "depth_max_m": 3.0, "depth_class": "1.0\u20133.0 m", "class_area_km2": 0.042417542752427255, "flooded_area_km2": 0.8176658241212573, "frame_max_depth_m": 95.82394780707034, "class_mean_depth_m": 2.0056884258369623, "scenario_id": "partial_breach", "model_type": "Automated approximate 2D flood-routing prototype", "validated_hydraulic_output": false}, "geometry": {"type": "Polygon", "coordinates": [[[75.14139421179999, 18.086671519099998], [75.14139421179999, 18.086393741099997], [75.14167198979999, 18.086393741099997], [75.14167198979999, 18.086671519099998], [75.14139421179999, 18.086671519099998]]]}}, {"type": "Feature", "properties": {"time_min": 40, "depth_min_m": 1.0, "depth_max_m": 3.0, "depth_class": "1.0\u20133.0 m", "class_area_km2": 0.042417542752427255, "flooded_area_km2": 0.8176658241212573, "frame_max_depth_m": 95.82394780707034, "class_mean_depth_m": 2.0056884258369623, "scenario_id": "partial_breach", "model_type": "Automated approximate 2D flood-routing prototype", "validated_hydraulic_output": false}, "geometry": {"type": "Polygon", "coordinates": [[[75.14444976979999, 18.086671519099998], [75.14444976979999, 18.086393741099997], [75.14472754779999, 18.086393741099997], [75.14472754779999, 18.086671519099998], [75.14444976979999, 18.086671519099998]]]}}, {"type": "Feature", "properties": {"time_min": 40, "depth_min_m": 1.0, "depth_max_m": 3.0, "depth_class": "1.0\u20133.0 m", "class_area_km2": 0.042417542752427255, "flooded_area_km2": 0.8176658241212573, "frame_max_depth_m": 95.82394780707034, "class_mean_depth_m": 2.0056884258369623, "scenario_id": "partial_breach", "model_type": "Automated approximate 2D flood-routing prototype", "validated_hydraulic_output": false}, "geometry": {"type": "Polygon", "coordinates": [[[75.1380608758, 18.086393741099997], [75.1380608758, 18.0861159631], [75.13833865379999, 18.0861159631], [75.13833865379999, 18.086393741099997], [75.1380608758, 18.086393741099997]]]}}, {"type": "Feature", "properties": {"time_min": 40, "depth_min_m": 1.0, "depth_max_m": 3.0, "depth_class": "1.0\u20133.0 m", "class_area_km2": 0.042417542752427255, "flooded_area_km2": 0.8176658241212573, "frame_max_depth_m": 95.82394780707034, "class_mean_depth_m": 2.0056884258369623, "scenario_id": "partial_breach", "model_type": "Automated approximate 2D flood-routing prototype", "validated_hydraulic_output": false}, "geometry": {"type": "Polygon", "coordinates": [[[75.14278310179999, 18.086393741099997], [75.14278310179999, 18.0861159631], [75.14306087979999, 18.0861159631], [75.14306087979999, 18.086393741099997], [75.14278310179999, 18.086393741099997]]]}}, {"type": "Feature", "properties": {"time_min": 40, "depth_min_m": 1.0, "depth_max_m": 3.0, "depth_class": "1.0\u20133.0 m", "class_area_km2": 0.042417542752427255, "flooded_area_km2": 0.8176658241212573, "frame_max_depth_m": 95.82394780707034, "class_mean_depth_m": 2.0056884258369623, "scenario_id": "partial_breach", "model_type": "Automated approximate 2D flood-routing prototype", "validated_hydraulic_output": false}, "geometry": {"type": "Polygon", "coordinates": [[[75.1425053238, 18.0861159631], [75.1425053238, 18.0858381851], [75.14278310179999, 18.0858381851], [75.14278310179999, 18.0861159631], [75.1425053238, 18.0861159631]]]}}, {"type": "Feature", "properties": {"time_min": 40, "depth_min_m": 1.0, "depth_max_m": 3.0, "depth_class": "1.0\u20133.0 m", "class_area_km2": 0.042417542752427255, "flooded_area_km2": 0.8176658241212573, "frame_max_depth_m": 95.82394780707034, "class_mean_depth_m": 2.0056884258369623, "scenario_id": "partial_breach", "model_type": "Automated approximate 2D flood-routing prototype", "validated_hydraulic_output": false}, "geometry": {"type": "Polygon", "coordinates": [[[75.1419497678, 18.086671519099998], [75.1419497678, 18.085560407099997], [75.1425053238, 18.085560407099997], [75.1425053238, 18.0858381851], [75.1422275458, 18.0858381851], [75.1422275458, 18.086393741099997], [75.1425053238, 18.086393741099997], [75.1425053238, 18.086671519099998], [75.1419497678, 18.086671519099998]]]}}, {"type": "Feature", "properties": {"time_min": 40, "depth_min_m": 1.0, "depth_max_m": 3.0, "depth_class": "1.0\u20133.0 m", "class_area_km2": 0.042417542752427255, "flooded_area_km2": 0.8176658241212573, "frame_max_depth_m": 95.82394780707034, "class_mean_depth_m": 2.0056884258369623, "scenario_id": "partial_breach", "model_type": "Automated approximate 2D flood-routing prototype", "validated_hydraulic_output": false}, "geometry": {"type": "Polygon", "coordinates": [[[75.1441719918, 18.0861159631], [75.1441719918, 18.085282629099996], [75.14444976979999, 18.085282629099996], [75.14444976979999, 18.0858381851], [75.14472754779999, 18.0858381851], [75.14472754779999, 18.0861159631], [75.1441719918, 18.0861159631]]]}}, {"type": "Feature", "properties": {"time_min": 40, "depth_min_m": 1.0, "depth_max_m": 3.0, "depth_class": "1.0\u20133.0 m", "class_area_km2": 0.042417542752427255, "flooded_area_km2": 0.8176658241212573, "frame_max_depth_m": 95.82394780707034, "class_mean_depth_m": 2.0056884258369623, "scenario_id": "partial_breach", "model_type": "Automated approximate 2D flood-routing prototype", "validated_hydraulic_output": false}, "geometry": {"type": "Polygon", "coordinates": [[[75.1425053238, 18.085282629099996], [75.1425053238, 18.0850048511], [75.14278310179999, 18.0850048511], [75.14278310179999, 18.085282629099996], [75.1425053238, 18.085282629099996]]]}}, {"type": "Feature", "properties": {"time_min": 40, "depth_min_m": 1.0, "depth_max_m": 3.0, "depth_class": "1.0\u20133.0 m", "class_area_km2": 0.042417542752427255, "flooded_area_km2": 0.8176658241212573, "frame_max_depth_m": 95.82394780707034, "class_mean_depth_m": 2.0056884258369623, "scenario_id": "partial_breach", "model_type": "Automated approximate 2D flood-routing prototype", "validated_hydraulic_output": false}, "geometry": {"type": "Polygon", "coordinates": [[[75.1422275458, 18.0850048511], [75.1422275458, 18.084727073099998], [75.1425053238, 18.084727073099998], [75.1425053238, 18.0850048511], [75.1422275458, 18.0850048511]]]}}, {"type": "Feature", "properties": {"time_min": 40, "depth_min_m": 3.0, "depth_max_m": 6.0, "depth_class": "3.0\u20136.0 m", "class_area_km2": 0.05956506003532338, "flooded_area_km2": 0.8176658241212573, "frame_max_depth_m": 95.82394780707034, "class_mean_depth_m": 4.556548626051164, "scenario_id": "partial_breach", "model_type": "Automated approximate 2D flood-routing prototype", "validated_hydraulic_output": false}, "geometry": {"type": "Polygon", "coordinates": [[[75.13389420579999, 18.0983381951], [75.13389420579999, 18.097782639099997], [75.1344497618, 18.097782639099997], [75.1344497618, 18.098060417099997], [75.13417198379999, 18.098060417099997], [75.13417198379999, 18.0983381951], [75.13389420579999, 18.0983381951]]]}}, {"type": "Feature", "properties": {"time_min": 40, "depth_min_m": 3.0, "depth_max_m": 6.0, "depth_class": "3.0\u20136.0 m", "class_area_km2": 0.05956506003532338, "flooded_area_km2": 0.8176658241212573, "frame_max_depth_m": 95.82394780707034, "class_mean_depth_m": 4.556548626051164, "scenario_id": "partial_breach", "model_type": "Automated approximate 2D flood-routing prototype", "validated_hydraulic_output": false}, "geometry": {"type": "Polygon", "coordinates": [[[75.13417198379999, 18.095838193099997], [75.13417198379999, 18.0955604151], [75.1344497618, 18.0955604151], [75.1344497618, 18.095838193099997], [75.13417198379999, 18.095838193099997]]]}}, {"type": "Feature", "properties": {"time_min": 40, "depth_min_m": 3.0, "depth_max_m": 6.0, "depth_class": "3.0\u20136.0 m", "class_area_km2": 0.05956506003532338, "flooded_area_km2": 0.8176658241212573, "frame_max_depth_m": 95.82394780707034, "class_mean_depth_m": 4.556548626051164, "scenario_id": "partial_breach", "model_type": "Automated approximate 2D flood-routing prototype", "validated_hydraulic_output": false}, "geometry": {"type": "Polygon", "coordinates": [[[75.13222753779999, 18.095838193099997], [75.13222753779999, 18.0952826371], [75.13250531579999, 18.0952826371], [75.13250531579999, 18.095838193099997], [75.13222753779999, 18.095838193099997]]]}}, {"type": "Feature", "properties": {"time_min": 40, "depth_min_m": 3.0, "depth_max_m": 6.0, "depth_class": "3.0\u20136.0 m", "class_area_km2": 0.05956506003532338, "flooded_area_km2": 0.8176658241212573, "frame_max_depth_m": 95.82394780707034, "class_mean_depth_m": 4.556548626051164, "scenario_id": "partial_breach", "model_type": "Automated approximate 2D flood-routing prototype", "validated_hydraulic_output": false}, "geometry": {"type": "Polygon", "coordinates": [[[75.13667198579999, 18.095838193099997], [75.13667198579999, 18.0952826371], [75.13694976379999, 18.0952826371], [75.13694976379999, 18.095838193099997], [75.13667198579999, 18.095838193099997]]]}}, {"type": "Feature", "properties": {"time_min": 40, "depth_min_m": 3.0, "depth_max_m": 6.0, "depth_class": "3.0\u20136.0 m", "class_area_km2": 0.05956506003532338, "flooded_area_km2": 0.8176658241212573, "frame_max_depth_m": 95.82394780707034, "class_mean_depth_m": 4.556548626051164, "scenario_id": "partial_breach", "model_type": "Automated approximate 2D flood-routing prototype", "validated_hydraulic_output": false}, "geometry": {"type": "Polygon", "coordinates": [[[75.13361642779999, 18.0955604151], [75.13361642779999, 18.0952826371], [75.13417198379999, 18.0952826371], [75.13417198379999, 18.0955604151], [75.13361642779999, 18.0955604151]]]}}, {"type": "Feature", "properties": {"time_min": 40, "depth_min_m": 3.0, "depth_max_m": 6.0, "depth_class": "3.0\u20136.0 m", "class_area_km2": 0.05956506003532338, "flooded_area_km2": 0.8176658241212573, "frame_max_depth_m": 95.82394780707034, "class_mean_depth_m": 4.556548626051164, "scenario_id": "partial_breach", "model_type": "Automated approximate 2D flood-routing prototype", "validated_hydraulic_output": false}, "geometry": {"type": "Polygon", "coordinates": [[[75.13361642779999, 18.095004859099998], [75.13361642779999, 18.094727081099997], [75.13389420579999, 18.094727081099997], [75.13389420579999, 18.095004859099998], [75.13361642779999, 18.095004859099998]]]}}, {"type": "Feature", "properties": {"time_min": 40, "depth_min_m": 3.0, "depth_max_m": 6.0, "depth_class": "3.0\u20136.0 m", "class_area_km2": 0.05956506003532338, "flooded_area_km2": 0.8176658241212573, "frame_max_depth_m": 95.82394780707034, "class_mean_depth_m": 4.556548626051164, "scenario_id": "partial_breach", "model_type": "Automated approximate 2D flood-routing prototype", "validated_hydraulic_output": false}, "geometry": {"type": "Polygon", "coordinates": [[[75.13667198579999, 18.095004859099998], [75.13667198579999, 18.094727081099997], [75.1372275418, 18.094727081099997], [75.1372275418, 18.095004859099998], [75.13667198579999, 18.095004859099998]]]}}, {"type": "Feature", "properties": {"time_min": 40, "depth_min_m": 3.0, "depth_max_m": 6.0, "depth_class": "3.0\u20136.0 m", "class_area_km2": 0.05956506003532338, "flooded_area_km2": 0.8176658241212573, "frame_max_depth_m": 95.82394780707034, "class_mean_depth_m": 4.556548626051164, "scenario_id": "partial_breach", "model_type": "Automated approximate 2D flood-routing prototype", "validated_hydraulic_output": false}, "geometry": {"type": "Polygon", "coordinates": [[[75.13417198379999, 18.094727081099997], [75.13417198379999, 18.0944493031], [75.1344497618, 18.0944493031], [75.1344497618, 18.094727081099997], [75.13417198379999, 18.094727081099997]]]}}, {"type": "Feature", "properties": {"time_min": 40, "depth_min_m": 3.0, "depth_max_m": 6.0, "depth_class": "3.0\u20136.0 m", "class_area_km2": 0.05956506003532338, "flooded_area_km2": 0.8176658241212573, "frame_max_depth_m": 95.82394780707034, "class_mean_depth_m": 4.556548626051164, "scenario_id": "partial_breach", "model_type": "Automated approximate 2D flood-routing prototype", "validated_hydraulic_output": false}, "geometry": {"type": "Polygon", "coordinates": [[[75.1358386518, 18.094727081099997], [75.1358386518, 18.0944493031], [75.13667198579999, 18.0944493031], [75.13667198579999, 18.094727081099997], [75.1358386518, 18.094727081099997]]]}}, {"type": "Feature", "properties": {"time_min": 40, "depth_min_m": 3.0, "depth_max_m": 6.0, "depth_class": "3.0\u20136.0 m", "class_area_km2": 0.05956506003532338, "flooded_area_km2": 0.8176658241212573, "frame_max_depth_m": 95.82394780707034, "class_mean_depth_m": 4.556548626051164, "scenario_id": "partial_breach", "model_type": "Automated approximate 2D flood-routing prototype", "validated_hydraulic_output": false}, "geometry": {"type": "Polygon", "coordinates": [[[75.13389420579999, 18.0944493031], [75.13389420579999, 18.0941715251], [75.13417198379999, 18.0941715251], [75.13417198379999, 18.0944493031], [75.13389420579999, 18.0944493031]]]}}, {"type": "Feature", "properties": {"time_min": 40, "depth_min_m": 3.0, "depth_max_m": 6.0, "depth_class": "3.0\u20136.0 m", "class_area_km2": 0.05956506003532338, "flooded_area_km2": 0.8176658241212573, "frame_max_depth_m": 95.82394780707034, "class_mean_depth_m": 4.556548626051164, "scenario_id": "partial_breach", "model_type": "Automated approximate 2D flood-routing prototype", "validated_hydraulic_output": false}, "geometry": {"type": "Polygon", "coordinates": [[[75.13528309579999, 18.0944493031], [75.13528309579999, 18.0941715251], [75.1358386518, 18.0941715251], [75.1358386518, 18.0944493031], [75.13528309579999, 18.0944493031]]]}}, {"type": "Feature", "properties": {"time_min": 40, "depth_min_m": 3.0, "depth_max_m": 6.0, "depth_class": "3.0\u20136.0 m", "class_area_km2": 0.05956506003532338, "flooded_area_km2": 0.8176658241212573, "frame_max_depth_m": 95.82394780707034, "class_mean_depth_m": 4.556548626051164, "scenario_id": "partial_breach", "model_type": "Automated approximate 2D flood-routing prototype", "validated_hydraulic_output": false}, "geometry": {"type": "Polygon", "coordinates": [[[75.1377830978, 18.0944493031], [75.1377830978, 18.0941715251], [75.1380608758, 18.0941715251], [75.1380608758, 18.0944493031], [75.1377830978, 18.0944493031]]]}}, {"type": "Feature", "properties": {"time_min": 40, "depth_min_m": 3.0, "depth_max_m": 6.0, "depth_class": "3.0\u20136.0 m", "class_area_km2": 0.05956506003532338, "flooded_area_km2": 0.8176658241212573, "frame_max_depth_m": 95.82394780707034, "class_mean_depth_m": 4.556548626051164, "scenario_id": "partial_breach", "model_type": "Automated approximate 2D flood-routing prototype", "validated_hydraulic_output": false}, "geometry": {"type": "Polygon", "coordinates": [[[75.1380608758, 18.0941715251], [75.1380608758, 18.093893747099997], [75.13833865379999, 18.093893747099997], [75.13833865379999, 18.0941715251], [75.1380608758, 18.0941715251]]]}}, {"type": "Feature", "properties": {"time_min": 40, "depth_min_m": 3.0, "depth_max_m": 6.0, "depth_class": "3.0\u20136.0 m", "class_area_km2": 0.05956506003532338, "flooded_area_km2": 0.8176658241212573, "frame_max_depth_m": 95.82394780707034, "class_mean_depth_m": 4.556548626051164, "scenario_id": "partial_breach", "model_type": "Automated approximate 2D flood-routing prototype", "validated_hydraulic_output": false}, "geometry": {"type": "Polygon", "coordinates": [[[75.13361642779999, 18.0941715251], [75.13361642779999, 18.093615969099996], [75.13389420579999, 18.093615969099996], [75.13389420579999, 18.0941715251], [75.13361642779999, 18.0941715251]]]}}, {"type": "Feature", "properties": {"time_min": 40, "depth_min_m": 3.0, "depth_max_m": 6.0, "depth_class": "3.0\u20136.0 m", "class_area_km2": 0.05956506003532338, "flooded_area_km2": 0.8176658241212573, "frame_max_depth_m": 95.82394780707034, "class_mean_depth_m": 4.556548626051164, "scenario_id": "partial_breach", "model_type": "Automated approximate 2D flood-routing prototype", "validated_hydraulic_output": false}, "geometry": {"type": "Polygon", "coordinates": [[[75.1380608758, 18.093615969099996], [75.1380608758, 18.0933381911], [75.13833865379999, 18.0933381911], [75.13833865379999, 18.093615969099996], [75.1380608758, 18.093615969099996]]]}}, {"type": "Feature", "properties": {"time_min": 40, "depth_min_m": 3.0, "depth_max_m": 6.0, "depth_class": "3.0\u20136.0 m", "class_area_km2": 0.05956506003532338, "flooded_area_km2": 0.8176658241212573, "frame_max_depth_m": 95.82394780707034, "class_mean_depth_m": 4.556548626051164, "scenario_id": "partial_breach", "model_type": "Automated approximate 2D flood-routing prototype", "validated_hydraulic_output": false}, "geometry": {"type": "Polygon", "coordinates": [[[75.13222753779999, 18.0933381911], [75.13222753779999, 18.093060413099998], [75.13250531579999, 18.093060413099998], [75.13250531579999, 18.0933381911], [75.13222753779999, 18.0933381911]]]}}, {"type": "Feature", "properties": {"time_min": 40, "depth_min_m": 3.0, "depth_max_m": 6.0, "depth_class": "3.0\u20136.0 m", "class_area_km2": 0.05956506003532338, "flooded_area_km2": 0.8176658241212573, "frame_max_depth_m": 95.82394780707034, "class_mean_depth_m": 4.556548626051164, "scenario_id": "partial_breach", "model_type": "Automated approximate 2D flood-routing prototype", "validated_hydraulic_output": false}, "geometry": {"type": "Polygon", "coordinates": [[[75.1388942098, 18.0933381911], [75.1388942098, 18.093060413099998], [75.13972754379999, 18.093060413099998], [75.13972754379999, 18.0933381911], [75.1388942098, 18.0933381911]]]}}, {"type": "Feature", "properties": {"time_min": 40, "depth_min_m": 3.0, "depth_max_m": 6.0, "depth_class": "3.0\u20136.0 m", "class_area_km2": 0.05956506003532338, "flooded_area_km2": 0.8176658241212573, "frame_max_depth_m": 95.82394780707034, "class_mean_depth_m": 4.556548626051164, "scenario_id": "partial_breach", "model_type": "Automated approximate 2D flood-routing prototype", "validated_hydraulic_output": false}, "geometry": {"type": "Polygon", "coordinates": [[[75.1319497598, 18.093060413099998], [75.1319497598, 18.092782635099997], [75.13222753779999, 18.092782635099997], [75.13222753779999, 18.093060413099998], [75.1319497598, 18.093060413099998]]]}}, {"type": "Feature", "properties": {"time_min": 40, "depth_min_m": 3.0, "depth_max_m": 6.0, "depth_class": "3.0\u20136.0 m", "class_area_km2": 0.05956506003532338, "flooded_area_km2": 0.8176658241212573, "frame_max_depth_m": 95.82394780707034, "class_mean_depth_m": 4.556548626051164, "scenario_id": "partial_breach", "model_type": "Automated approximate 2D flood-routing prototype", "validated_hydraulic_output": false}, "geometry": {"type": "Polygon", "coordinates": [[[75.1319497598, 18.092504857099996], [75.1319497598, 18.0922270791], [75.13222753779999, 18.0922270791], [75.13222753779999, 18.092504857099996], [75.1319497598, 18.092504857099996]]]}}, {"type": "Feature", "properties": {"time_min": 40, "depth_min_m": 3.0, "depth_max_m": 6.0, "depth_class": "3.0\u20136.0 m", "class_area_km2": 0.05956506003532338, "flooded_area_km2": 0.8176658241212573, "frame_max_depth_m": 95.82394780707034, "class_mean_depth_m": 4.556548626051164, "scenario_id": "partial_breach", "model_type": "Automated approximate 2D flood-routing prototype", "validated_hydraulic_output": false}, "geometry": {"type": "Polygon", "coordinates": [[[75.13361642779999, 18.0911159671], [75.13361642779999, 18.090838189099998], [75.13389420579999, 18.090838189099998], [75.13389420579999, 18.0911159671], [75.13361642779999, 18.0911159671]]]}}, {"type": "Feature", "properties": {"time_min": 40, "depth_min_m": 3.0, "depth_max_m": 6.0, "depth_class": "3.0\u20136.0 m", "class_area_km2": 0.05956506003532338, "flooded_area_km2": 0.8176658241212573, "frame_max_depth_m": 95.82394780707034, "class_mean_depth_m": 4.556548626051164, "scenario_id": "partial_breach", "model_type": "Automated approximate 2D flood-routing prototype", "validated_hydraulic_output": false}, "geometry": {"type": "Polygon", "coordinates": [[[75.13389420579999, 18.090838189099998], [75.13389420579999, 18.090560411099997], [75.13417198379999, 18.090560411099997], [75.13417198379999, 18.090838189099998], [75.13389420579999, 18.090838189099998]]]}}, {"type": "Feature", "properties": {"time_min": 40, "depth_min_m": 3.0, "depth_max_m": 6.0, "depth_class": "3.0\u20136.0 m", "class_area_km2": 0.05956506003532338, "flooded_area_km2": 0.8176658241212573, "frame_max_depth_m": 95.82394780707034, "class_mean_depth_m": 4.556548626051164, "scenario_id": "partial_breach", "model_type": "Automated approximate 2D flood-routing prototype", "validated_hydraulic_output": false}, "geometry": {"type": "Polygon", "coordinates": [[[75.1344497618, 18.0900048551], [75.1344497618, 18.089727077099997], [75.1347275398, 18.089727077099997], [75.1347275398, 18.0900048551], [75.1344497618, 18.0900048551]]]}}, {"type": "Feature", "properties": {"time_min": 40, "depth_min_m": 3.0, "depth_max_m": 6.0, "depth_class": "3.0\u20136.0 m", "class_area_km2": 0.05956506003532338, "flooded_area_km2": 0.8176658241212573, "frame_max_depth_m": 95.82394780707034, "class_mean_depth_m": 4.556548626051164, "scenario_id": "partial_breach", "model_type": "Automated approximate 2D flood-routing prototype", "validated_hydraulic_output": false}, "geometry": {"type": "Polygon", "coordinates": [[[75.13528309579999, 18.089727077099997], [75.13528309579999, 18.089449299099996], [75.13556087379999, 18.089449299099996], [75.13556087379999, 18.089727077099997], [75.13528309579999, 18.089727077099997]]]}}, {"type": "Feature", "properties": {"time_min": 40, "depth_min_m": 3.0, "depth_max_m": 6.0, "depth_class": "3.0\u20136.0 m", "class_area_km2": 0.05956506003532338, "flooded_area_km2": 0.8176658241212573, "frame_max_depth_m": 95.82394780707034, "class_mean_depth_m": 4.556548626051164, "scenario_id": "partial_breach", "model_type": "Automated approximate 2D flood-routing prototype", "validated_hydraulic_output": false}, "geometry": {"type": "Polygon", "coordinates": [[[75.13417198379999, 18.088893743099998], [75.13417198379999, 18.088615965099997], [75.1344497618, 18.088615965099997], [75.1344497618, 18.088893743099998], [75.13417198379999, 18.088893743099998]]]}}, {"type": "Feature", "properties": {"time_min": 40, "depth_min_m": 3.0, "depth_max_m": 6.0, "depth_class": "3.0\u20136.0 m", "class_area_km2": 0.05956506003532338, "flooded_area_km2": 0.8176658241212573, "frame_max_depth_m": 95.82394780707034, "class_mean_depth_m": 4.556548626051164, "scenario_id": "partial_breach", "model_type": "Automated approximate 2D flood-routing prototype", "validated_hydraulic_output": false}, "geometry": {"type": "Polygon", "coordinates": [[[75.1377830978, 18.088615965099997], [75.1377830978, 18.0880604091], [75.1380608758, 18.0880604091], [75.1380608758, 18.088338187099996], [75.13833865379999, 18.088338187099996], [75.13833865379999, 18.088615965099997], [75.1377830978, 18.088615965099997]]]}}, {"type": "Feature", "properties": {"time_min": 40, "depth_min_m": 3.0, "depth_max_m": 6.0, "depth_class": "3.0\u20136.0 m", "class_area_km2": 0.05956506003532338, "flooded_area_km2": 0.8176658241212573, "frame_max_depth_m": 95.82394780707034, "class_mean_depth_m": 4.556548626051164, "scenario_id": "partial_breach", "model_type": "Automated approximate 2D flood-routing prototype", "validated_hydraulic_output": false}, "geometry": {"type": "Polygon", "coordinates": [[[75.1363942078, 18.088338187099996], [75.1363942078, 18.0880604091], [75.13667198579999, 18.0880604091], [75.13667198579999, 18.088338187099996], [75.1363942078, 18.088338187099996]]]}}, {"type": "Feature", "properties": {"time_min": 40, "depth_min_m": 3.0, "depth_max_m": 6.0, "depth_class": "3.0\u20136.0 m", "class_area_km2": 0.05956506003532338, "flooded_area_km2": 0.8176658241212573, "frame_max_depth_m": 95.82394780707034, "class_mean_depth_m": 4.556548626051164, "scenario_id": "partial_breach", "model_type": "Automated approximate 2D flood-routing prototype", "validated_hydraulic_output": false}, "geometry": {"type": "Polygon", "coordinates": [[[75.1375053198, 18.0880604091], [75.1375053198, 18.087782631099998], [75.1377830978, 18.087782631099998], [75.1377830978, 18.0880604091], [75.1375053198, 18.0880604091]]]}}, {"type": "Feature", "properties": {"time_min": 40, "depth_min_m": 3.0, "depth_max_m": 6.0, "depth_class": "3.0\u20136.0 m", "class_area_km2": 0.05956506003532338, "flooded_area_km2": 0.8176658241212573, "frame_max_depth_m": 95.82394780707034, "class_mean_depth_m": 4.556548626051164, "scenario_id": "partial_breach", "model_type": "Automated approximate 2D flood-routing prototype", "validated_hydraulic_output": false}, "geometry": {"type": "Polygon", "coordinates": [[[75.13556087379999, 18.087782631099998], [75.13556087379999, 18.087504853099997], [75.1358386518, 18.087504853099997], [75.1358386518, 18.087782631099998], [75.13556087379999, 18.087782631099998]]]}}, {"type": "Feature", "properties": {"time_min": 40, "depth_min_m": 3.0, "depth_max_m": 6.0, "depth_class": "3.0\u20136.0 m", "class_area_km2": 0.05956506003532338, "flooded_area_km2": 0.8176658241212573, "frame_max_depth_m": 95.82394780707034, "class_mean_depth_m": 4.556548626051164, "scenario_id": "partial_breach", "model_type": "Automated approximate 2D flood-routing prototype", "validated_hydraulic_output": false}, "geometry": {"type": "Polygon", "coordinates": [[[75.1388942098, 18.087782631099998], [75.1388942098, 18.087504853099997], [75.1391719878, 18.087504853099997], [75.1391719878, 18.087782631099998], [75.1388942098, 18.087782631099998]]]}}, {"type": "Feature", "properties": {"time_min": 40, "depth_min_m": 3.0, "depth_max_m": 6.0, "depth_class": "3.0\u20136.0 m", "class_area_km2": 0.05956506003532338, "flooded_area_km2": 0.8176658241212573, "frame_max_depth_m": 95.82394780707034, "class_mean_depth_m": 4.556548626051164, "scenario_id": "partial_breach", "model_type": "Automated approximate 2D flood-routing prototype", "validated_hydraulic_output": false}, "geometry": {"type": "Polygon", "coordinates": [[[75.14278310179999, 18.087782631099998], [75.14278310179999, 18.087504853099997], [75.14306087979999, 18.087504853099997], [75.14306087979999, 18.087782631099998], [75.14278310179999, 18.087782631099998]]]}}, {"type": "Feature", "properties": {"time_min": 40, "depth_min_m": 3.0, "depth_max_m": 6.0, "depth_class": "3.0\u20136.0 m", "class_area_km2": 0.05956506003532338, "flooded_area_km2": 0.8176658241212573, "frame_max_depth_m": 95.82394780707034, "class_mean_depth_m": 4.556548626051164, "scenario_id": "partial_breach", "model_type": "Automated approximate 2D flood-routing prototype", "validated_hydraulic_output": false}, "geometry": {"type": "Polygon", "coordinates": [[[75.1438942138, 18.087782631099998], [75.1438942138, 18.087504853099997], [75.1441719918, 18.087504853099997], [75.1441719918, 18.087782631099998], [75.1438942138, 18.087782631099998]]]}}, {"type": "Feature", "properties": {"time_min": 40, "depth_min_m": 3.0, "depth_max_m": 6.0, "depth_class": "3.0\u20136.0 m", "class_area_km2": 0.05956506003532338, "flooded_area_km2": 0.8176658241212573, "frame_max_depth_m": 95.82394780707034, "class_mean_depth_m": 4.556548626051164, "scenario_id": "partial_breach", "model_type": "Automated approximate 2D flood-routing prototype", "validated_hydraulic_output": false}, "geometry": {"type": "Polygon", "coordinates": [[[75.13861643179999, 18.087504853099997], [75.13861643179999, 18.0872270751], [75.1388942098, 18.0872270751], [75.1388942098, 18.087504853099997], [75.13861643179999, 18.087504853099997]]]}}, {"type": "Feature", "properties": {"time_min": 40, "depth_min_m": 3.0, "depth_max_m": 6.0, "depth_class": "3.0\u20136.0 m", "class_area_km2": 0.05956506003532338, "flooded_area_km2": 0.8176658241212573, "frame_max_depth_m": 95.82394780707034, "class_mean_depth_m": 4.556548626051164, "scenario_id": "partial_breach", "model_type": "Automated approximate 2D flood-routing prototype", "validated_hydraulic_output": false}, "geometry": {"type": "Polygon", "coordinates": [[[75.1419497678, 18.087504853099997], [75.1419497678, 18.0872270751], [75.1422275458, 18.0872270751], [75.1422275458, 18.087504853099997], [75.1419497678, 18.087504853099997]]]}}, {"type": "Feature", "properties": {"time_min": 40, "depth_min_m": 3.0, "depth_max_m": 6.0, "depth_class": "3.0\u20136.0 m", "class_area_km2": 0.05956506003532338, "flooded_area_km2": 0.8176658241212573, "frame_max_depth_m": 95.82394780707034, "class_mean_depth_m": 4.556548626051164, "scenario_id": "partial_breach", "model_type": "Automated approximate 2D flood-routing prototype", "validated_hydraulic_output": false}, "geometry": {"type": "Polygon", "coordinates": [[[75.1380608758, 18.087504853099997], [75.1380608758, 18.0869492971], [75.13833865379999, 18.0869492971], [75.13833865379999, 18.087504853099997], [75.1380608758, 18.087504853099997]]]}}, {"type": "Feature", "properties": {"time_min": 40, "depth_min_m": 3.0, "depth_max_m": 6.0, "depth_class": "3.0\u20136.0 m", "class_area_km2": 0.05956506003532338, "flooded_area_km2": 0.8176658241212573, "frame_max_depth_m": 95.82394780707034, "class_mean_depth_m": 4.556548626051164, "scenario_id": "partial_breach", "model_type": "Automated approximate 2D flood-routing prototype", "validated_hydraulic_output": false}, "geometry": {"type": "Polygon", "coordinates": [[[75.1402830998, 18.0872270751], [75.1402830998, 18.0869492971], [75.1405608778, 18.0869492971], [75.1405608778, 18.0872270751], [75.1402830998, 18.0872270751]]]}}, {"type": "Feature", "properties": {"time_min": 40, "depth_min_m": 3.0, "depth_max_m": 6.0, "depth_class": "3.0\u20136.0 m", "class_area_km2": 0.05956506003532338, "flooded_area_km2": 0.8176658241212573, "frame_max_depth_m": 95.82394780707034, "class_mean_depth_m": 4.556548626051164, "scenario_id": "partial_breach", "model_type": "Automated approximate 2D flood-routing prototype", "validated_hydraulic_output": false}, "geometry": {"type": "Polygon", "coordinates": [[[75.1441719918, 18.0872270751], [75.1441719918, 18.0869492971], [75.14444976979999, 18.0869492971], [75.14444976979999, 18.0872270751], [75.1441719918, 18.0872270751]]]}}, {"type": "Feature", "properties": {"time_min": 40, "depth_min_m": 3.0, "depth_max_m": 6.0, "depth_class": "3.0\u20136.0 m", "class_area_km2": 0.05956506003532338, "flooded_area_km2": 0.8176658241212573, "frame_max_depth_m": 95.82394780707034, "class_mean_depth_m": 4.556548626051164, "scenario_id": "partial_breach", "model_type": "Automated approximate 2D flood-routing prototype", "validated_hydraulic_output": false}, "geometry": {"type": "Polygon", "coordinates": [[[75.1450053258, 18.0872270751], [75.1450053258, 18.0869492971], [75.1452831038, 18.0869492971], [75.1452831038, 18.0872270751], [75.1450053258, 18.0872270751]]]}}, {"type": "Feature", "properties": {"time_min": 40, "depth_min_m": 3.0, "depth_max_m": 6.0, "depth_class": "3.0\u20136.0 m", "class_area_km2": 0.05956506003532338, "flooded_area_km2": 0.8176658241212573, "frame_max_depth_m": 95.82394780707034, "class_mean_depth_m": 4.556548626051164, "scenario_id": "partial_breach", "model_type": "Automated approximate 2D flood-routing prototype", "validated_hydraulic_output": false}, "geometry": {"type": "Polygon", "coordinates": [[[75.14278310179999, 18.0869492971], [75.14278310179999, 18.086671519099998], [75.14306087979999, 18.086671519099998], [75.14306087979999, 18.0869492971], [75.14278310179999, 18.0869492971]]]}}, {"type": "Feature", "properties": {"time_min": 40, "depth_min_m": 3.0, "depth_max_m": 6.0, "depth_class": "3.0\u20136.0 m", "class_area_km2": 0.05956506003532338, "flooded_area_km2": 0.8176658241212573, "frame_max_depth_m": 95.82394780707034, "class_mean_depth_m": 4.556548626051164, "scenario_id": "partial_breach", "model_type": "Automated approximate 2D flood-routing prototype", "validated_hydraulic_output": false}, "geometry": {"type": "Polygon", "coordinates": [[[75.14472754779999, 18.0869492971], [75.14472754779999, 18.086671519099998], [75.1450053258, 18.086671519099998], [75.1450053258, 18.0869492971], [75.14472754779999, 18.0869492971]]]}}, {"type": "Feature", "properties": {"time_min": 40, "depth_min_m": 3.0, "depth_max_m": 6.0, "depth_class": "3.0\u20136.0 m", "class_area_km2": 0.05956506003532338, "flooded_area_km2": 0.8176658241212573, "frame_max_depth_m": 95.82394780707034, "class_mean_depth_m": 4.556548626051164, "scenario_id": "partial_breach", "model_type": "Automated approximate 2D flood-routing prototype", "validated_hydraulic_output": false}, "geometry": {"type": "Polygon", "coordinates": [[[75.1408386558, 18.0869492971], [75.1408386558, 18.086671519099998], [75.1402830998, 18.086671519099998], [75.1402830998, 18.086393741099997], [75.14139421179999, 18.086393741099997], [75.14139421179999, 18.086671519099998], [75.1411164338, 18.086671519099998], [75.1411164338, 18.0869492971], [75.1408386558, 18.0869492971]]]}}, {"type": "Feature", "properties": {"time_min": 40, "depth_min_m": 3.0, "depth_max_m": 6.0, "depth_class": "3.0\u20136.0 m", "class_area_km2": 0.05956506003532338, "flooded_area_km2": 0.8176658241212573, "frame_max_depth_m": 95.82394780707034, "class_mean_depth_m": 4.556548626051164, "scenario_id": "partial_breach", "model_type": "Automated approximate 2D flood-routing prototype", "validated_hydraulic_output": false}, "geometry": {"type": "Polygon", "coordinates": [[[75.1425053238, 18.086671519099998], [75.1425053238, 18.086393741099997], [75.14278310179999, 18.086393741099997], [75.14278310179999, 18.086671519099998], [75.1425053238, 18.086671519099998]]]}}, {"type": "Feature", "properties": {"time_min": 40, "depth_min_m": 3.0, "depth_max_m": 6.0, "depth_class": "3.0\u20136.0 m", "class_area_km2": 0.05956506003532338, "flooded_area_km2": 0.8176658241212573, "frame_max_depth_m": 95.82394780707034, "class_mean_depth_m": 4.556548626051164, "scenario_id": "partial_breach", "model_type": "Automated approximate 2D flood-routing prototype", "validated_hydraulic_output": false}, "geometry": {"type": "Polygon", "coordinates": [[[75.1422275458, 18.086393741099997], [75.1422275458, 18.0861159631], [75.1425053238, 18.0861159631], [75.1425053238, 18.086393741099997], [75.1422275458, 18.086393741099997]]]}}, {"type": "Feature", "properties": {"time_min": 40, "depth_min_m": 3.0, "depth_max_m": 6.0, "depth_class": "3.0\u20136.0 m", "class_area_km2": 0.05956506003532338, "flooded_area_km2": 0.8176658241212573, "frame_max_depth_m": 95.82394780707034, "class_mean_depth_m": 4.556548626051164, "scenario_id": "partial_breach", "model_type": "Automated approximate 2D flood-routing prototype", "validated_hydraulic_output": false}, "geometry": {"type": "Polygon", "coordinates": [[[75.1419497678, 18.085282629099996], [75.1419497678, 18.0850048511], [75.1425053238, 18.0850048511], [75.1425053238, 18.085282629099996], [75.1419497678, 18.085282629099996]]]}}, {"type": "Feature", "properties": {"time_min": 40, "depth_min_m": 3.0, "depth_max_m": 6.0, "depth_class": "3.0\u20136.0 m", "class_area_km2": 0.05956506003532338, "flooded_area_km2": 0.8176658241212573, "frame_max_depth_m": 95.82394780707034, "class_mean_depth_m": 4.556548626051164, "scenario_id": "partial_breach", "model_type": "Automated approximate 2D flood-routing prototype", "validated_hydraulic_output": false}, "geometry": {"type": "Polygon", "coordinates": [[[75.14278310179999, 18.085282629099996], [75.14278310179999, 18.0850048511], [75.14306087979999, 18.0850048511], [75.14306087979999, 18.085282629099996], [75.14278310179999, 18.085282629099996]]]}}, {"type": "Feature", "properties": {"time_min": 40, "depth_min_m": 3.0, "depth_max_m": 6.0, "depth_class": "3.0\u20136.0 m", "class_area_km2": 0.05956506003532338, "flooded_area_km2": 0.8176658241212573, "frame_max_depth_m": 95.82394780707034, "class_mean_depth_m": 4.556548626051164, "scenario_id": "partial_breach", "model_type": "Automated approximate 2D flood-routing prototype", "validated_hydraulic_output": false}, "geometry": {"type": "Polygon", "coordinates": [[[75.14278310179999, 18.084727073099998], [75.14278310179999, 18.084449295099997], [75.14306087979999, 18.084449295099997], [75.14306087979999, 18.084727073099998], [75.14278310179999, 18.084727073099998]]]}}, {"type": "Feature", "properties": {"time_min": 40, "depth_min_m": 3.0, "depth_max_m": 6.0, "depth_class": "3.0\u20136.0 m", "class_area_km2": 0.05956506003532338, "flooded_area_km2": 0.8176658241212573, "frame_max_depth_m": 95.82394780707034, "class_mean_depth_m": 4.556548626051164, "scenario_id": "partial_breach", "model_type": "Automated approximate 2D flood-routing prototype", "validated_hydraulic_output": false}, "geometry": {"type": "Polygon", "coordinates": [[[75.1425053238, 18.083338183099997], [75.1425053238, 18.0830604051], [75.14278310179999, 18.0830604051], [75.14278310179999, 18.083338183099997], [75.1425053238, 18.083338183099997]]]}}, {"type": "Feature", "properties": {"time_min": 40, "depth_min_m": 6.0, "depth_max_m": null, "depth_class": "6.0+ m", "class_area_km2": 0.6895106949543495, "flooded_area_km2": 0.8176658241212573, "frame_max_depth_m": 95.82394780707034, "class_mean_depth_m": 36.60973322248009, "scenario_id": "partial_breach", "model_type": "Automated approximate 2D flood-routing prototype", "validated_hydraulic_output": false}, "geometry": {"type": "Polygon", "coordinates": [[[75.13389420579999, 18.096115971099998], [75.13389420579999, 18.0955604151], [75.13417198379999, 18.0955604151], [75.13417198379999, 18.096115971099998], [75.13389420579999, 18.096115971099998]]]}}, {"type": "Feature", "properties": {"time_min": 40, "depth_min_m": 6.0, "depth_max_m": null, "depth_class": "6.0+ m", "class_area_km2": 0.6895106949543495, "flooded_area_km2": 0.8176658241212573, "frame_max_depth_m": 95.82394780707034, "class_mean_depth_m": 36.60973322248009, "scenario_id": "partial_breach", "model_type": "Automated approximate 2D flood-routing prototype", "validated_hydraulic_output": false}, "geometry": {"type": "Polygon", "coordinates": [[[75.1363942078, 18.095838193099997], [75.1363942078, 18.0955604151], [75.13667198579999, 18.0955604151], [75.13667198579999, 18.095838193099997], [75.1363942078, 18.095838193099997]]]}}, {"type": "Feature", "properties": {"time_min": 40, "depth_min_m": 6.0, "depth_max_m": null, "depth_class": "6.0+ m", "class_area_km2": 0.6895106949543495, "flooded_area_km2": 0.8176658241212573, "frame_max_depth_m": 95.82394780707034, "class_mean_depth_m": 36.60973322248009, "scenario_id": "partial_breach", "model_type": "Automated approximate 2D flood-routing prototype", "validated_hydraulic_output": false}, "geometry": {"type": "Polygon", "coordinates": [[[75.13694976379999, 18.095838193099997], [75.13694976379999, 18.0952826371], [75.13667198579999, 18.0952826371], [75.13667198579999, 18.095004859099998], [75.1372275418, 18.095004859099998], [75.1372275418, 18.095838193099997], [75.13694976379999, 18.095838193099997]]]}}, {"type": "Feature", "properties": {"time_min": 40, "depth_min_m": 6.0, "depth_max_m": null, "depth_class": "6.0+ m", "class_area_km2": 0.6895106949543495, "flooded_area_km2": 0.8176658241212573, "frame_max_depth_m": 95.82394780707034, "class_mean_depth_m": 36.60973322248009, "scenario_id": "partial_breach", "model_type": "Automated approximate 2D flood-routing prototype", "validated_hydraulic_output": false}, "geometry": {"type": "Polygon", "coordinates": [[[75.1327830938, 18.095004859099998], [75.1327830938, 18.094727081099997], [75.1333386498, 18.094727081099997], [75.1333386498, 18.0941715251], [75.13389420579999, 18.0941715251], [75.13389420579999, 18.094727081099997], [75.13361642779999, 18.094727081099997], [75.13361642779999, 18.095004859099998], [75.1327830938, 18.095004859099998]]]}}, {"type": "Feature", "properties": {"time_min": 40, "depth_min_m": 6.0, "depth_max_m": null, "depth_class": "6.0+ m", "class_area_km2": 0.6895106949543495, "flooded_area_km2": 0.8176658241212573, "frame_max_depth_m": 95.82394780707034, "class_mean_depth_m": 36.60973322248009, "scenario_id": "partial_breach", "model_type": "Automated approximate 2D flood-routing prototype", "validated_hydraulic_output": false}, "geometry": {"type": "Polygon", "coordinates": [[[75.13667198579999, 18.094727081099997], [75.13667198579999, 18.0944493031], [75.1358386518, 18.0944493031], [75.1358386518, 18.0941715251], [75.13528309579999, 18.0941715251], [75.13528309579999, 18.0944493031], [75.13417198379999, 18.0944493031], [75.13417198379999, 18.0941715251], [75.13389420579999, 18.0941715251], [75.13389420579999, 18.093615969099996], [75.13361642779999, 18.093615969099996], [75.13361642779999, 18.0933381911], [75.1327830938, 18.0933381911], [75.1327830938, 18.093060413099998], [75.13222753779999, 18.093060413099998], [75.13222753779999, 18.092782635099997], [75.1319497598, 18.092782635099997], [75.1319497598, 18.093060413099998], [75.13111642579999, 18.093060413099998], [75.13111642579999, 18.092782635099997], [75.1313942038, 18.092782635099997], [75.1313942038, 18.092504857099996], [75.13222753779999, 18.092504857099996], [75.13222753779999, 18.0922270791], [75.1330608718, 18.0922270791], [75.1330608718, 18.091949301099998], [75.1333386498, 18.091949301099998], [75.1333386498, 18.0913937451], [75.13361642779999, 18.0913937451], [75.13361642779999, 18.0911159671], [75.13389420579999, 18.0911159671], [75.13389420579999, 18.090838189099998], [75.13417198379999, 18.090838189099998], [75.13417198379999, 18.0900048551], [75.1347275398, 18.0900048551], [75.1347275398, 18.089727077099997], [75.13556087379999, 18.089727077099997], [75.13556087379999, 18.0891715211], [75.1358386518, 18.0891715211], [75.1358386518, 18.0880604091], [75.13556087379999, 18.0880604091], [75.13556087379999, 18.087782631099998], [75.1361164298, 18.087782631099998], [75.1361164298, 18.0880604091], [75.1363942078, 18.0880604091], [75.1363942078, 18.088338187099996], [75.13667198579999, 18.088338187099996], [75.13667198579999, 18.087504853099997], [75.1375053198, 18.087504853099997], [75.1375053198, 18.0880604091], [75.1377830978, 18.0880604091], [75.1377830978, 18.088615965099997], [75.13833865379999, 18.088615965099997], [75.13833865379999, 18.088338187099996], [75.1380608758, 18.088338187099996], [75.1380608758, 18.087504853099997], [75.13833865379999, 18.087504853099997], [75.13833865379999, 18.0872270751], [75.13861643179999, 18.0872270751], [75.13861643179999, 18.087504853099997], [75.1388942098, 18.087504853099997], [75.1388942098, 18.0872270751], [75.1405608778, 18.0872270751], [75.1405608778, 18.086671519099998], [75.1408386558, 18.086671519099998], [75.1408386558, 18.0869492971], [75.1411164338, 18.0869492971], [75.1411164338, 18.086671519099998], [75.14167198979999, 18.086671519099998], [75.14167198979999, 18.0869492971], [75.1419497678, 18.0869492971], [75.1419497678, 18.087504853099997], [75.1422275458, 18.087504853099997], [75.1422275458, 18.087782631099998], [75.14306087979999, 18.087782631099998], [75.14306087979999, 18.086671519099998], [75.1433386578, 18.086671519099998], [75.1433386578, 18.0869492971], [75.1436164358, 18.0869492971], [75.1436164358, 18.0872270751], [75.1438942138, 18.0872270751], [75.1438942138, 18.087782631099998], [75.1441719918, 18.087782631099998], [75.1441719918, 18.0872270751], [75.14444976979999, 18.0872270751], [75.14444976979999, 18.086671519099998], [75.14472754779999, 18.086671519099998], [75.14472754779999, 18.0869492971], [75.1450053258, 18.0869492971], [75.1450053258, 18.087504853099997], [75.1452831038, 18.087504853099997], [75.1452831038, 18.088615965099997], [75.1450053258, 18.088615965099997], [75.1450053258, 18.088893743099998], [75.14444976979999, 18.088893743099998], [75.14444976979999, 18.089449299099996], [75.1441719918, 18.089449299099996], [75.1441719918, 18.0900048551], [75.1438942138, 18.0900048551], [75.1438942138, 18.0902826331], [75.1436164358, 18.0902826331], [75.1436164358, 18.090560411099997], [75.1433386578, 18.090560411099997], [75.1433386578, 18.0902826331], [75.14306087979999, 18.0902826331], [75.14306087979999, 18.090560411099997], [75.14278310179999, 18.090560411099997], [75.14278310179999, 18.0913937451], [75.1425053238, 18.0913937451], [75.1425053238, 18.0911159671], [75.1422275458, 18.0911159671], [75.1422275458, 18.0913937451], [75.14167198979999, 18.0913937451], [75.14167198979999, 18.091671523099997], [75.1408386558, 18.091671523099997], [75.1408386558, 18.091949301099998], [75.1405608778, 18.091949301099998], [75.1405608778, 18.092504857099996], [75.14000532179999, 18.092504857099996], [75.14000532179999, 18.092782635099997], [75.13972754379999, 18.092782635099997], [75.13972754379999, 18.093060413099998], [75.1388942098, 18.093060413099998], [75.1388942098, 18.0933381911], [75.1380608758, 18.0933381911], [75.1380608758, 18.0941715251], [75.1377830978, 18.0941715251], [75.1377830978, 18.094727081099997], [75.13667198579999, 18.094727081099997]], [[75.1388942098, 18.087782631099998], [75.1391719878, 18.087782631099998], [75.1391719878, 18.087504853099997], [75.1388942098, 18.087504853099997], [75.1388942098, 18.087782631099998]]]}}, {"type": "Feature", "properties": {"time_min": 40, "depth_min_m": 6.0, "depth_max_m": null, "depth_class": "6.0+ m", "class_area_km2": 0.6895106949543495, "flooded_area_km2": 0.8176658241212573, "frame_max_depth_m": 95.82394780707034, "class_mean_depth_m": 36.60973322248009, "scenario_id": "partial_breach", "model_type": "Automated approximate 2D flood-routing prototype", "validated_hydraulic_output": false}, "geometry": {"type": "Polygon", "coordinates": [[[75.14278310179999, 18.086671519099998], [75.14278310179999, 18.086393741099997], [75.14306087979999, 18.086393741099997], [75.14306087979999, 18.086671519099998], [75.14278310179999, 18.086671519099998]]]}}, {"type": "Feature", "properties": {"time_min": 40, "depth_min_m": 6.0, "depth_max_m": null, "depth_class": "6.0+ m", "class_area_km2": 0.6895106949543495, "flooded_area_km2": 0.8176658241212573, "frame_max_depth_m": 95.82394780707034, "class_mean_depth_m": 36.60973322248009, "scenario_id": "partial_breach", "model_type": "Automated approximate 2D flood-routing prototype", "validated_hydraulic_output": false}, "geometry": {"type": "Polygon", "coordinates": [[[75.1425053238, 18.086393741099997], [75.1425053238, 18.0861159631], [75.14278310179999, 18.0861159631], [75.14278310179999, 18.086393741099997], [75.1425053238, 18.086393741099997]]]}}, {"type": "Feature", "properties": {"time_min": 40, "depth_min_m": 6.0, "depth_max_m": null, "depth_class": "6.0+ m", "class_area_km2": 0.6895106949543495, "flooded_area_km2": 0.8176658241212573, "frame_max_depth_m": 95.82394780707034, "class_mean_depth_m": 36.60973322248009, "scenario_id": "partial_breach", "model_type": "Automated approximate 2D flood-routing prototype", "validated_hydraulic_output": false}, "geometry": {"type": "Polygon", "coordinates": [[[75.1375053198, 18.086393741099997], [75.1375053198, 18.0858381851], [75.1380608758, 18.0858381851], [75.1380608758, 18.086393741099997], [75.1375053198, 18.086393741099997]]]}}, {"type": "Feature", "properties": {"time_min": 40, "depth_min_m": 6.0, "depth_max_m": null, "depth_class": "6.0+ m", "class_area_km2": 0.6895106949543495, "flooded_area_km2": 0.8176658241212573, "frame_max_depth_m": 95.82394780707034, "class_mean_depth_m": 36.60973322248009, "scenario_id": "partial_breach", "model_type": "Automated approximate 2D flood-routing prototype", "validated_hydraulic_output": false}, "geometry": {"type": "Polygon", "coordinates": [[[75.14278310179999, 18.0861159631], [75.14278310179999, 18.0858381851], [75.1425053238, 18.0858381851], [75.1425053238, 18.085560407099997], [75.1419497678, 18.085560407099997], [75.1419497678, 18.085282629099996], [75.14278310179999, 18.085282629099996], [75.14278310179999, 18.085560407099997], [75.14306087979999, 18.085560407099997], [75.14306087979999, 18.0861159631], [75.14278310179999, 18.0861159631]]]}}, {"type": "Feature", "properties": {"time_min": 40, "depth_min_m": 6.0, "depth_max_m": null, "depth_class": "6.0+ m", "class_area_km2": 0.6895106949543495, "flooded_area_km2": 0.8176658241212573, "frame_max_depth_m": 95.82394780707034, "class_mean_depth_m": 36.60973322248009, "scenario_id": "partial_breach", "model_type": "Automated approximate 2D flood-routing prototype", "validated_hydraulic_output": false}, "geometry": {"type": "Polygon", "coordinates": [[[75.13389420579999, 18.085282629099996], [75.13389420579999, 18.0850048511], [75.13417198379999, 18.0850048511], [75.13417198379999, 18.085282629099996], [75.13389420579999, 18.085282629099996]]]}}, {"type": "Feature", "properties": {"time_min": 40, "depth_min_m": 6.0, "depth_max_m": null, "depth_class": "6.0+ m", "class_area_km2": 0.6895106949543495, "flooded_area_km2": 0.8176658241212573, "frame_max_depth_m": 95.82394780707034, "class_mean_depth_m": 36.60973322248009, "scenario_id": "partial_breach", "model_type": "Automated approximate 2D flood-routing prototype", "validated_hydraulic_output": false}, "geometry": {"type": "Polygon", "coordinates": [[[75.1425053238, 18.0850048511], [75.1425053238, 18.084449295099997], [75.14278310179999, 18.084449295099997], [75.14278310179999, 18.084727073099998], [75.14306087979999, 18.084727073099998], [75.14306087979999, 18.0850048511], [75.1425053238, 18.0850048511]]]}}, {"type": "Feature", "properties": {"time_min": 40, "depth_min_m": 6.0, "depth_max_m": null, "depth_class": "6.0+ m", "class_area_km2": 0.6895106949543495, "flooded_area_km2": 0.8176658241212573, "frame_max_depth_m": 95.82394780707034, "class_mean_depth_m": 36.60973322248009, "scenario_id": "partial_breach", "model_type": "Automated approximate 2D flood-routing prototype", "validated_hydraulic_output": false}, "geometry": {"type": "Polygon", "coordinates": [[[75.1422275458, 18.083338183099997], [75.1422275458, 18.0830604051], [75.1425053238, 18.0830604051], [75.1425053238, 18.083338183099997], [75.1422275458, 18.083338183099997]]]}}]}